{"type":"FeatureCollection","name":"Haïti — départements, contours d'affichage","crs":{"type":"name","properties":{"name":"urn:ogc:def:crs:OGC:1.3:CRS84"}},"traitement":"Simplification Douglas-Peucker, tolérance 0.0035 degré ; îlots de moins de 0.0009 degré carré écartés. Contours d'AFFICHAGE : la géométrie complète, au mètre et avec ses attributs, reste dans le Pack Géo.","source":"CNIGS / UN OCHA COD-AB Haïti","licence":"CC BY 3.0 IGO","features":[{"type":"Feature","geometry":{"type":"Polygon","coordinates":[[[-72.696,19.813],[-72.723,19.811],[-72.743,19.784],[-72.765,19.788],[-72.807,19.757],[-72.812,19.738],[-72.838,19.73],[-72.838,19.721],[-72.847,19.713],[-72.895,19.71],[-72.925,19.718],[-72.927,19.729],[-72.992,19.722],[-73.037,19.74],[-73.057,19.741],[-73.07,19.731],[-73.08,19.731],[-73.087,19.714],[-73.106,19.703],[-73.104,19.696],[-73.121,19.702],[-73.118,19.676],[-73.136,19.64],[-73.122,19.632],[-73.103,19.642],[-73.063,19.633],[-73.013,19.606],[-73.003,19.605],[-72.994,19.614],[-72.998,19.602],[-72.982,19.59],[-72.977,19.595],[-72.978,19.587],[-72.962,19.576],[-72.921,19.562],[-72.887,19.546],[-72.887,19.542],[-72.868,19.54],[-72.848,19.531],[-72.833,19.516],[-72.82,19.513],[-72.783,19.476],[-72.77,19.454],[-72.754,19.446],[-72.732,19.447],[-72.724,19.458],[-72.714,19.449],[-72.709,19.454],[-72.714,19.455],[-72.697,19.459],[-72.703,19.455],[-72.697,19.452],[-72.7,19.428],[-72.682,19.412],[-72.684,19.405],[-72.702,19.393],[-72.71,19.402],[-72.704,19.41],[-72.717,19.415],[-72.714,19.423],[-72.719,19.431],[-72.727,19.42],[-72.73,19.403],[-72.716,19.397],[-72.711,19.387],[-72.733,19.363],[-72.748,19.375],[-72.765,19.372],[-72.774,19.346],[-72.77,19.34],[-72.76,19.344],[-72.761,19.33],[-72.748,19.321],[-72.728,19.326],[-72.725,19.321],[-72.732,19.311],[-72.719,19.305],[-72.734,19.307],[-72.732,19.297],[-72.722,19.303],[-72.715,19.297],[-72.717,19.291],[-72.725,19.283],[-72.736,19.294],[-72.747,19.278],[-72.773,19.284],[-72.767,19.271],[-72.774,19.269],[-72.777,19.241],[-72.787,19.235],[-72.777,19.227],[-72.769,19.244],[-72.752,19.233],[-72.767,19.232],[-72.78,19.219],[-72.78,19.225],[-72.783,19.22],[-72.8,19.221],[-72.777,19.197],[-72.762,19.165],[-72.742,19.147],[-72.7,19.128],[-72.703,19.107],[-72.73,19.088],[-72.771,19.093],[-72.806,19.08],[-72.818,19.072],[-72.824,19.058],[-72.812,19.032],[-72.763,19.014],[-72.739,18.992],[-72.729,18.973],[-72.727,18.953],[-72.71,18.942],[-72.682,18.973],[-72.679,18.969],[-72.664,18.972],[-72.658,18.967],[-72.628,18.977],[-72.623,18.971],[-72.617,18.976],[-72.603,18.975],[-72.537,18.957],[-72.496,18.959],[-72.467,18.926],[-72.459,18.927],[-72.455,18.92],[-72.436,18.923],[-72.415,18.904],[-72.392,18.893],[-72.365,18.866],[-72.356,18.87],[-72.315,18.858],[-72.301,18.864],[-72.253,18.858],[-72.244,18.9],[-72.25,18.909],[-72.241,18.917],[-72.238,18.938],[-72.225,18.956],[-72.238,18.97],[-72.238,19.002],[-72.249,19.027],[-72.239,19.037],[-72.24,19.05],[-72.222,19.08],[-72.239,19.1],[-72.241,19.116],[-72.22,19.131],[-72.243,19.156],[-72.255,19.161],[-72.264,19.192],[-72.258,19.207],[-72.266,19.216],[-72.256,19.227],[-72.242,19.232],[-72.242,19.265],[-72.203,19.298],[-72.201,19.311],[-72.224,19.325],[-72.232,19.369],[-72.249,19.385],[-72.229,19.384],[-72.231,19.417],[-72.223,19.416],[-72.23,19.426],[-72.227,19.433],[-72.25,19.444],[-72.257,19.456],[-72.25,19.477],[-72.273,19.47],[-72.276,19.464],[-72.288,19.468],[-72.32,19.46],[-72.329,19.463],[-72.319,19.487],[-72.325,19.49],[-72.332,19.505],[-72.322,19.511],[-72.331,19.533],[-72.319,19.559],[-72.328,19.572],[-72.359,19.573],[-72.367,19.566],[-72.366,19.577],[-72.359,19.582],[-72.365,19.592],[-72.381,19.586],[-72.393,19.562],[-72.412,19.571],[-72.423,19.565],[-72.425,19.559],[-72.415,19.545],[-72.418,19.539],[-72.425,19.53],[-72.433,19.525],[-72.44,19.528],[-72.447,19.521],[-72.462,19.526],[-72.493,19.556],[-72.521,19.571],[-72.515,19.582],[-72.526,19.578],[-72.536,19.583],[-72.543,19.59],[-72.541,19.599],[-72.569,19.634],[-72.576,19.657],[-72.574,19.673],[-72.599,19.682],[-72.615,19.694],[-72.598,19.714],[-72.609,19.752],[-72.623,19.757],[-72.629,19.742],[-72.647,19.745],[-72.648,19.762],[-72.637,19.774],[-72.643,19.785],[-72.656,19.786],[-72.653,19.777],[-72.674,19.779],[-72.681,19.804],[-72.678,19.809],[-72.696,19.813]]]},"properties":{"atmart_geo_id":"HTD-05","pcode":"HT05","nom_fr":"Artibonite","nom_ht":"Latibonit","niveau_admin":"1"}},{"type":"Feature","geometry":{"type":"Polygon","coordinates":[[[-71.984,19.334],[-72.004,19.324],[-72.022,19.325],[-72.022,19.316],[-72.03,19.308],[-72.056,19.298],[-72.095,19.267],[-72.119,19.265],[-72.135,19.255],[-72.155,19.259],[-72.153,19.269],[-72.159,19.283],[-72.203,19.301],[-72.227,19.275],[-72.238,19.27],[-72.242,19.232],[-72.256,19.227],[-72.266,19.216],[-72.258,19.207],[-72.264,19.192],[-72.255,19.161],[-72.243,19.156],[-72.22,19.131],[-72.241,19.116],[-72.239,19.1],[-72.222,19.08],[-72.24,19.05],[-72.239,19.037],[-72.249,19.027],[-72.238,19.002],[-72.238,18.97],[-72.225,18.956],[-72.238,18.938],[-72.241,18.917],[-72.25,18.909],[-72.244,18.9],[-72.247,18.872],[-72.257,18.857],[-72.289,18.864],[-72.315,18.858],[-72.356,18.87],[-72.365,18.866],[-72.363,18.859],[-72.336,18.838],[-72.319,18.812],[-72.303,18.818],[-72.282,18.817],[-72.272,18.804],[-72.279,18.798],[-72.225,18.772],[-72.218,18.774],[-72.207,18.758],[-72.2,18.759],[-72.194,18.752],[-72.201,18.742],[-72.19,18.724],[-72.167,18.703],[-72.147,18.695],[-72.127,18.706],[-72.116,18.704],[-72.092,18.711],[-72.074,18.737],[-72.068,18.721],[-72.044,18.719],[-72.028,18.727],[-72.017,18.724],[-72.009,18.737],[-72.005,18.73],[-71.989,18.738],[-71.978,18.734],[-71.971,18.747],[-71.961,18.741],[-71.926,18.739],[-71.921,18.731],[-71.894,18.72],[-71.853,18.719],[-71.804,18.685],[-71.798,18.692],[-71.789,18.69],[-71.784,18.706],[-71.738,18.722],[-71.722,18.804],[-71.721,18.833],[-71.727,18.855],[-71.722,18.879],[-71.738,18.878],[-71.739,18.891],[-71.768,18.907],[-71.782,18.955],[-71.802,18.954],[-71.814,18.965],[-71.826,18.964],[-71.823,18.969],[-71.833,18.963],[-71.837,18.97],[-71.844,18.963],[-71.84,18.958],[-71.845,18.958],[-71.849,18.964],[-71.854,18.955],[-71.861,18.964],[-71.861,18.948],[-71.875,18.949],[-71.88,18.942],[-71.885,18.96],[-71.875,18.958],[-71.876,18.972],[-71.869,18.975],[-71.868,18.982],[-71.857,18.977],[-71.852,18.993],[-71.844,18.991],[-71.833,19.006],[-71.826,18.994],[-71.799,19.005],[-71.798,18.996],[-71.789,18.993],[-71.791,19.008],[-71.776,19.013],[-71.783,19.018],[-71.771,19.032],[-71.761,19.027],[-71.764,19.035],[-71.752,19.046],[-71.741,19.043],[-71.738,19.05],[-71.717,19.06],[-71.721,19.066],[-71.716,19.071],[-71.71,19.067],[-71.702,19.073],[-71.713,19.082],[-71.697,19.087],[-71.699,19.096],[-71.707,19.1],[-71.703,19.107],[-71.685,19.103],[-71.679,19.11],[-71.683,19.117],[-71.673,19.113],[-71.671,19.117],[-71.663,19.113],[-71.654,19.116],[-71.646,19.136],[-71.657,19.144],[-71.64,19.147],[-71.647,19.153],[-71.642,19.157],[-71.646,19.169],[-71.634,19.169],[-71.647,19.177],[-71.628,19.182],[-71.627,19.186],[-71.64,19.193],[-71.638,19.201],[-71.622,19.206],[-71.634,19.208],[-71.629,19.211],[-71.64,19.23],[-71.665,19.229],[-71.667,19.234],[-71.679,19.232],[-71.697,19.241],[-71.708,19.251],[-71.709,19.26],[-71.724,19.268],[-71.726,19.278],[-71.732,19.262],[-71.739,19.279],[-71.747,19.274],[-71.753,19.28],[-71.776,19.267],[-71.775,19.259],[-71.846,19.267],[-71.866,19.28],[-71.901,19.275],[-71.914,19.306],[-71.96,19.313],[-71.984,19.334]]]},"properties":{"atmart_geo_id":"HTD-06","pcode":"HT06","nom_fr":"Centre","nom_ht":"Sant","niveau_admin":"1"}},{"type":"Feature","geometry":{"type":"MultiPolygon","coordinates":[[[[-74.194,18.674],[-74.233,18.672],[-74.247,18.665],[-74.26,18.67],[-74.279,18.648],[-74.297,18.662],[-74.308,18.659],[-74.309,18.65],[-74.33,18.655],[-74.368,18.636],[-74.376,18.636],[-74.386,18.644],[-74.395,18.627],[-74.407,18.63],[-74.425,18.616],[-74.429,18.605],[-74.416,18.594],[-74.415,18.582],[-74.426,18.558],[-74.436,18.549],[-74.436,18.538],[-74.445,18.532],[-74.442,18.516],[-74.459,18.499],[-74.463,18.491],[-74.453,18.486],[-74.453,18.471],[-74.462,18.465],[-74.459,18.462],[-74.471,18.45],[-74.473,18.434],[-74.48,18.429],[-74.473,18.42],[-74.48,18.416],[-74.464,18.413],[-74.449,18.397],[-74.449,18.359],[-74.441,18.357],[-74.437,18.366],[-74.432,18.359],[-74.423,18.357],[-74.388,18.363],[-74.329,18.361],[-74.302,18.372],[-74.294,18.395],[-74.277,18.381],[-74.25,18.375],[-74.223,18.38],[-74.215,18.404],[-74.181,18.392],[-74.132,18.401],[-74.118,18.397],[-74.082,18.408],[-74.061,18.403],[-74.047,18.389],[-74.032,18.384],[-74.003,18.384],[-73.964,18.369],[-73.896,18.363],[-73.893,18.375],[-73.906,18.389],[-73.906,18.399],[-73.879,18.407],[-73.843,18.407],[-73.78,18.424],[-73.775,18.454],[-73.739,18.481],[-73.742,18.489],[-73.769,18.499],[-73.743,18.523],[-73.732,18.541],[-73.733,18.55],[-73.79,18.535],[-73.794,18.548],[-73.804,18.55],[-73.806,18.556],[-73.815,18.557],[-73.814,18.561],[-73.817,18.557],[-73.822,18.563],[-73.835,18.563],[-73.842,18.572],[-73.85,18.566],[-73.855,18.573],[-73.903,18.566],[-73.904,18.577],[-73.908,18.573],[-73.919,18.581],[-73.909,18.588],[-73.915,18.586],[-73.927,18.594],[-73.94,18.588],[-73.963,18.602],[-74.004,18.599],[-74.067,18.611],[-74.108,18.636],[-74.112,18.642],[-74.109,18.646],[-74.135,18.662],[-74.146,18.66],[-74.156,18.666],[-74.194,18.674]]],[[[-73.755,18.643],[-73.767,18.643],[-73.794,18.626],[-73.797,18.603],[-73.792,18.598],[-73.773,18.591],[-73.761,18.593],[-73.755,18.584],[-73.744,18.582],[-73.719,18.592],[-73.701,18.608],[-73.699,18.619],[-73.703,18.627],[-73.755,18.643]]]]},"properties":{"atmart_geo_id":"HTD-08","pcode":"HT08","nom_fr":"Grande'Anse","nom_ht":"Grandans","niveau_admin":"1"}},{"type":"Feature","geometry":{"type":"Polygon","coordinates":[[[-73.567,18.587],[-73.617,18.585],[-73.656,18.572],[-73.703,18.577],[-73.719,18.572],[-73.719,18.565],[-73.727,18.567],[-73.734,18.558],[-73.719,18.559],[-73.721,18.552],[-73.731,18.551],[-73.736,18.546],[-73.732,18.541],[-73.743,18.523],[-73.769,18.499],[-73.738,18.484],[-73.775,18.454],[-73.78,18.424],[-73.771,18.418],[-73.759,18.424],[-73.721,18.415],[-73.702,18.42],[-73.677,18.398],[-73.672,18.403],[-73.672,18.431],[-73.668,18.433],[-73.653,18.426],[-73.644,18.43],[-73.632,18.422],[-73.61,18.427],[-73.602,18.42],[-73.578,18.421],[-73.579,18.407],[-73.574,18.401],[-73.562,18.401],[-73.559,18.391],[-73.539,18.385],[-73.542,18.374],[-73.555,18.37],[-73.556,18.35],[-73.564,18.347],[-73.555,18.336],[-73.504,18.337],[-73.482,18.342],[-73.459,18.338],[-73.429,18.345],[-73.412,18.342],[-73.405,18.348],[-73.355,18.343],[-73.331,18.371],[-73.319,18.363],[-73.287,18.368],[-73.259,18.353],[-73.228,18.352],[-73.218,18.363],[-73.195,18.364],[-73.157,18.35],[-73.142,18.365],[-73.125,18.359],[-73.11,18.362],[-73.08,18.329],[-73.071,18.331],[-73.072,18.323],[-73.059,18.303],[-73.042,18.3],[-73.052,18.287],[-73.038,18.27],[-73.042,18.26],[-73.03,18.251],[-73.03,18.24],[-73.017,18.237],[-73.023,18.225],[-73.015,18.228],[-73.016,18.222],[-73.011,18.223],[-73.013,18.279],[-72.995,18.306],[-72.995,18.32],[-73.017,18.342],[-73.02,18.349],[-73.011,18.361],[-73.026,18.375],[-73.019,18.383],[-73.03,18.389],[-73.054,18.432],[-73.045,18.438],[-73.055,18.452],[-73.051,18.461],[-73.07,18.458],[-73.073,18.447],[-73.085,18.449],[-73.091,18.443],[-73.105,18.447],[-73.106,18.456],[-73.111,18.453],[-73.116,18.458],[-73.114,18.462],[-73.125,18.462],[-73.12,18.466],[-73.122,18.47],[-73.125,18.467],[-73.125,18.475],[-73.16,18.486],[-73.189,18.49],[-73.239,18.476],[-73.27,18.484],[-73.294,18.483],[-73.331,18.503],[-73.457,18.529],[-73.471,18.523],[-73.521,18.529],[-73.528,18.518],[-73.53,18.523],[-73.539,18.524],[-73.536,18.521],[-73.548,18.52],[-73.559,18.51],[-73.564,18.513],[-73.571,18.505],[-73.579,18.51],[-73.578,18.504],[-73.588,18.501],[-73.623,18.5],[-73.623,18.504],[-73.636,18.506],[-73.662,18.499],[-73.664,18.506],[-73.673,18.509],[-73.66,18.533],[-73.664,18.541],[-73.681,18.545],[-73.685,18.536],[-73.684,18.545],[-73.693,18.539],[-73.694,18.546],[-73.7,18.541],[-73.714,18.541],[-73.721,18.546],[-73.725,18.543],[-73.717,18.551],[-73.71,18.544],[-73.699,18.554],[-73.683,18.554],[-73.68,18.56],[-73.69,18.562],[-73.688,18.566],[-73.675,18.565],[-73.666,18.557],[-73.662,18.56],[-73.666,18.553],[-73.644,18.554],[-73.644,18.56],[-73.592,18.553],[-73.577,18.561],[-73.564,18.581],[-73.567,18.587]]]},"properties":{"atmart_geo_id":"HTD-10","pcode":"HT10","nom_fr":"Nippes","nom_ht":"Nip","niveau_admin":"1"}},{"type":"Feature","geometry":{"type":"Polygon","coordinates":[[[-72.555,19.878],[-72.567,19.878],[-72.583,19.866],[-72.58,19.85],[-72.59,19.85],[-72.596,19.84],[-72.591,19.831],[-72.602,19.838],[-72.611,19.836],[-72.619,19.815],[-72.63,19.812],[-72.639,19.819],[-72.639,19.829],[-72.685,19.832],[-72.677,19.814],[-72.681,19.804],[-72.674,19.779],[-72.653,19.777],[-72.656,19.786],[-72.643,19.785],[-72.639,19.778],[-72.648,19.762],[-72.647,19.745],[-72.629,19.742],[-72.623,19.757],[-72.609,19.752],[-72.598,19.714],[-72.615,19.694],[-72.599,19.682],[-72.574,19.673],[-72.576,19.657],[-72.569,19.634],[-72.541,19.599],[-72.538,19.585],[-72.526,19.578],[-72.515,19.582],[-72.521,19.571],[-72.493,19.556],[-72.462,19.526],[-72.447,19.521],[-72.44,19.528],[-72.433,19.525],[-72.425,19.53],[-72.418,19.539],[-72.415,19.545],[-72.425,19.559],[-72.423,19.565],[-72.412,19.571],[-72.393,19.562],[-72.39,19.574],[-72.375,19.59],[-72.365,19.592],[-72.359,19.586],[-72.366,19.577],[-72.365,19.565],[-72.359,19.573],[-72.325,19.57],[-72.319,19.559],[-72.331,19.533],[-72.322,19.511],[-72.332,19.505],[-72.325,19.49],[-72.319,19.487],[-72.329,19.463],[-72.32,19.46],[-72.288,19.468],[-72.276,19.464],[-72.273,19.47],[-72.25,19.477],[-72.257,19.456],[-72.25,19.444],[-72.227,19.433],[-72.23,19.426],[-72.223,19.419],[-72.231,19.417],[-72.229,19.384],[-72.249,19.385],[-72.232,19.369],[-72.225,19.328],[-72.203,19.314],[-72.203,19.301],[-72.159,19.283],[-72.151,19.257],[-72.135,19.255],[-72.119,19.265],[-72.095,19.267],[-72.056,19.298],[-72.03,19.308],[-72.022,19.316],[-72.022,19.325],[-72.004,19.324],[-71.992,19.333],[-71.978,19.335],[-71.979,19.34],[-71.971,19.339],[-72.004,19.395],[-72.037,19.426],[-72.038,19.432],[-72.065,19.445],[-72.069,19.441],[-72.064,19.437],[-72.073,19.435],[-72.079,19.443],[-72.082,19.44],[-72.092,19.447],[-72.08,19.459],[-72.07,19.455],[-72.062,19.478],[-72.091,19.498],[-72.094,19.515],[-72.104,19.524],[-72.098,19.541],[-72.108,19.559],[-72.114,19.559],[-72.111,19.567],[-72.12,19.575],[-72.122,19.586],[-72.106,19.603],[-72.112,19.611],[-72.11,19.634],[-72.093,19.626],[-72.066,19.635],[-72.067,19.656],[-72.059,19.673],[-72.063,19.685],[-72.057,19.696],[-72.065,19.699],[-72.038,19.705],[-72.04,19.721],[-72.036,19.727],[-72.041,19.734],[-72.049,19.737],[-72.045,19.73],[-72.062,19.718],[-72.061,19.708],[-72.067,19.707],[-72.067,19.702],[-72.078,19.703],[-72.078,19.715],[-72.064,19.713],[-72.056,19.732],[-72.093,19.726],[-72.115,19.73],[-72.128,19.751],[-72.152,19.757],[-72.143,19.747],[-72.146,19.743],[-72.173,19.748],[-72.174,19.741],[-72.189,19.741],[-72.202,19.751],[-72.195,19.758],[-72.19,19.785],[-72.198,19.788],[-72.228,19.783],[-72.247,19.789],[-72.243,19.773],[-72.259,19.775],[-72.258,19.76],[-72.285,19.768],[-72.304,19.761],[-72.319,19.77],[-72.311,19.748],[-72.32,19.745],[-72.308,19.739],[-72.314,19.736],[-72.31,19.711],[-72.319,19.707],[-72.337,19.723],[-72.342,19.75],[-72.338,19.752],[-72.331,19.743],[-72.331,19.75],[-72.327,19.746],[-72.339,19.771],[-72.376,19.799],[-72.382,19.817],[-72.389,19.817],[-72.39,19.805],[-72.408,19.805],[-72.43,19.82],[-72.425,19.826],[-72.431,19.831],[-72.433,19.821],[-72.445,19.817],[-72.47,19.833],[-72.468,19.825],[-72.48,19.821],[-72.489,19.834],[-72.494,19.82],[-72.5,19.825],[-72.498,19.835],[-72.504,19.836],[-72.507,19.847],[-72.518,19.84],[-72.522,19.85],[-72.53,19.848],[-72.555,19.87],[-72.555,19.878]]]},"properties":{"atmart_geo_id":"HTD-03","pcode":"HT03","nom_fr":"Nord","nom_ht":"Nò","niveau_admin":"1"}},{"type":"Feature","geometry":{"type":"Polygon","coordinates":[[[-71.961,19.734],[-71.989,19.732],[-71.985,19.729],[-71.992,19.726],[-71.989,19.705],[-71.993,19.698],[-72.007,19.706],[-72.008,19.7],[-72.019,19.697],[-72.034,19.701],[-72.041,19.7],[-72.039,19.692],[-72.059,19.693],[-72.063,19.685],[-72.059,19.672],[-72.067,19.649],[-72.065,19.637],[-72.072,19.631],[-72.093,19.626],[-72.11,19.634],[-72.112,19.611],[-72.106,19.603],[-72.121,19.589],[-72.12,19.575],[-72.112,19.57],[-72.114,19.559],[-72.108,19.559],[-72.098,19.541],[-72.104,19.524],[-72.094,19.515],[-72.091,19.498],[-72.062,19.478],[-72.07,19.455],[-72.08,19.459],[-72.092,19.447],[-72.073,19.435],[-72.064,19.437],[-72.069,19.441],[-72.065,19.445],[-72.038,19.432],[-72.037,19.426],[-72.008,19.4],[-71.99,19.366],[-71.971,19.346],[-71.971,19.339],[-71.979,19.34],[-71.982,19.333],[-71.96,19.313],[-71.914,19.306],[-71.901,19.275],[-71.866,19.28],[-71.846,19.267],[-71.775,19.259],[-71.776,19.267],[-71.753,19.28],[-71.753,19.288],[-71.761,19.292],[-71.756,19.299],[-71.764,19.304],[-71.769,19.32],[-71.786,19.332],[-71.753,19.34],[-71.748,19.354],[-71.724,19.367],[-71.718,19.363],[-71.714,19.372],[-71.701,19.36],[-71.694,19.36],[-71.691,19.372],[-71.698,19.396],[-71.678,19.444],[-71.694,19.477],[-71.689,19.513],[-71.699,19.512],[-71.703,19.534],[-71.713,19.534],[-71.713,19.551],[-71.743,19.585],[-71.746,19.634],[-71.732,19.646],[-71.735,19.662],[-71.756,19.676],[-71.754,19.686],[-71.76,19.688],[-71.755,19.692],[-71.762,19.693],[-71.761,19.705],[-71.836,19.714],[-71.844,19.712],[-71.841,19.688],[-71.832,19.688],[-71.823,19.681],[-71.819,19.684],[-71.81,19.676],[-71.811,19.671],[-71.818,19.673],[-71.812,19.667],[-71.82,19.668],[-71.816,19.665],[-71.82,19.661],[-71.817,19.651],[-71.825,19.649],[-71.826,19.662],[-71.841,19.676],[-71.847,19.669],[-71.865,19.67],[-71.879,19.661],[-71.889,19.672],[-71.897,19.669],[-71.886,19.677],[-71.887,19.682],[-71.901,19.679],[-71.905,19.687],[-71.896,19.683],[-71.884,19.686],[-71.876,19.68],[-71.863,19.691],[-71.851,19.691],[-71.846,19.708],[-71.851,19.716],[-71.938,19.73],[-71.948,19.727],[-71.961,19.734]]]},"properties":{"atmart_geo_id":"HTD-04","pcode":"HT04","nom_fr":"Nord-Est","nom_ht":"Nòdès","niveau_admin":"1"}},{"type":"Feature","geometry":{"type":"MultiPolygon","coordinates":[[[[-72.816,19.953],[-72.831,19.941],[-72.85,19.944],[-72.872,19.931],[-72.891,19.936],[-72.945,19.927],[-72.956,19.922],[-72.959,19.91],[-72.974,19.924],[-73.002,19.917],[-73.03,19.922],[-73.026,19.916],[-73.032,19.909],[-73.045,19.919],[-73.147,19.925],[-73.165,19.93],[-73.229,19.889],[-73.24,19.875],[-73.246,19.878],[-73.272,19.865],[-73.304,19.858],[-73.341,19.838],[-73.367,19.846],[-73.389,19.841],[-73.408,19.843],[-73.421,19.829],[-73.413,19.82],[-73.374,19.82],[-73.364,19.835],[-73.36,19.834],[-73.37,19.812],[-73.379,19.809],[-73.385,19.799],[-73.41,19.791],[-73.425,19.797],[-73.453,19.76],[-73.453,19.687],[-73.416,19.649],[-73.364,19.623],[-73.321,19.624],[-73.269,19.634],[-73.235,19.629],[-73.223,19.639],[-73.219,19.657],[-73.207,19.662],[-73.179,19.639],[-73.127,19.623],[-73.122,19.632],[-73.136,19.644],[-73.118,19.676],[-73.121,19.702],[-73.104,19.696],[-73.106,19.703],[-73.087,19.714],[-73.08,19.731],[-73.047,19.742],[-72.992,19.722],[-72.927,19.729],[-72.925,19.718],[-72.895,19.71],[-72.847,19.713],[-72.838,19.721],[-72.838,19.73],[-72.812,19.738],[-72.807,19.757],[-72.765,19.788],[-72.742,19.784],[-72.72,19.812],[-72.699,19.816],[-72.689,19.809],[-72.678,19.809],[-72.683,19.832],[-72.639,19.829],[-72.639,19.819],[-72.63,19.812],[-72.619,19.815],[-72.611,19.836],[-72.602,19.838],[-72.591,19.831],[-72.596,19.84],[-72.59,19.85],[-72.58,19.85],[-72.583,19.866],[-72.56,19.881],[-72.574,19.887],[-72.58,19.897],[-72.621,19.893],[-72.632,19.897],[-72.637,19.908],[-72.647,19.906],[-72.652,19.914],[-72.68,19.923],[-72.688,19.921],[-72.722,19.937],[-72.732,19.935],[-72.781,19.952],[-72.81,19.948],[-72.816,19.953]]],[[[-72.796,20.086],[-72.863,20.087],[-72.968,20.065],[-72.96,20.055],[-72.875,20.033],[-72.81,20.029],[-72.695,19.998],[-72.645,19.992],[-72.62,19.997],[-72.641,20.022],[-72.666,20.039],[-72.756,20.068],[-72.796,20.086]]]]},"properties":{"atmart_geo_id":"HTD-09","pcode":"HT09","nom_fr":"Nord-Ouest","nom_ht":"Nòdwès","niveau_admin":"1"}},{"type":"Feature","geometry":{"type":"MultiPolygon","coordinates":[[[[-73.664,18.431],[-73.672,18.431],[-73.671,18.406],[-73.677,18.398],[-73.702,18.42],[-73.721,18.415],[-73.759,18.424],[-73.771,18.418],[-73.786,18.424],[-73.843,18.407],[-73.886,18.406],[-73.906,18.399],[-73.906,18.389],[-73.893,18.375],[-73.897,18.363],[-73.943,18.371],[-73.964,18.369],[-74.003,18.384],[-74.032,18.384],[-74.047,18.389],[-74.061,18.403],[-74.082,18.408],[-74.118,18.397],[-74.132,18.401],[-74.181,18.392],[-74.215,18.404],[-74.223,18.38],[-74.25,18.375],[-74.277,18.381],[-74.294,18.395],[-74.302,18.372],[-74.329,18.361],[-74.388,18.363],[-74.423,18.357],[-74.432,18.359],[-74.437,18.366],[-74.441,18.357],[-74.451,18.357],[-74.439,18.344],[-74.402,18.334],[-74.397,18.326],[-74.402,18.319],[-74.384,18.314],[-74.37,18.296],[-74.312,18.285],[-74.258,18.312],[-74.23,18.311],[-74.209,18.297],[-74.189,18.297],[-74.168,18.28],[-74.167,18.273],[-74.092,18.248],[-74.085,18.235],[-74.062,18.227],[-74.052,18.21],[-74.005,18.181],[-74.001,18.166],[-73.98,18.164],[-73.975,18.146],[-73.961,18.133],[-73.95,18.132],[-73.94,18.099],[-73.918,18.078],[-73.917,18.064],[-73.903,18.043],[-73.904,18.033],[-73.876,18.022],[-73.827,18.027],[-73.805,18.023],[-73.789,18.029],[-73.791,18.038],[-73.783,18.043],[-73.786,18.054],[-73.807,18.067],[-73.814,18.081],[-73.84,18.102],[-73.843,18.123],[-73.82,18.151],[-73.738,18.193],[-73.718,18.21],[-73.702,18.213],[-73.697,18.236],[-73.677,18.238],[-73.673,18.223],[-73.667,18.233],[-73.654,18.239],[-73.647,18.254],[-73.641,18.245],[-73.65,18.228],[-73.658,18.228],[-73.657,18.224],[-73.661,18.228],[-73.662,18.21],[-73.633,18.224],[-73.632,18.251],[-73.622,18.249],[-73.61,18.257],[-73.6,18.249],[-73.6,18.243],[-73.613,18.237],[-73.62,18.217],[-73.602,18.212],[-73.587,18.22],[-73.586,18.236],[-73.579,18.217],[-73.567,18.216],[-73.56,18.223],[-73.575,18.25],[-73.563,18.26],[-73.543,18.259],[-73.531,18.233],[-73.507,18.233],[-73.495,18.24],[-73.508,18.245],[-73.492,18.256],[-73.482,18.257],[-73.475,18.25],[-73.475,18.257],[-73.459,18.262],[-73.452,18.255],[-73.455,18.262],[-73.451,18.267],[-73.444,18.259],[-73.443,18.265],[-73.435,18.265],[-73.431,18.254],[-73.42,18.256],[-73.407,18.249],[-73.404,18.257],[-73.41,18.261],[-73.403,18.261],[-73.405,18.266],[-73.398,18.264],[-73.392,18.27],[-73.391,18.261],[-73.39,18.28],[-73.383,18.268],[-73.383,18.273],[-73.367,18.259],[-73.351,18.253],[-73.366,18.238],[-73.37,18.218],[-73.358,18.217],[-73.355,18.224],[-73.343,18.219],[-73.284,18.233],[-73.272,18.228],[-73.267,18.215],[-73.172,18.211],[-73.141,18.197],[-73.084,18.186],[-73.041,18.182],[-73.004,18.186],[-73.01,18.193],[-73.004,18.199],[-73.009,18.207],[-73.001,18.207],[-73.01,18.209],[-73.009,18.224],[-73.023,18.225],[-73.017,18.237],[-73.031,18.241],[-73.03,18.251],[-73.042,18.26],[-73.038,18.27],[-73.052,18.287],[-73.042,18.3],[-73.059,18.303],[-73.072,18.323],[-73.071,18.331],[-73.08,18.329],[-73.11,18.362],[-73.125,18.359],[-73.142,18.365],[-73.157,18.35],[-73.195,18.364],[-73.218,18.363],[-73.228,18.352],[-73.259,18.353],[-73.287,18.368],[-73.319,18.363],[-73.331,18.371],[-73.355,18.343],[-73.405,18.348],[-73.412,18.342],[-73.429,18.345],[-73.459,18.338],[-73.482,18.342],[-73.504,18.337],[-73.555,18.336],[-73.564,18.347],[-73.556,18.35],[-73.555,18.37],[-73.542,18.374],[-73.539,18.385],[-73.559,18.391],[-73.562,18.401],[-73.574,18.401],[-73.579,18.407],[-73.578,18.421],[-73.602,18.42],[-73.61,18.427],[-73.632,18.422],[-73.644,18.43],[-73.653,18.426],[-73.664,18.431]]],[[[-73.704,18.109],[-73.708,18.105],[-73.702,18.095],[-73.705,18.093],[-73.687,18.083],[-73.675,18.06],[-73.586,18.056],[-73.571,18.068],[-73.583,18.087],[-73.6,18.1],[-73.611,18.099],[-73.64,18.083],[-73.662,18.089],[-73.672,18.1],[-73.676,18.096],[-73.68,18.104],[-73.684,18.098],[-73.685,18.106],[-73.697,18.103],[-73.704,18.109]]]]},"properties":{"atmart_geo_id":"HTD-07","pcode":"HT07","nom_fr":"Sud","nom_ht":"Sid","niveau_admin":"1"}},{"type":"Feature","geometry":{"type":"Polygon","coordinates":[[[-72.761,18.282],[-72.767,18.267],[-72.795,18.275],[-72.809,18.287],[-72.828,18.289],[-72.831,18.282],[-72.856,18.281],[-72.853,18.258],[-72.895,18.286],[-72.89,18.295],[-72.929,18.287],[-72.935,18.293],[-72.953,18.293],[-72.958,18.278],[-72.965,18.277],[-72.975,18.288],[-72.987,18.321],[-72.994,18.327],[-72.995,18.306],[-73.01,18.288],[-73.016,18.261],[-73.009,18.252],[-73.01,18.209],[-73.001,18.207],[-73.009,18.207],[-73.004,18.199],[-73.01,18.193],[-72.996,18.177],[-72.963,18.167],[-72.932,18.168],[-72.886,18.149],[-72.854,18.144],[-72.846,18.151],[-72.816,18.142],[-72.787,18.147],[-72.78,18.16],[-72.749,18.154],[-72.748,18.16],[-72.761,18.171],[-72.75,18.184],[-72.713,18.175],[-72.702,18.182],[-72.696,18.179],[-72.673,18.187],[-72.662,18.184],[-72.64,18.191],[-72.594,18.178],[-72.583,18.18],[-72.568,18.172],[-72.553,18.172],[-72.544,18.176],[-72.541,18.19],[-72.554,18.199],[-72.558,18.222],[-72.541,18.232],[-72.514,18.214],[-72.489,18.225],[-72.478,18.219],[-72.468,18.225],[-72.423,18.225],[-72.372,18.235],[-72.316,18.231],[-72.299,18.222],[-72.275,18.228],[-72.216,18.221],[-72.159,18.232],[-72.126,18.229],[-72.089,18.234],[-72.084,18.239],[-72.052,18.237],[-72.04,18.232],[-72.034,18.217],[-72.01,18.206],[-72.0,18.214],[-71.985,18.202],[-71.921,18.186],[-71.912,18.17],[-71.863,18.141],[-71.85,18.121],[-71.818,18.096],[-71.813,18.074],[-71.76,18.032],[-71.745,18.052],[-71.736,18.079],[-71.741,18.089],[-71.736,18.096],[-71.747,18.1],[-71.751,18.113],[-71.744,18.132],[-71.752,18.139],[-71.747,18.141],[-71.747,18.148],[-71.755,18.142],[-71.769,18.162],[-71.766,18.168],[-71.783,18.169],[-71.787,18.181],[-71.781,18.193],[-71.772,18.198],[-71.769,18.22],[-71.758,18.227],[-71.757,18.24],[-71.725,18.292],[-71.75,18.293],[-71.78,18.283],[-71.806,18.287],[-71.82,18.279],[-71.838,18.283],[-71.846,18.276],[-71.87,18.273],[-71.862,18.319],[-71.872,18.324],[-71.934,18.307],[-71.953,18.317],[-72.002,18.312],[-72.004,18.318],[-72.033,18.32],[-72.039,18.328],[-72.042,18.321],[-72.056,18.326],[-72.067,18.32],[-72.09,18.338],[-72.128,18.336],[-72.16,18.349],[-72.179,18.346],[-72.19,18.353],[-72.218,18.349],[-72.257,18.358],[-72.281,18.354],[-72.291,18.341],[-72.327,18.341],[-72.365,18.353],[-72.37,18.366],[-72.367,18.378],[-72.383,18.38],[-72.389,18.392],[-72.41,18.379],[-72.435,18.373],[-72.436,18.38],[-72.424,18.401],[-72.445,18.397],[-72.503,18.406],[-72.52,18.395],[-72.535,18.371],[-72.551,18.365],[-72.553,18.352],[-72.564,18.355],[-72.564,18.347],[-72.587,18.352],[-72.601,18.324],[-72.608,18.323],[-72.622,18.344],[-72.642,18.346],[-72.644,18.328],[-72.659,18.324],[-72.671,18.33],[-72.687,18.323],[-72.703,18.308],[-72.711,18.309],[-72.707,18.3],[-72.71,18.296],[-72.722,18.311],[-72.741,18.322],[-72.741,18.289],[-72.748,18.291],[-72.761,18.282]]]},"properties":{"atmart_geo_id":"HTD-02","pcode":"HT02","nom_fr":"Sud-Est","nom_ht":"Sidès","niveau_admin":"1"}},{"type":"Feature","geometry":{"type":"MultiPolygon","coordinates":[[[[-72.627,18.973],[-72.634,18.976],[-72.638,18.971],[-72.658,18.967],[-72.664,18.972],[-72.679,18.969],[-72.682,18.973],[-72.71,18.942],[-72.69,18.941],[-72.635,18.906],[-72.619,18.887],[-72.611,18.859],[-72.598,18.858],[-72.576,18.834],[-72.561,18.796],[-72.549,18.79],[-72.543,18.777],[-72.519,18.767],[-72.496,18.765],[-72.488,18.769],[-72.467,18.758],[-72.458,18.747],[-72.459,18.734],[-72.453,18.731],[-72.45,18.72],[-72.427,18.714],[-72.395,18.715],[-72.352,18.687],[-72.322,18.679],[-72.319,18.659],[-72.331,18.653],[-72.347,18.627],[-72.359,18.629],[-72.351,18.623],[-72.346,18.597],[-72.339,18.593],[-72.339,18.575],[-72.345,18.575],[-72.353,18.566],[-72.347,18.564],[-72.352,18.558],[-72.348,18.556],[-72.349,18.544],[-72.361,18.534],[-72.376,18.532],[-72.395,18.549],[-72.418,18.556],[-72.43,18.542],[-72.473,18.549],[-72.541,18.544],[-72.552,18.553],[-72.553,18.561],[-72.579,18.565],[-72.605,18.56],[-72.626,18.551],[-72.652,18.525],[-72.68,18.452],[-72.695,18.439],[-72.73,18.426],[-72.762,18.433],[-72.791,18.43],[-72.814,18.442],[-72.849,18.445],[-72.875,18.426],[-72.892,18.424],[-72.903,18.441],[-72.89,18.442],[-72.895,18.447],[-72.931,18.458],[-72.987,18.468],[-73.042,18.465],[-73.054,18.454],[-73.045,18.438],[-73.054,18.433],[-73.037,18.409],[-73.036,18.398],[-73.019,18.383],[-73.026,18.375],[-73.011,18.361],[-73.02,18.349],[-73.013,18.336],[-72.987,18.321],[-72.984,18.305],[-72.966,18.278],[-72.958,18.278],[-72.953,18.293],[-72.935,18.293],[-72.929,18.287],[-72.89,18.295],[-72.896,18.288],[-72.859,18.259],[-72.851,18.261],[-72.856,18.281],[-72.831,18.282],[-72.828,18.289],[-72.809,18.287],[-72.795,18.275],[-72.765,18.267],[-72.766,18.274],[-72.757,18.287],[-72.741,18.289],[-72.742,18.322],[-72.722,18.311],[-72.71,18.296],[-72.707,18.3],[-72.711,18.309],[-72.703,18.308],[-72.687,18.323],[-72.671,18.33],[-72.659,18.324],[-72.644,18.328],[-72.642,18.346],[-72.622,18.344],[-72.608,18.323],[-72.601,18.324],[-72.587,18.352],[-72.564,18.347],[-72.564,18.355],[-72.553,18.352],[-72.551,18.365],[-72.535,18.371],[-72.52,18.395],[-72.503,18.406],[-72.445,18.397],[-72.424,18.401],[-72.436,18.38],[-72.435,18.373],[-72.41,18.379],[-72.389,18.392],[-72.383,18.38],[-72.367,18.378],[-72.37,18.366],[-72.365,18.353],[-72.327,18.341],[-72.291,18.341],[-72.281,18.354],[-72.257,18.358],[-72.218,18.349],[-72.19,18.353],[-72.179,18.346],[-72.16,18.349],[-72.128,18.336],[-72.09,18.338],[-72.067,18.32],[-72.056,18.326],[-72.042,18.321],[-72.039,18.328],[-72.033,18.32],[-72.004,18.318],[-72.002,18.312],[-71.953,18.317],[-71.934,18.307],[-71.872,18.324],[-71.862,18.319],[-71.87,18.273],[-71.846,18.276],[-71.838,18.283],[-71.82,18.279],[-71.806,18.287],[-71.78,18.283],[-71.75,18.293],[-71.725,18.292],[-71.695,18.341],[-71.795,18.379],[-71.803,18.393],[-71.83,18.399],[-71.844,18.429],[-71.905,18.457],[-71.914,18.485],[-71.881,18.49],[-71.881,18.504],[-71.955,18.579],[-71.965,18.604],[-71.976,18.605],[-71.986,18.619],[-72.0,18.618],[-72.008,18.625],[-71.982,18.636],[-71.966,18.657],[-71.926,18.635],[-71.908,18.649],[-71.884,18.637],[-71.881,18.627],[-71.873,18.628],[-71.869,18.638],[-71.852,18.636],[-71.844,18.629],[-71.815,18.631],[-71.807,18.635],[-71.81,18.661],[-71.802,18.681],[-71.829,18.705],[-71.853,18.719],[-71.894,18.72],[-71.921,18.731],[-71.926,18.739],[-71.961,18.741],[-71.971,18.747],[-71.978,18.734],[-71.989,18.738],[-72.005,18.73],[-72.009,18.737],[-72.017,18.724],[-72.028,18.727],[-72.044,18.719],[-72.068,18.721],[-72.074,18.737],[-72.092,18.711],[-72.116,18.704],[-72.127,18.706],[-72.149,18.695],[-72.167,18.703],[-72.197,18.732],[-72.201,18.742],[-72.194,18.752],[-72.2,18.759],[-72.207,18.758],[-72.218,18.774],[-72.225,18.772],[-72.279,18.798],[-72.272,18.804],[-72.282,18.817],[-72.303,18.818],[-72.319,18.812],[-72.336,18.838],[-72.36,18.856],[-72.362,18.864],[-72.392,18.893],[-72.415,18.904],[-72.436,18.923],[-72.455,18.92],[-72.459,18.927],[-72.467,18.926],[-72.496,18.959],[-72.537,18.957],[-72.591,18.973],[-72.627,18.973]]],[[[-73.205,18.97],[-73.259,18.966],[-73.301,18.937],[-73.298,18.931],[-73.304,18.926],[-73.298,18.908],[-73.266,18.886],[-73.238,18.85],[-73.228,18.849],[-73.218,18.835],[-73.192,18.837],[-73.126,18.818],[-73.101,18.799],[-73.076,18.796],[-73.072,18.786],[-73.037,18.757],[-73.0,18.744],[-72.922,18.74],[-72.85,18.717],[-72.839,18.721],[-72.837,18.704],[-72.824,18.693],[-72.806,18.705],[-72.819,18.722],[-72.793,18.735],[-72.804,18.753],[-72.806,18.777],[-72.822,18.804],[-72.852,18.829],[-72.846,18.834],[-72.904,18.85],[-72.937,18.855],[-72.992,18.883],[-73.0,18.895],[-73.042,18.911],[-73.059,18.925],[-73.114,18.932],[-73.18,18.963],[-73.205,18.97]]]]},"properties":{"atmart_geo_id":"HTD-01","pcode":"HT01","nom_fr":"Ouest","nom_ht":"Lwès","niveau_admin":"1"}}]}