{"type":"FeatureCollection","features":[{"type":"Feature","properties":{"nom_fr":"Haïti","nom_ht":"Ayiti","pcode":"HT","source":"CNIGS / UN OCHA COD-AB Haïti (couche admin0)","licence":"CC BY 3.0 IGO","traitement":"Simplification Douglas-Peucker, tolérance 0.004 degré (~400 m) ; îlots de moins de 0.0009 degré carré écartés. Contour national uniquement : le découpage administratif n'est pas inclus.","version":"v1.2026.07"},"geometry":{"type":"MultiPolygon","coordinates":[[[[-72.816,19.953],[-72.831,19.941],[-72.85,19.944],[-72.872,19.931],[-72.891,19.936],[-72.945,19.927],[-72.956,19.922],[-72.959,19.91],[-72.974,19.924],[-73.002,19.917],[-73.03,19.922],[-73.026,19.916],[-73.032,19.909],[-73.045,19.919],[-73.165,19.93],[-73.229,19.889],[-73.24,19.875],[-73.304,19.858],[-73.341,19.838],[-73.367,19.846],[-73.408,19.843],[-73.421,19.829],[-73.413,19.82],[-73.374,19.82],[-73.364,19.835],[-73.36,19.834],[-73.37,19.812],[-73.385,19.799],[-73.41,19.791],[-73.425,19.797],[-73.453,19.76],[-73.455,19.692],[-73.416,19.649],[-73.364,19.623],[-73.269,19.634],[-73.235,19.629],[-73.223,19.639],[-73.219,19.657],[-73.207,19.662],[-73.179,19.639],[-73.145,19.626],[-73.127,19.623],[-73.117,19.638],[-73.103,19.642],[-73.053,19.63],[-73.015,19.606],[-73.003,19.605],[-72.994,19.614],[-72.998,19.602],[-72.982,19.59],[-72.977,19.595],[-72.978,19.587],[-72.962,19.576],[-72.921,19.562],[-72.887,19.542],[-72.868,19.54],[-72.82,19.513],[-72.783,19.476],[-72.77,19.454],[-72.745,19.445],[-72.732,19.447],[-72.726,19.457],[-72.714,19.449],[-72.709,19.454],[-72.714,19.455],[-72.697,19.459],[-72.703,19.455],[-72.697,19.452],[-72.7,19.428],[-72.682,19.412],[-72.684,19.405],[-72.702,19.393],[-72.71,19.402],[-72.704,19.41],[-72.717,19.415],[-72.714,19.423],[-72.719,19.431],[-72.73,19.403],[-72.716,19.397],[-72.711,19.387],[-72.733,19.363],[-72.748,19.375],[-72.765,19.372],[-72.774,19.346],[-72.77,19.34],[-72.76,19.344],[-72.761,19.33],[-72.748,19.321],[-72.728,19.326],[-72.725,19.321],[-72.732,19.311],[-72.719,19.305],[-72.734,19.307],[-72.732,19.297],[-72.722,19.303],[-72.717,19.291],[-72.725,19.283],[-72.736,19.294],[-72.747,19.278],[-72.773,19.284],[-72.767,19.271],[-72.774,19.269],[-72.777,19.241],[-72.787,19.235],[-72.777,19.227],[-72.769,19.244],[-72.752,19.233],[-72.767,19.232],[-72.78,19.219],[-72.78,19.225],[-72.783,19.22],[-72.8,19.221],[-72.777,19.197],[-72.762,19.165],[-72.742,19.147],[-72.7,19.128],[-72.703,19.107],[-72.73,19.088],[-72.771,19.093],[-72.806,19.08],[-72.822,19.065],[-72.822,19.046],[-72.811,19.031],[-72.763,19.014],[-72.739,18.992],[-72.727,18.953],[-72.664,18.928],[-72.635,18.906],[-72.619,18.887],[-72.611,18.859],[-72.598,18.858],[-72.576,18.834],[-72.561,18.796],[-72.549,18.79],[-72.543,18.777],[-72.519,18.767],[-72.488,18.769],[-72.467,18.758],[-72.45,18.72],[-72.395,18.715],[-72.352,18.687],[-72.322,18.679],[-72.319,18.659],[-72.331,18.653],[-72.347,18.627],[-72.359,18.629],[-72.351,18.623],[-72.346,18.597],[-72.339,18.593],[-72.339,18.575],[-72.353,18.566],[-72.347,18.564],[-72.352,18.558],[-72.349,18.544],[-72.361,18.534],[-72.376,18.532],[-72.395,18.549],[-72.418,18.556],[-72.43,18.542],[-72.473,18.549],[-72.541,18.544],[-72.552,18.553],[-72.553,18.561],[-72.581,18.565],[-72.626,18.551],[-72.652,18.525],[-72.675,18.459],[-72.695,18.439],[-72.74,18.426],[-72.762,18.433],[-72.791,18.43],[-72.814,18.442],[-72.849,18.445],[-72.875,18.426],[-72.892,18.424],[-72.903,18.441],[-72.89,18.442],[-72.895,18.447],[-72.963,18.465],[-73.042,18.465],[-73.07,18.458],[-73.073,18.447],[-73.085,18.449],[-73.091,18.443],[-73.105,18.447],[-73.106,18.456],[-73.116,18.458],[-73.114,18.462],[-73.125,18.462],[-73.12,18.466],[-73.125,18.467],[-73.125,18.475],[-73.16,18.486],[-73.189,18.49],[-73.239,18.476],[-73.294,18.483],[-73.331,18.503],[-73.457,18.529],[-73.471,18.523],[-73.521,18.529],[-73.528,18.518],[-73.539,18.524],[-73.559,18.51],[-73.564,18.513],[-73.571,18.505],[-73.579,18.51],[-73.578,18.504],[-73.588,18.501],[-73.623,18.5],[-73.636,18.506],[-73.662,18.499],[-73.673,18.509],[-73.66,18.533],[-73.664,18.541],[-73.681,18.545],[-73.685,18.536],[-73.684,18.545],[-73.693,18.539],[-73.694,18.546],[-73.711,18.541],[-73.725,18.546],[-73.717,18.551],[-73.71,18.544],[-73.699,18.554],[-73.683,18.554],[-73.68,18.56],[-73.688,18.566],[-73.662,18.56],[-73.666,18.553],[-73.644,18.554],[-73.644,18.56],[-73.592,18.553],[-73.577,18.561],[-73.564,18.584],[-73.578,18.589],[-73.617,18.585],[-73.656,18.572],[-73.703,18.577],[-73.732,18.563],[-73.734,18.557],[-73.719,18.559],[-73.721,18.552],[-73.79,18.535],[-73.794,18.548],[-73.804,18.55],[-73.814,18.561],[-73.817,18.557],[-73.835,18.563],[-73.842,18.572],[-73.85,18.566],[-73.855,18.573],[-73.903,18.566],[-73.904,18.577],[-73.908,18.573],[-73.919,18.581],[-73.909,18.588],[-73.927,18.594],[-73.94,18.588],[-73.963,18.602],[-74.004,18.599],[-74.067,18.611],[-74.108,18.636],[-74.109,18.646],[-74.135,18.662],[-74.215,18.675],[-74.247,18.665],[-74.26,18.67],[-74.279,18.648],[-74.297,18.662],[-74.308,18.659],[-74.309,18.65],[-74.33,18.655],[-74.368,18.636],[-74.386,18.644],[-74.395,18.627],[-74.407,18.63],[-74.425,18.616],[-74.429,18.605],[-74.416,18.594],[-74.415,18.582],[-74.426,18.558],[-74.436,18.549],[-74.436,18.538],[-74.445,18.532],[-74.442,18.516],[-74.459,18.499],[-74.463,18.491],[-74.453,18.486],[-74.453,18.471],[-74.48,18.429],[-74.473,18.42],[-74.48,18.416],[-74.464,18.413],[-74.449,18.397],[-74.448,18.35],[-74.402,18.334],[-74.397,18.326],[-74.402,18.319],[-74.384,18.314],[-74.368,18.296],[-74.312,18.285],[-74.258,18.312],[-74.23,18.311],[-74.209,18.297],[-74.189,18.297],[-74.168,18.28],[-74.167,18.273],[-74.092,18.248],[-74.085,18.235],[-74.062,18.227],[-74.052,18.21],[-74.005,18.181],[-74.001,18.166],[-73.98,18.164],[-73.975,18.146],[-73.961,18.133],[-73.95,18.132],[-73.94,18.099],[-73.918,18.078],[-73.917,18.064],[-73.903,18.043],[-73.904,18.033],[-73.876,18.022],[-73.827,18.027],[-73.805,18.023],[-73.789,18.029],[-73.791,18.038],[-73.783,18.043],[-73.786,18.054],[-73.807,18.067],[-73.814,18.081],[-73.84,18.102],[-73.843,18.123],[-73.82,18.151],[-73.738,18.193],[-73.718,18.21],[-73.702,18.213],[-73.697,18.236],[-73.677,18.238],[-73.673,18.223],[-73.647,18.254],[-73.641,18.245],[-73.65,18.228],[-73.661,18.228],[-73.664,18.216],[-73.657,18.211],[-73.633,18.224],[-73.632,18.251],[-73.622,18.249],[-73.61,18.257],[-73.6,18.243],[-73.613,18.237],[-73.62,18.217],[-73.595,18.215],[-73.585,18.224],[-73.586,18.236],[-73.579,18.217],[-73.567,18.216],[-73.559,18.227],[-73.575,18.25],[-73.563,18.26],[-73.543,18.259],[-73.531,18.233],[-73.507,18.233],[-73.495,18.24],[-73.508,18.245],[-73.492,18.256],[-73.482,18.257],[-73.475,18.25],[-73.475,18.257],[-73.459,18.262],[-73.452,18.255],[-73.451,18.267],[-73.444,18.259],[-73.443,18.265],[-73.435,18.265],[-73.431,18.254],[-73.407,18.249],[-73.404,18.257],[-73.41,18.261],[-73.403,18.261],[-73.405,18.266],[-73.398,18.264],[-73.392,18.27],[-73.391,18.261],[-73.39,18.28],[-73.383,18.268],[-73.383,18.273],[-73.351,18.253],[-73.366,18.238],[-73.37,18.218],[-73.358,18.217],[-73.355,18.224],[-73.343,18.219],[-73.309,18.23],[-73.278,18.232],[-73.267,18.215],[-73.172,18.211],[-73.141,18.197],[-73.056,18.183],[-73.008,18.187],[-72.996,18.177],[-72.963,18.167],[-72.932,18.168],[-72.886,18.149],[-72.854,18.144],[-72.846,18.151],[-72.822,18.142],[-72.79,18.146],[-72.78,18.16],[-72.749,18.154],[-72.748,18.16],[-72.761,18.171],[-72.75,18.184],[-72.713,18.175],[-72.702,18.182],[-72.662,18.184],[-72.64,18.191],[-72.553,18.172],[-72.544,18.176],[-72.541,18.19],[-72.554,18.199],[-72.558,18.222],[-72.541,18.232],[-72.514,18.214],[-72.489,18.225],[-72.478,18.219],[-72.372,18.235],[-72.316,18.231],[-72.299,18.222],[-72.275,18.228],[-72.216,18.221],[-72.159,18.232],[-72.126,18.229],[-72.084,18.239],[-72.052,18.237],[-72.04,18.232],[-72.034,18.217],[-72.01,18.206],[-72.0,18.214],[-71.985,18.202],[-71.921,18.186],[-71.912,18.17],[-71.863,18.141],[-71.85,18.121],[-71.818,18.096],[-71.813,18.074],[-71.759,18.032],[-71.738,18.069],[-71.736,18.096],[-71.747,18.1],[-71.75,18.111],[-71.744,18.132],[-71.752,18.139],[-71.747,18.148],[-71.755,18.142],[-71.769,18.162],[-71.766,18.168],[-71.783,18.169],[-71.787,18.186],[-71.772,18.198],[-71.769,18.22],[-71.758,18.227],[-71.757,18.24],[-71.695,18.341],[-71.795,18.379],[-71.803,18.393],[-71.83,18.399],[-71.844,18.429],[-71.905,18.457],[-71.914,18.485],[-71.881,18.49],[-71.881,18.504],[-71.955,18.579],[-71.965,18.604],[-71.976,18.605],[-71.986,18.619],[-72.0,18.618],[-72.008,18.625],[-71.982,18.636],[-71.966,18.657],[-71.926,18.635],[-71.908,18.649],[-71.884,18.637],[-71.881,18.627],[-71.873,18.628],[-71.869,18.638],[-71.844,18.629],[-71.815,18.631],[-71.807,18.635],[-71.804,18.685],[-71.786,18.692],[-71.784,18.706],[-71.738,18.722],[-71.722,18.804],[-71.723,18.881],[-71.738,18.878],[-71.739,18.891],[-71.768,18.907],[-71.782,18.955],[-71.802,18.954],[-71.814,18.965],[-71.826,18.964],[-71.823,18.969],[-71.833,18.963],[-71.837,18.97],[-71.844,18.963],[-71.84,18.958],[-71.849,18.964],[-71.854,18.955],[-71.861,18.964],[-71.861,18.948],[-71.875,18.949],[-71.88,18.942],[-71.886,18.955],[-71.875,18.958],[-71.876,18.972],[-71.869,18.975],[-71.868,18.982],[-71.857,18.977],[-71.852,18.993],[-71.844,18.991],[-71.833,19.006],[-71.826,18.994],[-71.799,19.005],[-71.798,18.996],[-71.789,18.993],[-71.791,19.008],[-71.776,19.013],[-71.783,19.018],[-71.771,19.032],[-71.761,19.027],[-71.764,19.035],[-71.752,19.046],[-71.741,19.043],[-71.717,19.06],[-71.721,19.066],[-71.716,19.071],[-71.71,19.067],[-71.702,19.073],[-71.713,19.082],[-71.697,19.087],[-71.707,19.1],[-71.703,19.107],[-71.685,19.103],[-71.679,19.11],[-71.683,19.117],[-71.654,19.116],[-71.646,19.136],[-71.657,19.144],[-71.64,19.147],[-71.647,19.153],[-71.642,19.157],[-71.646,19.169],[-71.634,19.169],[-71.647,19.177],[-71.628,19.182],[-71.64,19.193],[-71.638,19.201],[-71.622,19.206],[-71.634,19.208],[-71.629,19.211],[-71.64,19.23],[-71.665,19.229],[-71.697,19.241],[-71.709,19.26],[-71.724,19.268],[-71.726,19.278],[-71.732,19.262],[-71.739,19.279],[-71.748,19.275],[-71.755,19.28],[-71.753,19.288],[-71.761,19.292],[-71.756,19.299],[-71.764,19.304],[-71.769,19.32],[-71.786,19.331],[-71.753,19.34],[-71.748,19.354],[-71.724,19.367],[-71.718,19.363],[-71.714,19.372],[-71.701,19.36],[-71.694,19.36],[-71.691,19.372],[-71.698,19.396],[-71.68,19.434],[-71.68,19.452],[-71.694,19.477],[-71.689,19.513],[-71.699,19.512],[-71.703,19.534],[-71.713,19.534],[-71.713,19.551],[-71.743,19.585],[-71.746,19.634],[-71.732,19.646],[-71.735,19.662],[-71.756,19.676],[-71.761,19.705],[-71.836,19.714],[-71.844,19.712],[-71.841,19.688],[-71.823,19.681],[-71.819,19.684],[-71.81,19.676],[-71.818,19.673],[-71.812,19.667],[-71.82,19.668],[-71.817,19.651],[-71.825,19.649],[-71.826,19.662],[-71.841,19.676],[-71.879,19.661],[-71.889,19.672],[-71.897,19.669],[-71.887,19.682],[-71.901,19.679],[-71.905,19.687],[-71.884,19.686],[-71.876,19.68],[-71.863,19.691],[-71.851,19.691],[-71.846,19.708],[-71.851,19.716],[-71.938,19.73],[-71.948,19.727],[-71.966,19.735],[-71.989,19.732],[-71.985,19.729],[-71.992,19.726],[-71.993,19.698],[-72.007,19.706],[-72.019,19.697],[-72.041,19.7],[-72.039,19.692],[-72.052,19.69],[-72.065,19.699],[-72.036,19.708],[-72.036,19.727],[-72.045,19.737],[-72.049,19.735],[-72.045,19.73],[-72.062,19.718],[-72.067,19.702],[-72.078,19.703],[-72.076,19.709],[-72.081,19.71],[-72.078,19.715],[-72.064,19.714],[-72.056,19.732],[-72.093,19.726],[-72.115,19.73],[-72.128,19.751],[-72.152,19.757],[-72.146,19.743],[-72.173,19.748],[-72.174,19.741],[-72.189,19.741],[-72.202,19.748],[-72.189,19.783],[-72.198,19.788],[-72.228,19.783],[-72.248,19.789],[-72.243,19.774],[-72.259,19.775],[-72.258,19.76],[-72.285,19.768],[-72.304,19.761],[-72.319,19.77],[-72.311,19.748],[-72.32,19.745],[-72.308,19.739],[-72.314,19.736],[-72.31,19.711],[-72.319,19.707],[-72.337,19.723],[-72.342,19.75],[-72.331,19.743],[-72.331,19.75],[-72.327,19.746],[-72.339,19.771],[-72.376,19.799],[-72.382,19.817],[-72.389,19.817],[-72.39,19.805],[-72.408,19.805],[-72.43,19.82],[-72.425,19.826],[-72.431,19.831],[-72.433,19.821],[-72.445,19.817],[-72.47,19.833],[-72.468,19.825],[-72.48,19.821],[-72.489,19.834],[-72.494,19.82],[-72.507,19.847],[-72.518,19.84],[-72.522,19.85],[-72.532,19.85],[-72.556,19.871],[-72.553,19.876],[-72.574,19.887],[-72.58,19.897],[-72.621,19.893],[-72.632,19.897],[-72.637,19.908],[-72.647,19.906],[-72.652,19.914],[-72.688,19.921],[-72.722,19.937],[-72.781,19.952],[-72.81,19.948],[-72.816,19.953]]],[[[-73.205,18.97],[-73.259,18.966],[-73.301,18.937],[-73.298,18.931],[-73.304,18.926],[-73.298,18.908],[-73.266,18.886],[-73.238,18.85],[-73.228,18.849],[-73.218,18.835],[-73.192,18.837],[-73.126,18.818],[-73.101,18.799],[-73.076,18.796],[-73.037,18.757],[-73.0,18.744],[-72.922,18.74],[-72.85,18.717],[-72.839,18.721],[-72.837,18.704],[-72.824,18.693],[-72.806,18.705],[-72.819,18.722],[-72.793,18.735],[-72.804,18.753],[-72.806,18.777],[-72.822,18.804],[-72.852,18.829],[-72.846,18.834],[-72.937,18.855],[-73.059,18.925],[-73.114,18.932],[-73.205,18.97]]],[[[-72.796,20.086],[-72.863,20.087],[-72.968,20.065],[-72.96,20.055],[-72.875,20.033],[-72.81,20.029],[-72.695,19.998],[-72.645,19.992],[-72.62,19.997],[-72.641,20.022],[-72.666,20.039],[-72.796,20.086]]],[[[-73.755,18.643],[-73.767,18.643],[-73.794,18.626],[-73.797,18.603],[-73.792,18.598],[-73.761,18.593],[-73.744,18.582],[-73.719,18.592],[-73.701,18.608],[-73.703,18.627],[-73.755,18.643]]],[[[-73.704,18.109],[-73.708,18.105],[-73.702,18.095],[-73.705,18.093],[-73.687,18.083],[-73.675,18.06],[-73.586,18.056],[-73.571,18.068],[-73.583,18.087],[-73.6,18.1],[-73.64,18.083],[-73.704,18.109]]]]}}]}