{"titre":"Banques et transferts (OSM)","source_id":"SRC-028","source":"OpenStreetMap via HOT — © contributeurs OSM","licence":"ODbL","millesime":"extrait le 06/08/2026","legende":{"t":{"banque":"banque","guichet":"guichet automatique","transfert":"agence de transfert","change":"bureau de change","poste":"bureau de poste"}},"limite":"Cartographie contributive : complète nulle part, inégale partout.","type":"FeatureCollection","features":[{"type":"Feature","geometry":{"type":"Point","coordinates":[-73.9557859,18.4779654]},"properties":{"t":"banque"}},{"type":"Feature","geometry":{"type":"Point","coordinates":[-73.777548,18.3452118]},"properties":{"t":"poste"}},{"type":"Feature","geometry":{"type":"Point","coordinates":[-73.7768863,18.3415726]},"properties":{"t":"banque"}},{"type":"Feature","geometry":{"type":"Point","coordinates":[-73.7760489,18.3438186]},"properties":{"t":"banque"}},{"type":"Feature","geometry":{"type":"Point","coordinates":[-73.7763353,18.3437143]},"properties":{"t":"banque"}},{"type":"Feature","geometry":{"type":"Point","coordinates":[-73.7762299,18.3440406]},"properties":{"t":"change"}},{"type":"Feature","geometry":{"type":"Point","coordinates":[-73.7762692,18.3442148]},"properties":{"t":"banque"}},{"type":"Feature","geometry":{"type":"Point","coordinates":[-73.3948992,18.2786284]},"properties":{"t":"banque"}},{"type":"Feature","geometry":{"type":"Point","coordinates":[-73.3946978,18.2831922]},"properties":{"t":"banque"}},{"type":"Feature","geometry":{"type":"Point","coordinates":[-73.3921512,18.2832162]},"properties":{"t":"banque"}},{"type":"Feature","geometry":{"type":"Point","coordinates":[-73.3920178,18.2832254]},"properties":{"t":"banque"}},{"type":"Feature","geometry":{"type":"Point","coordinates":[-73.3047327,18.3094126]},"properties":{"t":"change"}},{"type":"Feature","geometry":{"type":"Point","coordinates":[-73.0785006,18.4342281]},"properties":{"t":"banque"}},{"type":"Feature","geometry":{"type":"Point","coordinates":[-72.7531085,18.1832563]},"properties":{"t":"banque"}},{"type":"Feature","geometry":{"type":"Point","coordinates":[-72.7534835,18.1831166]},"properties":{"t":"banque"}},{"type":"Feature","geometry":{"type":"Point","coordinates":[-73.6550629,18.0858436]},"properties":{"t":"banque"}},{"type":"Feature","geometry":{"type":"Point","coordinates":[-73.6548451,18.085585]},"properties":{"t":"banque"}},{"type":"Feature","geometry":{"type":"Point","coordinates":[-73.747872,18.1960003]},"properties":{"t":"banque"}},{"type":"Feature","geometry":{"type":"Point","coordinates":[-73.7529735,18.1981825]},"properties":{"t":"change"}},{"type":"Feature","geometry":{"type":"Point","coordinates":[-73.752344,18.1976144]},"properties":{"t":"change"}},{"type":"Feature","geometry":{"type":"Point","coordinates":[-73.7505408,18.1975985]},"properties":{"t":"banque"}},{"type":"Feature","geometry":{"type":"Point","coordinates":[-73.7496681,18.1970506]},"properties":{"t":"banque"}},{"type":"Feature","geometry":{"type":"Point","coordinates":[-73.7490659,18.1964458]},"properties":{"t":"banque"}},{"type":"Feature","geometry":{"type":"Point","coordinates":[-73.7491153,18.1965561]},"properties":{"t":"banque"}},{"type":"Feature","geometry":{"type":"Point","coordinates":[-73.7492529,18.1968292]},"properties":{"t":"banque"}},{"type":"Feature","geometry":{"type":"Point","coordinates":[-73.7491825,18.1961404]},"properties":{"t":"banque"}},{"type":"Feature","geometry":{"type":"Point","coordinates":[-73.7487151,18.1961177]},"properties":{"t":"change"}},{"type":"Feature","geometry":{"type":"Point","coordinates":[-73.7491721,18.1951345]},"properties":{"t":"banque"}},{"type":"Feature","geometry":{"type":"Point","coordinates":[-73.7486556,18.1951935]},"properties":{"t":"change"}},{"type":"Feature","geometry":{"type":"Point","coordinates":[-73.7492251,18.194402]},"properties":{"t":"banque"}},{"type":"Feature","geometry":{"type":"Point","coordinates":[-73.7505122,18.1946067]},"properties":{"t":"banque"}},{"type":"Feature","geometry":{"type":"Point","coordinates":[-73.7529712,18.1939334]},"properties":{"t":"change"}},{"type":"Feature","geometry":{"type":"Point","coordinates":[-73.7492017,18.1931247]},"properties":{"t":"transfert"}},{"type":"Feature","geometry":{"type":"Point","coordinates":[-73.7494123,18.1934278]},"properties":{"t":"change"}},{"type":"Feature","geometry":{"type":"Point","coordinates":[-73.7491162,18.193572]},"properties":{"t":"banque"}},{"type":"Feature","geometry":{"type":"Point","coordinates":[-73.7496496,18.1924004]},"properties":{"t":"transfert"}},{"type":"Feature","geometry":{"type":"Point","coordinates":[-73.7483689,18.1942141]},"properties":{"t":"change"}},{"type":"Feature","geometry":{"type":"Point","coordinates":[-73.748113,18.1949834]},"properties":{"t":"transfert"}},{"type":"Feature","geometry":{"type":"Point","coordinates":[-73.7480057,18.194952]},"properties":{"t":"banque"}},{"type":"Feature","geometry":{"type":"Point","coordinates":[-73.7473503,18.1951114]},"properties":{"t":"banque"}},{"type":"Feature","geometry":{"type":"Point","coordinates":[-73.7454207,18.1944645]},"properties":{"t":"change"}},{"type":"Feature","geometry":{"type":"Point","coordinates":[-73.7448048,18.1932411]},"properties":{"t":"change"}},{"type":"Feature","geometry":{"type":"Point","coordinates":[-73.744987,18.1921663]},"properties":{"t":"change"}},{"type":"Feature","geometry":{"type":"Point","coordinates":[-73.751134,18.1905529]},"properties":{"t":"poste"}},{"type":"Feature","geometry":{"type":"Point","coordinates":[-73.7502516,18.1911639]},"properties":{"t":"banque"}},{"type":"Feature","geometry":{"type":"Point","coordinates":[-73.7505492,18.1910802]},"properties":{"t":"banque"}},{"type":"Feature","geometry":{"type":"Point","coordinates":[-73.7530443,18.1913121]},"properties":{"t":"change"}},{"type":"Feature","geometry":{"type":"Point","coordinates":[-73.7608517,18.2012924]},"properties":{"t":"transfert"}},{"type":"Feature","geometry":{"type":"Point","coordinates":[-73.5431838,18.2634369]},"properties":{"t":"change"}},{"type":"Feature","geometry":{"type":"Point","coordinates":[-73.5450156,18.2632163]},"properties":{"t":"change"}},{"type":"Feature","geometry":{"type":"Point","coordinates":[-73.1252144,18.2751402]},"properties":{"t":"banque"}},{"type":"Feature","geometry":{"type":"Point","coordinates":[-72.3257966,18.5404596]},"properties":{"t":"banque"}},{"type":"Feature","geometry":{"type":"Point","coordinates":[-72.3261832,18.5402387]},"properties":{"t":"transfert"}},{"type":"Feature","geometry":{"type":"Point","coordinates":[-72.3261572,18.5402085]},"properties":{"t":"transfert"}},{"type":"Feature","geometry":{"type":"Point","coordinates":[-72.3284738,18.5413807]},"properties":{"t":"banque"}},{"type":"Feature","geometry":{"type":"Point","coordinates":[-72.3331046,18.5396779]},"properties":{"t":"guichet"}},{"type":"Feature","geometry":{"type":"Point","coordinates":[-72.3346343,18.5421383]},"properties":{"t":"guichet"}},{"type":"Feature","geometry":{"type":"Point","coordinates":[-72.3346753,18.5420757]},"properties":{"t":"banque"}},{"type":"Feature","geometry":{"type":"Point","coordinates":[-72.3333931,18.5586537]},"properties":{"t":"banque"}},{"type":"Feature","geometry":{"type":"Point","coordinates":[-72.3170839,18.5621042]},"properties":{"t":"banque"}},{"type":"Feature","geometry":{"type":"Point","coordinates":[-72.316184,18.5634566]},"properties":{"t":"banque"}},{"type":"Feature","geometry":{"type":"Point","coordinates":[-72.3078489,18.57534]},"properties":{"t":"banque"}},{"type":"Feature","geometry":{"type":"Point","coordinates":[-72.3075797,18.5750713]},"properties":{"t":"poste"}},{"type":"Feature","geometry":{"type":"Point","coordinates":[-72.3065106,18.576211]},"properties":{"t":"guichet"}},{"type":"Feature","geometry":{"type":"Point","coordinates":[-72.306671,18.572259]},"properties":{"t":"transfert"}},{"type":"Feature","geometry":{"type":"Point","coordinates":[-72.307003,18.571665]},"properties":{"t":"banque"}},{"type":"Feature","geometry":{"type":"Point","coordinates":[-72.2966069,18.5753627]},"properties":{"t":"banque"}},{"type":"Feature","geometry":{"type":"Point","coordinates":[-72.2942131,18.5755379]},"properties":{"t":"guichet"}},{"type":"Feature","geometry":{"type":"Point","coordinates":[-72.2941905,18.575515]},"properties":{"t":"change"}},{"type":"Feature","geometry":{"type":"Point","coordinates":[-72.2957276,18.5877978]},"properties":{"t":"banque"}},{"type":"Feature","geometry":{"type":"Point","coordinates":[-72.2794853,18.6092122]},"properties":{"t":"change"}},{"type":"Feature","geometry":{"type":"Point","coordinates":[-72.2795274,18.6091251]},"properties":{"t":"banque"}},{"type":"Feature","geometry":{"type":"Point","coordinates":[-72.2796182,18.6085735]},"properties":{"t":"banque"}},{"type":"Feature","geometry":{"type":"Point","coordinates":[-72.2756117,18.6470462]},"properties":{"t":"change"}},{"type":"Feature","geometry":{"type":"Point","coordinates":[-72.252339,18.6527552]},"properties":{"t":"transfert"}},{"type":"Feature","geometry":{"type":"Point","coordinates":[-72.2614171,18.6625293]},"properties":{"t":"banque"}},{"type":"Feature","geometry":{"type":"Point","coordinates":[-72.2915242,18.6602614]},"properties":{"t":"change"}},{"type":"Feature","geometry":{"type":"Point","coordinates":[-72.6917021,19.1002689]},"properties":{"t":"change"}},{"type":"Feature","geometry":{"type":"Point","coordinates":[-72.6909156,19.1015394]},"properties":{"t":"change"}},{"type":"Feature","geometry":{"type":"Point","coordinates":[-72.6152146,19.1498363]},"properties":{"t":"banque"}},{"type":"Feature","geometry":{"type":"Point","coordinates":[-72.6142479,19.1500319]},"properties":{"t":"banque"}},{"type":"Feature","geometry":{"type":"Point","coordinates":[-72.4803693,19.1228792]},"properties":{"t":"banque"}},{"type":"Feature","geometry":{"type":"Point","coordinates":[-72.5155178,19.2626785]},"properties":{"t":"banque"}},{"type":"Feature","geometry":{"type":"Point","coordinates":[-72.5178406,19.2616671]},"properties":{"t":"change"}},{"type":"Feature","geometry":{"type":"Point","coordinates":[-72.6095627,19.2986363]},"properties":{"t":"banque"}},{"type":"Feature","geometry":{"type":"Point","coordinates":[-72.6096535,19.3022591]},"properties":{"t":"change"}},{"type":"Feature","geometry":{"type":"Point","coordinates":[-72.6740955,19.4416268]},"properties":{"t":"change"}},{"type":"Feature","geometry":{"type":"Point","coordinates":[-72.34348,19.3850784]},"properties":{"t":"banque"}},{"type":"Feature","geometry":{"type":"Point","coordinates":[-72.6801543,19.4435923]},"properties":{"t":"change"}},{"type":"Feature","geometry":{"type":"Point","coordinates":[-72.6795821,19.443405]},"properties":{"t":"change"}},{"type":"Feature","geometry":{"type":"Point","coordinates":[-72.6817358,19.4440248]},"properties":{"t":"transfert"}},{"type":"Feature","geometry":{"type":"Point","coordinates":[-72.6823755,19.4441184]},"properties":{"t":"banque"}},{"type":"Feature","geometry":{"type":"Point","coordinates":[-72.6923825,19.4474552]},"properties":{"t":"poste"}},{"type":"Feature","geometry":{"type":"Point","coordinates":[-72.690491,19.4470284]},"properties":{"t":"transfert"}},{"type":"Feature","geometry":{"type":"Point","coordinates":[-72.693217,19.4480417]},"properties":{"t":"change"}},{"type":"Feature","geometry":{"type":"Point","coordinates":[-72.684647,19.4510329]},"properties":{"t":"transfert"}},{"type":"Feature","geometry":{"type":"Point","coordinates":[-72.6746445,19.4677815]},"properties":{"t":"change"}},{"type":"Feature","geometry":{"type":"Point","coordinates":[-72.694629,19.4480371]},"properties":{"t":"banque"}},{"type":"Feature","geometry":{"type":"Point","coordinates":[-72.6946577,19.4482253]},"properties":{"t":"banque"}},{"type":"Feature","geometry":{"type":"Point","coordinates":[-72.6935124,19.4478389]},"properties":{"t":"poste"}},{"type":"Feature","geometry":{"type":"Point","coordinates":[-72.6946597,19.4473303]},"properties":{"t":"banque"}},{"type":"Feature","geometry":{"type":"Point","coordinates":[-72.695635,19.447286]},"properties":{"t":"banque"}},{"type":"Feature","geometry":{"type":"Point","coordinates":[-72.6948782,19.447462]},"properties":{"t":"banque"}},{"type":"Feature","geometry":{"type":"Point","coordinates":[-72.9801943,19.812402]},"properties":{"t":"banque"}},{"type":"Feature","geometry":{"type":"Point","coordinates":[-72.830163,19.939835]},"properties":{"t":"banque"}},{"type":"Feature","geometry":{"type":"Point","coordinates":[-72.829825,19.939146]},"properties":{"t":"poste"}},{"type":"Feature","geometry":{"type":"Point","coordinates":[-72.6337695,18.4569973]},"properties":{"t":"transfert"}},{"type":"Feature","geometry":{"type":"Point","coordinates":[-72.6331086,18.5116919]},"properties":{"t":"transfert"}},{"type":"Feature","geometry":{"type":"Point","coordinates":[-72.6342435,18.5113186]},"properties":{"t":"banque"}},{"type":"Feature","geometry":{"type":"Point","coordinates":[-72.6305212,18.5090401]},"properties":{"t":"banque"}},{"type":"Feature","geometry":{"type":"Point","coordinates":[-72.629486,18.5084227]},"properties":{"t":"banque"}},{"type":"Feature","geometry":{"type":"Point","coordinates":[-72.6294795,18.5086148]},"properties":{"t":"change"}},{"type":"Feature","geometry":{"type":"Point","coordinates":[-72.610289,18.4998423]},"properties":{"t":"guichet"}},{"type":"Feature","geometry":{"type":"Point","coordinates":[-72.624639,18.505911]},"properties":{"t":"poste"}},{"type":"Feature","geometry":{"type":"Point","coordinates":[-72.8673767,18.431317]},"properties":{"t":"banque"}},{"type":"Feature","geometry":{"type":"Point","coordinates":[-72.868809,18.4305332]},"properties":{"t":"banque"}},{"type":"Feature","geometry":{"type":"Point","coordinates":[-72.868809,18.4301159]},"properties":{"t":"banque"}},{"type":"Feature","geometry":{"type":"Point","coordinates":[-72.8683745,18.4300039]},"properties":{"t":"banque"}},{"type":"Feature","geometry":{"type":"Point","coordinates":[-72.8656011,18.4321821]},"properties":{"t":"poste"}},{"type":"Feature","geometry":{"type":"Point","coordinates":[-72.8660623,18.4326867]},"properties":{"t":"banque"}},{"type":"Feature","geometry":{"type":"Point","coordinates":[-72.8661051,18.4326656]},"properties":{"t":"guichet"}},{"type":"Feature","geometry":{"type":"Point","coordinates":[-72.8661051,18.4326656]},"properties":{"t":"guichet"}},{"type":"Feature","geometry":{"type":"Point","coordinates":[-72.8601777,18.4280089]},"properties":{"t":"banque"}},{"type":"Feature","geometry":{"type":"Point","coordinates":[-72.6648754,18.2683116]},"properties":{"t":"banque"}},{"type":"Feature","geometry":{"type":"Point","coordinates":[-72.6650724,18.2680944]},"properties":{"t":"banque"}},{"type":"Feature","geometry":{"type":"Point","coordinates":[-72.6227442,18.2167856]},"properties":{"t":"banque"}},{"type":"Feature","geometry":{"type":"Point","coordinates":[-72.5371257,18.2336744]},"properties":{"t":"poste"}},{"type":"Feature","geometry":{"type":"Point","coordinates":[-72.5370674,18.234984]},"properties":{"t":"poste"}},{"type":"Feature","geometry":{"type":"Point","coordinates":[-72.535151,18.2347356]},"properties":{"t":"change"}},{"type":"Feature","geometry":{"type":"Point","coordinates":[-72.535907,18.2358344]},"properties":{"t":"guichet"}},{"type":"Feature","geometry":{"type":"Point","coordinates":[-72.5327181,18.2366905]},"properties":{"t":"transfert"}},{"type":"Feature","geometry":{"type":"Point","coordinates":[-72.539377,18.2395386]},"properties":{"t":"banque"}},{"type":"Feature","geometry":{"type":"Point","coordinates":[-72.5393386,18.2395735]},"properties":{"t":"poste"}},{"type":"Feature","geometry":{"type":"Point","coordinates":[-72.5390149,18.2394424]},"properties":{"t":"banque"}},{"type":"Feature","geometry":{"type":"Point","coordinates":[-72.5387446,18.2392935]},"properties":{"t":"banque"}},{"type":"Feature","geometry":{"type":"Point","coordinates":[-72.5382734,18.2388945]},"properties":{"t":"banque"}},{"type":"Feature","geometry":{"type":"Point","coordinates":[-72.5375822,18.2373796]},"properties":{"t":"banque"}},{"type":"Feature","geometry":{"type":"Point","coordinates":[-72.5374891,18.2370385]},"properties":{"t":"banque"}},{"type":"Feature","geometry":{"type":"Point","coordinates":[-72.5376514,18.2364903]},"properties":{"t":"change"}},{"type":"Feature","geometry":{"type":"Point","coordinates":[-72.5378987,18.2358164]},"properties":{"t":"banque"}},{"type":"Feature","geometry":{"type":"Point","coordinates":[-72.537978,18.2352196]},"properties":{"t":"banque"}},{"type":"Feature","geometry":{"type":"Point","coordinates":[-72.5374904,18.234547]},"properties":{"t":"banque"}},{"type":"Feature","geometry":{"type":"Point","coordinates":[-72.4654554,18.227336]},"properties":{"t":"change"}},{"type":"Feature","geometry":{"type":"Point","coordinates":[-72.3950937,18.2306333]},"properties":{"t":"change"}},{"type":"Feature","geometry":{"type":"Point","coordinates":[-72.3160473,18.2355197]},"properties":{"t":"change"}},{"type":"Feature","geometry":{"type":"Point","coordinates":[-72.315195,18.2338599]},"properties":{"t":"banque"}},{"type":"Feature","geometry":{"type":"Point","coordinates":[-72.3099158,18.4772322]},"properties":{"t":"transfert"}},{"type":"Feature","geometry":{"type":"Point","coordinates":[-72.3190421,18.4985568]},"properties":{"t":"banque"}},{"type":"Feature","geometry":{"type":"Point","coordinates":[-72.3197041,18.4977543]},"properties":{"t":"banque"}},{"type":"Feature","geometry":{"type":"Point","coordinates":[-72.3337572,18.5335606]},"properties":{"t":"banque"}},{"type":"Feature","geometry":{"type":"Point","coordinates":[-72.3358916,18.5369259]},"properties":{"t":"transfert"}},{"type":"Feature","geometry":{"type":"Point","coordinates":[-72.3311306,18.534965]},"properties":{"t":"banque"}},{"type":"Feature","geometry":{"type":"Point","coordinates":[-72.3296089,18.5347864]},"properties":{"t":"guichet"}},{"type":"Feature","geometry":{"type":"Point","coordinates":[-72.3296837,18.534835]},"properties":{"t":"banque"}},{"type":"Feature","geometry":{"type":"Point","coordinates":[-72.325504,18.5326568]},"properties":{"t":"transfert"}},{"type":"Feature","geometry":{"type":"Point","coordinates":[-72.3255002,18.5326718]},"properties":{"t":"transfert"}},{"type":"Feature","geometry":{"type":"Point","coordinates":[-72.325665,18.532812]},"properties":{"t":"banque"}},{"type":"Feature","geometry":{"type":"Point","coordinates":[-72.3255783,18.5330329]},"properties":{"t":"guichet"}},{"type":"Feature","geometry":{"type":"Point","coordinates":[-72.3276733,18.5342216]},"properties":{"t":"banque"}},{"type":"Feature","geometry":{"type":"Point","coordinates":[-72.3285522,18.5332109]},"properties":{"t":"transfert"}},{"type":"Feature","geometry":{"type":"Point","coordinates":[-72.323871,18.5323634]},"properties":{"t":"transfert"}},{"type":"Feature","geometry":{"type":"Point","coordinates":[-72.3234433,18.5328778]},"properties":{"t":"guichet"}},{"type":"Feature","geometry":{"type":"Point","coordinates":[-72.3243283,18.5331753]},"properties":{"t":"guichet"}},{"type":"Feature","geometry":{"type":"Point","coordinates":[-72.3238621,18.5326848]},"properties":{"t":"guichet"}},{"type":"Feature","geometry":{"type":"Point","coordinates":[-72.324354,18.533613]},"properties":{"t":"banque"}},{"type":"Feature","geometry":{"type":"Point","coordinates":[-72.3245628,18.5336038]},"properties":{"t":"guichet"}},{"type":"Feature","geometry":{"type":"Point","coordinates":[-72.3192456,18.535131]},"properties":{"t":"guichet"}},{"type":"Feature","geometry":{"type":"Point","coordinates":[-72.3192249,18.5351284]},"properties":{"t":"guichet"}},{"type":"Feature","geometry":{"type":"Point","coordinates":[-72.3154456,18.5323269]},"properties":{"t":"banque"}},{"type":"Feature","geometry":{"type":"Point","coordinates":[-72.3155525,18.5320534]},"properties":{"t":"change"}},{"type":"Feature","geometry":{"type":"Point","coordinates":[-72.3213451,18.5265666]},"properties":{"t":"guichet"}},{"type":"Feature","geometry":{"type":"Point","coordinates":[-72.3118749,18.5375736]},"properties":{"t":"banque"}},{"type":"Feature","geometry":{"type":"Point","coordinates":[-72.3027074,18.5344271]},"properties":{"t":"guichet"}},{"type":"Feature","geometry":{"type":"Point","coordinates":[-72.2954236,18.5379099]},"properties":{"t":"transfert"}},{"type":"Feature","geometry":{"type":"Point","coordinates":[-72.2954411,18.5379378]},"properties":{"t":"banque"}},{"type":"Feature","geometry":{"type":"Point","coordinates":[-72.2938357,18.5366905]},"properties":{"t":"banque"}},{"type":"Feature","geometry":{"type":"Point","coordinates":[-72.2975724,18.5272625]},"properties":{"t":"guichet"}},{"type":"Feature","geometry":{"type":"Point","coordinates":[-72.2980635,18.527259]},"properties":{"t":"guichet"}},{"type":"Feature","geometry":{"type":"Point","coordinates":[-72.2981656,18.517048]},"properties":{"t":"change"}},{"type":"Feature","geometry":{"type":"Point","coordinates":[-72.286243,18.5095946]},"properties":{"t":"poste"}},{"type":"Feature","geometry":{"type":"Point","coordinates":[-72.2894401,18.5139439]},"properties":{"t":"banque"}},{"type":"Feature","geometry":{"type":"Point","coordinates":[-72.2893042,18.5128547]},"properties":{"t":"banque"}},{"type":"Feature","geometry":{"type":"Point","coordinates":[-72.2888675,18.5126453]},"properties":{"t":"banque"}},{"type":"Feature","geometry":{"type":"Point","coordinates":[-72.2880524,18.5125408]},"properties":{"t":"banque"}},{"type":"Feature","geometry":{"type":"Point","coordinates":[-72.2880063,18.512604]},"properties":{"t":"guichet"}},{"type":"Feature","geometry":{"type":"Point","coordinates":[-72.2873863,18.5125849]},"properties":{"t":"banque"}},{"type":"Feature","geometry":{"type":"Point","coordinates":[-72.2876251,18.5132972]},"properties":{"t":"banque"}},{"type":"Feature","geometry":{"type":"Point","coordinates":[-72.2883721,18.514217]},"properties":{"t":"banque"}},{"type":"Feature","geometry":{"type":"Point","coordinates":[-72.2872245,18.5119714]},"properties":{"t":"guichet"}},{"type":"Feature","geometry":{"type":"Point","coordinates":[-72.2873604,18.5121991]},"properties":{"t":"banque"}},{"type":"Feature","geometry":{"type":"Point","coordinates":[-72.2884684,18.5122326]},"properties":{"t":"banque"}},{"type":"Feature","geometry":{"type":"Point","coordinates":[-72.2832923,18.5117457]},"properties":{"t":"banque"}},{"type":"Feature","geometry":{"type":"Point","coordinates":[-72.2853408,18.5126873]},"properties":{"t":"banque"}},{"type":"Feature","geometry":{"type":"Point","coordinates":[-72.285332,18.5135989]},"properties":{"t":"banque"}},{"type":"Feature","geometry":{"type":"Point","coordinates":[-72.283173,18.513052]},"properties":{"t":"banque"}},{"type":"Feature","geometry":{"type":"Point","coordinates":[-72.2828171,18.5123267]},"properties":{"t":"banque"}},{"type":"Feature","geometry":{"type":"Point","coordinates":[-72.2745815,18.5119797]},"properties":{"t":"transfert"}},{"type":"Feature","geometry":{"type":"Point","coordinates":[-72.2739944,18.5126385]},"properties":{"t":"transfert"}},{"type":"Feature","geometry":{"type":"Point","coordinates":[-72.2739755,18.5127025]},"properties":{"t":"transfert"}},{"type":"Feature","geometry":{"type":"Point","coordinates":[-72.2883769,18.5145932]},"properties":{"t":"guichet"}},{"type":"Feature","geometry":{"type":"Point","coordinates":[-72.2886125,18.5154887]},"properties":{"t":"banque"}},{"type":"Feature","geometry":{"type":"Point","coordinates":[-72.2894018,18.5163811]},"properties":{"t":"banque"}},{"type":"Feature","geometry":{"type":"Point","coordinates":[-72.2897733,18.5158427]},"properties":{"t":"poste"}},{"type":"Feature","geometry":{"type":"Point","coordinates":[-72.2914574,18.517187]},"properties":{"t":"banque"}},{"type":"Feature","geometry":{"type":"Point","coordinates":[-72.2912108,18.5190309]},"properties":{"t":"guichet"}},{"type":"Feature","geometry":{"type":"Point","coordinates":[-72.2903291,18.5322053]},"properties":{"t":"guichet"}},{"type":"Feature","geometry":{"type":"Point","coordinates":[-72.2891057,18.5313787]},"properties":{"t":"guichet"}},{"type":"Feature","geometry":{"type":"Point","coordinates":[-72.2909692,18.5330712]},"properties":{"t":"banque"}},{"type":"Feature","geometry":{"type":"Point","coordinates":[-72.27386,18.5280584]},"properties":{"t":"banque"}},{"type":"Feature","geometry":{"type":"Point","coordinates":[-72.2766779,18.526892]},"properties":{"t":"guichet"}},{"type":"Feature","geometry":{"type":"Point","coordinates":[-72.2768858,18.5270031]},"properties":{"t":"banque"}},{"type":"Feature","geometry":{"type":"Point","coordinates":[-72.2658325,18.5260392]},"properties":{"t":"transfert"}},{"type":"Feature","geometry":{"type":"Point","coordinates":[-72.2546104,18.5228009]},"properties":{"t":"guichet"}},{"type":"Feature","geometry":{"type":"Point","coordinates":[-72.2542544,18.5221277]},"properties":{"t":"transfert"}},{"type":"Feature","geometry":{"type":"Point","coordinates":[-72.3161605,18.6879426]},"properties":{"t":"change"}},{"type":"Feature","geometry":{"type":"Point","coordinates":[-72.3132479,18.9116391]},"properties":{"t":"banque"}},{"type":"Feature","geometry":{"type":"Point","coordinates":[-72.2010033,18.8155804]},"properties":{"t":"change"}},{"type":"Feature","geometry":{"type":"Point","coordinates":[-72.2009347,18.8157654]},"properties":{"t":"banque"}},{"type":"Feature","geometry":{"type":"Point","coordinates":[-72.1114571,18.8366027]},"properties":{"t":"banque"}},{"type":"Feature","geometry":{"type":"Point","coordinates":[-72.1050872,18.8341123]},"properties":{"t":"banque"}},{"type":"Feature","geometry":{"type":"Point","coordinates":[-72.1051577,18.8352659]},"properties":{"t":"banque"}},{"type":"Feature","geometry":{"type":"Point","coordinates":[-72.1002411,18.835001]},"properties":{"t":"change"}},{"type":"Feature","geometry":{"type":"Point","coordinates":[-72.1007537,18.834026]},"properties":{"t":"change"}},{"type":"Feature","geometry":{"type":"Point","coordinates":[-72.100968,18.8352803]},"properties":{"t":"change"}},{"type":"Feature","geometry":{"type":"Point","coordinates":[-72.1043688,18.8374937]},"properties":{"t":"banque"}},{"type":"Feature","geometry":{"type":"Point","coordinates":[-72.1400724,18.9193319]},"properties":{"t":"banque"}},{"type":"Feature","geometry":{"type":"Point","coordinates":[-72.3888925,18.9910614]},"properties":{"t":"banque"}},{"type":"Feature","geometry":{"type":"Point","coordinates":[-72.701147,18.9548358]},"properties":{"t":"guichet"}},{"type":"Feature","geometry":{"type":"Point","coordinates":[-72.7003728,18.9552825]},"properties":{"t":"guichet"}},{"type":"Feature","geometry":{"type":"Point","coordinates":[-72.7066365,18.9505788]},"properties":{"t":"banque"}},{"type":"Feature","geometry":{"type":"Point","coordinates":[-72.7044952,18.9492266]},"properties":{"t":"change"}},{"type":"Feature","geometry":{"type":"Point","coordinates":[-72.7035109,18.9499218]},"properties":{"t":"guichet"}},{"type":"Feature","geometry":{"type":"Point","coordinates":[-72.7159298,18.9577595]},"properties":{"t":"change"}},{"type":"Feature","geometry":{"type":"Point","coordinates":[-72.8632551,18.8304912]},"properties":{"t":"banque"}},{"type":"Feature","geometry":{"type":"Point","coordinates":[-72.8627534,18.8306291]},"properties":{"t":"banque"}},{"type":"Feature","geometry":{"type":"Point","coordinates":[-72.86271,18.830528]},"properties":{"t":"banque"}},{"type":"Feature","geometry":{"type":"Point","coordinates":[-72.5231658,18.5420984]},"properties":{"t":"banque"}},{"type":"Feature","geometry":{"type":"Point","coordinates":[-72.516269,18.7730658]},"properties":{"t":"banque"}},{"type":"Feature","geometry":{"type":"Point","coordinates":[-72.5129248,18.7693177]},"properties":{"t":"poste"}},{"type":"Feature","geometry":{"type":"Point","coordinates":[-72.5133058,18.7705842]},"properties":{"t":"change"}},{"type":"Feature","geometry":{"type":"Point","coordinates":[-72.4167801,18.7365187]},"properties":{"t":"banque"}},{"type":"Feature","geometry":{"type":"Point","coordinates":[-73.4129038,18.3847273]},"properties":{"t":"transfert"}},{"type":"Feature","geometry":{"type":"Point","coordinates":[-73.4120381,18.3830853]},"properties":{"t":"transfert"}},{"type":"Feature","geometry":{"type":"Point","coordinates":[-73.4106256,18.3775427]},"properties":{"t":"transfert"}},{"type":"Feature","geometry":{"type":"Point","coordinates":[-73.415257,18.3833589]},"properties":{"t":"transfert"}},{"type":"Feature","geometry":{"type":"Point","coordinates":[-73.6549798,18.2986964]},"properties":{"t":"transfert"}},{"type":"Feature","geometry":{"type":"Point","coordinates":[-74.1137412,18.6430152]},"properties":{"t":"banque"}},{"type":"Feature","geometry":{"type":"Point","coordinates":[-74.1131858,18.6449722]},"properties":{"t":"banque"}},{"type":"Feature","geometry":{"type":"Point","coordinates":[-74.1136437,18.6458255]},"properties":{"t":"change"}},{"type":"Feature","geometry":{"type":"Point","coordinates":[-74.1127338,18.6457631]},"properties":{"t":"poste"}},{"type":"Feature","geometry":{"type":"Point","coordinates":[-72.41064,18.538676]},"properties":{"t":"transfert"}},{"type":"Feature","geometry":{"type":"Point","coordinates":[-72.3926848,18.541868]},"properties":{"t":"transfert"}},{"type":"Feature","geometry":{"type":"Point","coordinates":[-72.4020399,18.5485966]},"properties":{"t":"guichet"}},{"type":"Feature","geometry":{"type":"Point","coordinates":[-72.3470193,18.5468847]},"properties":{"t":"poste"}},{"type":"Feature","geometry":{"type":"Point","coordinates":[-72.3461458,18.5483859]},"properties":{"t":"guichet"}},{"type":"Feature","geometry":{"type":"Point","coordinates":[-72.3457153,18.5481308]},"properties":{"t":"banque"}},{"type":"Feature","geometry":{"type":"Point","coordinates":[-72.3457833,18.5485945]},"properties":{"t":"guichet"}},{"type":"Feature","geometry":{"type":"Point","coordinates":[-72.345673,18.548497]},"properties":{"t":"banque"}},{"type":"Feature","geometry":{"type":"Point","coordinates":[-72.345132,18.548408]},"properties":{"t":"banque"}},{"type":"Feature","geometry":{"type":"Point","coordinates":[-72.345125,18.550097]},"properties":{"t":"banque"}},{"type":"Feature","geometry":{"type":"Point","coordinates":[-72.344683,18.548794]},"properties":{"t":"banque"}},{"type":"Feature","geometry":{"type":"Point","coordinates":[-72.345312,18.548929]},"properties":{"t":"banque"}},{"type":"Feature","geometry":{"type":"Point","coordinates":[-72.346443,18.549507]},"properties":{"t":"poste"}},{"type":"Feature","geometry":{"type":"Point","coordinates":[-72.3414385,18.551131]},"properties":{"t":"banque"}},{"type":"Feature","geometry":{"type":"Point","coordinates":[-72.3390165,18.5467365]},"properties":{"t":"transfert"}},{"type":"Feature","geometry":{"type":"Point","coordinates":[-72.343776,18.532534]},"properties":{"t":"transfert"}},{"type":"Feature","geometry":{"type":"Point","coordinates":[-72.341593,18.5322096]},"properties":{"t":"transfert"}},{"type":"Feature","geometry":{"type":"Point","coordinates":[-72.3373319,18.5330177]},"properties":{"t":"poste"}},{"type":"Feature","geometry":{"type":"Point","coordinates":[-72.3378906,18.5324647]},"properties":{"t":"transfert"}},{"type":"Feature","geometry":{"type":"Point","coordinates":[-72.3413996,18.5298397]},"properties":{"t":"banque"}},{"type":"Feature","geometry":{"type":"Point","coordinates":[-72.339804,18.528696]},"properties":{"t":"banque"}},{"type":"Feature","geometry":{"type":"Point","coordinates":[-72.3406253,18.5271165]},"properties":{"t":"change"}},{"type":"Feature","geometry":{"type":"Point","coordinates":[-72.3401159,18.5259567]},"properties":{"t":"change"}},{"type":"Feature","geometry":{"type":"Point","coordinates":[-72.3403936,18.5265294]},"properties":{"t":"change"}},{"type":"Feature","geometry":{"type":"Point","coordinates":[-72.3546462,18.5256693]},"properties":{"t":"change"}},{"type":"Feature","geometry":{"type":"Point","coordinates":[-72.3551619,18.5249245]},"properties":{"t":"change"}},{"type":"Feature","geometry":{"type":"Point","coordinates":[-72.3559922,18.5256173]},"properties":{"t":"change"}},{"type":"Feature","geometry":{"type":"Point","coordinates":[-72.3560731,18.5257335]},"properties":{"t":"change"}},{"type":"Feature","geometry":{"type":"Point","coordinates":[-72.3585601,18.5325637]},"properties":{"t":"transfert"}},{"type":"Feature","geometry":{"type":"Point","coordinates":[-72.3593773,18.5322032]},"properties":{"t":"banque"}},{"type":"Feature","geometry":{"type":"Point","coordinates":[-72.3736862,18.5319784]},"properties":{"t":"banque"}},{"type":"Feature","geometry":{"type":"Point","coordinates":[-72.3736446,18.5318627]},"properties":{"t":"guichet"}},{"type":"Feature","geometry":{"type":"Point","coordinates":[-72.392161,18.5342892]},"properties":{"t":"banque"}},{"type":"Feature","geometry":{"type":"Point","coordinates":[-73.1923192,19.8525899]},"properties":{"t":"transfert"}},{"type":"Feature","geometry":{"type":"Point","coordinates":[-73.2566416,19.8022609]},"properties":{"t":"banque"}},{"type":"Feature","geometry":{"type":"Point","coordinates":[-73.2553438,19.8039173]},"properties":{"t":"transfert"}},{"type":"Feature","geometry":{"type":"Point","coordinates":[-73.2148726,19.670555]},"properties":{"t":"banque"}},{"type":"Feature","geometry":{"type":"Point","coordinates":[-72.6986094,19.1206223]},"properties":{"t":"change"}},{"type":"Feature","geometry":{"type":"Point","coordinates":[-72.7005773,19.1118681]},"properties":{"t":"guichet"}},{"type":"Feature","geometry":{"type":"Point","coordinates":[-72.7007133,19.1114712]},"properties":{"t":"banque"}},{"type":"Feature","geometry":{"type":"Point","coordinates":[-72.699926,19.1113466]},"properties":{"t":"banque"}},{"type":"Feature","geometry":{"type":"Point","coordinates":[-72.6971589,19.1180429]},"properties":{"t":"guichet"}},{"type":"Feature","geometry":{"type":"Point","coordinates":[-72.695101,19.11476]},"properties":{"t":"change"}},{"type":"Feature","geometry":{"type":"Point","coordinates":[-72.6951384,19.1149079]},"properties":{"t":"change"}},{"type":"Feature","geometry":{"type":"Point","coordinates":[-72.6995358,19.1106731]},"properties":{"t":"change"}},{"type":"Feature","geometry":{"type":"Point","coordinates":[-72.6997896,19.1096216]},"properties":{"t":"banque"}},{"type":"Feature","geometry":{"type":"Point","coordinates":[-72.7002268,19.1093393]},"properties":{"t":"banque"}},{"type":"Feature","geometry":{"type":"Point","coordinates":[-72.7003356,19.1099736]},"properties":{"t":"banque"}},{"type":"Feature","geometry":{"type":"Point","coordinates":[-72.7010117,19.1099538]},"properties":{"t":"banque"}},{"type":"Feature","geometry":{"type":"Point","coordinates":[-72.7008342,19.1096974]},"properties":{"t":"banque"}},{"type":"Feature","geometry":{"type":"Point","coordinates":[-72.7011832,19.10992]},"properties":{"t":"poste"}},{"type":"Feature","geometry":{"type":"Point","coordinates":[-72.7013086,19.1099917]},"properties":{"t":"banque"}},{"type":"Feature","geometry":{"type":"Point","coordinates":[-72.7014177,19.1099356]},"properties":{"t":"guichet"}},{"type":"Feature","geometry":{"type":"Point","coordinates":[-72.7012966,19.1100868]},"properties":{"t":"change"}},{"type":"Feature","geometry":{"type":"Point","coordinates":[-72.7007586,19.1109769]},"properties":{"t":"change"}},{"type":"Feature","geometry":{"type":"Point","coordinates":[-72.7007573,19.1109549]},"properties":{"t":"banque"}},{"type":"Feature","geometry":{"type":"Point","coordinates":[-72.7011432,19.1083846]},"properties":{"t":"banque"}},{"type":"Feature","geometry":{"type":"Point","coordinates":[-72.7013019,19.1086677]},"properties":{"t":"banque"}},{"type":"Feature","geometry":{"type":"Point","coordinates":[-72.699899,19.1088331]},"properties":{"t":"change"}},{"type":"Feature","geometry":{"type":"Point","coordinates":[-72.7013775,19.1054537]},"properties":{"t":"change"}},{"type":"Feature","geometry":{"type":"Point","coordinates":[-72.70327,19.1049671]},"properties":{"t":"change"}},{"type":"Feature","geometry":{"type":"Point","coordinates":[-72.6946026,19.1061839]},"properties":{"t":"change"}},{"type":"Feature","geometry":{"type":"Point","coordinates":[-72.7153413,19.0939464]},"properties":{"t":"change"}},{"type":"Feature","geometry":{"type":"Point","coordinates":[-72.6591321,19.0906902]},"properties":{"t":"banque"}},{"type":"Feature","geometry":{"type":"Point","coordinates":[-72.4028472,19.7065027]},"properties":{"t":"banque"}},{"type":"Feature","geometry":{"type":"Point","coordinates":[-72.6831484,19.6719161]},"properties":{"t":"transfert"}},{"type":"Feature","geometry":{"type":"Point","coordinates":[-72.6830557,19.6717141]},"properties":{"t":"transfert"}},{"type":"Feature","geometry":{"type":"Point","coordinates":[-72.6824136,19.6717113]},"properties":{"t":"banque"}},{"type":"Feature","geometry":{"type":"Point","coordinates":[-72.6786684,19.6699217]},"properties":{"t":"banque"}},{"type":"Feature","geometry":{"type":"Point","coordinates":[-72.6787061,19.6699363]},"properties":{"t":"change"}},{"type":"Feature","geometry":{"type":"Point","coordinates":[-72.2691584,19.6803008]},"properties":{"t":"banque"}},{"type":"Feature","geometry":{"type":"Point","coordinates":[-72.1585855,19.6985197]},"properties":{"t":"banque"}},{"type":"Feature","geometry":{"type":"Point","coordinates":[-72.1586433,19.6982781]},"properties":{"t":"banque"}},{"type":"Feature","geometry":{"type":"Point","coordinates":[-72.158223,19.6937528]},"properties":{"t":"transfert"}},{"type":"Feature","geometry":{"type":"Point","coordinates":[-72.0235989,19.6176739]},"properties":{"t":"transfert"}},{"type":"Feature","geometry":{"type":"Point","coordinates":[-72.0236109,19.6174884]},"properties":{"t":"transfert"}},{"type":"Feature","geometry":{"type":"Point","coordinates":[-72.0241057,19.6167554]},"properties":{"t":"transfert"}},{"type":"Feature","geometry":{"type":"Point","coordinates":[-72.0239236,19.6167499]},"properties":{"t":"transfert"}},{"type":"Feature","geometry":{"type":"Point","coordinates":[-72.0250459,19.6153572]},"properties":{"t":"transfert"}},{"type":"Feature","geometry":{"type":"Point","coordinates":[-72.0250416,19.6164077]},"properties":{"t":"transfert"}},{"type":"Feature","geometry":{"type":"Point","coordinates":[-72.0253632,19.6166033]},"properties":{"t":"transfert"}},{"type":"Feature","geometry":{"type":"Point","coordinates":[-72.026386,19.6125901]},"properties":{"t":"poste"}},{"type":"Feature","geometry":{"type":"Point","coordinates":[-72.0182713,19.6918797]},"properties":{"t":"transfert"}},{"type":"Feature","geometry":{"type":"Point","coordinates":[-72.132959,19.66421]},"properties":{"t":"banque"}},{"type":"Feature","geometry":{"type":"Point","coordinates":[-72.133795,19.663263]},"properties":{"t":"banque"}},{"type":"Feature","geometry":{"type":"Point","coordinates":[-72.133735,19.663245]},"properties":{"t":"banque"}},{"type":"Feature","geometry":{"type":"Point","coordinates":[-72.133716,19.663343]},"properties":{"t":"banque"}},{"type":"Feature","geometry":{"type":"Point","coordinates":[-72.133516,19.663338]},"properties":{"t":"banque"}},{"type":"Feature","geometry":{"type":"Point","coordinates":[-72.13351,19.663374]},"properties":{"t":"banque"}},{"type":"Feature","geometry":{"type":"Point","coordinates":[-72.1250542,19.6720394]},"properties":{"t":"transfert"}},{"type":"Feature","geometry":{"type":"Point","coordinates":[-72.1250585,19.6720558]},"properties":{"t":"transfert"}},{"type":"Feature","geometry":{"type":"Point","coordinates":[-72.1246458,19.6710766]},"properties":{"t":"transfert"}},{"type":"Feature","geometry":{"type":"Point","coordinates":[-72.1247051,19.6711145]},"properties":{"t":"transfert"}},{"type":"Feature","geometry":{"type":"Point","coordinates":[-72.1246956,19.6710995]},"properties":{"t":"transfert"}},{"type":"Feature","geometry":{"type":"Point","coordinates":[-72.124549,19.671193]},"properties":{"t":"change"}},{"type":"Feature","geometry":{"type":"Point","coordinates":[-72.1245921,19.6710554]},"properties":{"t":"banque"}},{"type":"Feature","geometry":{"type":"Point","coordinates":[-72.1284769,19.6705979]},"properties":{"t":"banque"}},{"type":"Feature","geometry":{"type":"Point","coordinates":[-72.1269986,19.6700622]},"properties":{"t":"transfert"}},{"type":"Feature","geometry":{"type":"Point","coordinates":[-72.1979401,19.7629353]},"properties":{"t":"change"}},{"type":"Feature","geometry":{"type":"Point","coordinates":[-72.199171,19.7599176]},"properties":{"t":"banque"}},{"type":"Feature","geometry":{"type":"Point","coordinates":[-72.1987743,19.7598551]},"properties":{"t":"poste"}},{"type":"Feature","geometry":{"type":"Point","coordinates":[-72.1995906,19.7591313]},"properties":{"t":"banque"}},{"type":"Feature","geometry":{"type":"Point","coordinates":[-72.1996027,19.758745]},"properties":{"t":"banque"}},{"type":"Feature","geometry":{"type":"Point","coordinates":[-72.1999227,19.7582522]},"properties":{"t":"banque"}},{"type":"Feature","geometry":{"type":"Point","coordinates":[-72.200276,19.7579114]},"properties":{"t":"banque"}},{"type":"Feature","geometry":{"type":"Point","coordinates":[-72.200278,19.757904]},"properties":{"t":"banque"}},{"type":"Feature","geometry":{"type":"Point","coordinates":[-72.2007257,19.7576384]},"properties":{"t":"banque"}},{"type":"Feature","geometry":{"type":"Point","coordinates":[-72.2006381,19.757764]},"properties":{"t":"banque"}},{"type":"Feature","geometry":{"type":"Point","coordinates":[-72.2010186,19.7572311]},"properties":{"t":"banque"}},{"type":"Feature","geometry":{"type":"Point","coordinates":[-72.2006935,19.7573896]},"properties":{"t":"banque"}},{"type":"Feature","geometry":{"type":"Point","coordinates":[-72.2019397,19.7556234]},"properties":{"t":"banque"}},{"type":"Feature","geometry":{"type":"Point","coordinates":[-72.2018085,19.7470994]},"properties":{"t":"transfert"}},{"type":"Feature","geometry":{"type":"Point","coordinates":[-72.2017769,19.7470877]},"properties":{"t":"banque"}},{"type":"Feature","geometry":{"type":"Point","coordinates":[-72.1965843,19.7359941]},"properties":{"t":"banque"}},{"type":"Feature","geometry":{"type":"Point","coordinates":[-72.1869219,19.734829]},"properties":{"t":"banque"}},{"type":"Feature","geometry":{"type":"Point","coordinates":[-72.1905861,19.7387656]},"properties":{"t":"banque"}},{"type":"Feature","geometry":{"type":"Point","coordinates":[-72.1851389,19.7323727]},"properties":{"t":"banque"}},{"type":"Feature","geometry":{"type":"Point","coordinates":[-72.163753,19.724555]},"properties":{"t":"banque"}},{"type":"Feature","geometry":{"type":"Point","coordinates":[-72.169422,19.724731]},"properties":{"t":"banque"}},{"type":"Feature","geometry":{"type":"Point","coordinates":[-72.164853,19.717324]},"properties":{"t":"banque"}},{"type":"Feature","geometry":{"type":"Point","coordinates":[-72.164642,19.719085]},"properties":{"t":"banque"}},{"type":"Feature","geometry":{"type":"Point","coordinates":[-72.1819325,19.728947]},"properties":{"t":"transfert"}},{"type":"Feature","geometry":{"type":"Point","coordinates":[-72.1819189,19.7289309]},"properties":{"t":"transfert"}},{"type":"Feature","geometry":{"type":"Point","coordinates":[-72.1840915,19.731407]},"properties":{"t":"banque"}},{"type":"Feature","geometry":{"type":"Point","coordinates":[-72.2248641,19.7327287]},"properties":{"t":"transfert"}},{"type":"Feature","geometry":{"type":"Point","coordinates":[-72.2195533,19.7386828]},"properties":{"t":"transfert"}},{"type":"Feature","geometry":{"type":"Point","coordinates":[-72.2194805,19.7381593]},"properties":{"t":"transfert"}},{"type":"Feature","geometry":{"type":"Point","coordinates":[-72.2125835,19.7437726]},"properties":{"t":"transfert"}},{"type":"Feature","geometry":{"type":"Point","coordinates":[-72.2144822,19.7426693]},"properties":{"t":"banque"}},{"type":"Feature","geometry":{"type":"Point","coordinates":[-72.2022897,19.7556901]},"properties":{"t":"transfert"}},{"type":"Feature","geometry":{"type":"Point","coordinates":[-72.2049992,19.7562139]},"properties":{"t":"transfert"}},{"type":"Feature","geometry":{"type":"Point","coordinates":[-72.2051244,19.7557845]},"properties":{"t":"banque"}},{"type":"Feature","geometry":{"type":"Point","coordinates":[-72.2051904,19.7556615]},"properties":{"t":"poste"}},{"type":"Feature","geometry":{"type":"Point","coordinates":[-72.2041723,19.7574701]},"properties":{"t":"transfert"}},{"type":"Feature","geometry":{"type":"Point","coordinates":[-72.25016,19.7745603]},"properties":{"t":"banque"}},{"type":"Feature","geometry":{"type":"Point","coordinates":[-72.2499798,19.774488]},"properties":{"t":"banque"}},{"type":"Feature","geometry":{"type":"Point","coordinates":[-72.2499798,19.774488]},"properties":{"t":"banque"}},{"type":"Feature","geometry":{"type":"Point","coordinates":[-72.2498924,19.7745503]},"properties":{"t":"banque"}},{"type":"Feature","geometry":{"type":"Point","coordinates":[-72.2498924,19.7745503]},"properties":{"t":"banque"}},{"type":"Feature","geometry":{"type":"Point","coordinates":[-71.8375252,19.6652737]},"properties":{"t":"poste"}},{"type":"Feature","geometry":{"type":"Point","coordinates":[-71.837594,19.6655171]},"properties":{"t":"banque"}},{"type":"Feature","geometry":{"type":"Point","coordinates":[-71.8366442,19.6646253]},"properties":{"t":"banque"}},{"type":"Feature","geometry":{"type":"Point","coordinates":[-71.8363408,19.661369]},"properties":{"t":"banque"}},{"type":"Feature","geometry":{"type":"Point","coordinates":[-71.9519049,19.6613736]},"properties":{"t":"guichet"}},{"type":"Feature","geometry":{"type":"Point","coordinates":[-71.9537166,19.6368709]},"properties":{"t":"change"}},{"type":"Feature","geometry":{"type":"Point","coordinates":[-71.9537234,19.6369007]},"properties":{"t":"change"}},{"type":"Feature","geometry":{"type":"Point","coordinates":[-71.9537349,19.6368517]},"properties":{"t":"transfert"}},{"type":"Feature","geometry":{"type":"Point","coordinates":[-71.9503282,19.6359808]},"properties":{"t":"transfert"}},{"type":"Feature","geometry":{"type":"Point","coordinates":[-71.7239603,19.5506394]},"properties":{"t":"guichet"}},{"type":"Feature","geometry":{"type":"Point","coordinates":[-71.723607,19.5499708]},"properties":{"t":"banque"}},{"type":"Feature","geometry":{"type":"Point","coordinates":[-71.7239762,19.5502014]},"properties":{"t":"guichet"}},{"type":"Feature","geometry":{"type":"Point","coordinates":[-71.7239556,19.5502573]},"properties":{"t":"banque"}},{"type":"Feature","geometry":{"type":"Point","coordinates":[-71.725046,19.5503733]},"properties":{"t":"banque"}},{"type":"Feature","geometry":{"type":"Point","coordinates":[-71.7256325,19.5504241]},"properties":{"t":"transfert"}},{"type":"Feature","geometry":{"type":"Point","coordinates":[-71.7258415,19.5504892]},"properties":{"t":"banque"}},{"type":"Feature","geometry":{"type":"Point","coordinates":[-71.7256133,19.5502669]},"properties":{"t":"transfert"}},{"type":"Feature","geometry":{"type":"Point","coordinates":[-71.7253307,19.5502197]},"properties":{"t":"transfert"}},{"type":"Feature","geometry":{"type":"Point","coordinates":[-71.7253125,19.5502578]},"properties":{"t":"transfert"}},{"type":"Feature","geometry":{"type":"Point","coordinates":[-71.7253161,19.5502431]},"properties":{"t":"transfert"}},{"type":"Feature","geometry":{"type":"Point","coordinates":[-72.1146255,19.4694282]},"properties":{"t":"transfert"}},{"type":"Feature","geometry":{"type":"Point","coordinates":[-72.200536,19.439506]},"properties":{"t":"transfert"}},{"type":"Feature","geometry":{"type":"Point","coordinates":[-72.334885,19.373421]},"properties":{"t":"banque"}},{"type":"Feature","geometry":{"type":"Point","coordinates":[-72.335145,19.372678]},"properties":{"t":"banque"}},{"type":"Feature","geometry":{"type":"Point","coordinates":[-72.0726568,19.343227]},"properties":{"t":"transfert"}},{"type":"Feature","geometry":{"type":"Point","coordinates":[-72.0817787,19.412267]},"properties":{"t":"transfert"}},{"type":"Feature","geometry":{"type":"Point","coordinates":[-72.081962,19.4125284]},"properties":{"t":"transfert"}},{"type":"Feature","geometry":{"type":"Point","coordinates":[-72.0065104,19.1455452]},"properties":{"t":"banque"}},{"type":"Feature","geometry":{"type":"Point","coordinates":[-72.0082575,19.1457504]},"properties":{"t":"banque"}},{"type":"Feature","geometry":{"type":"Point","coordinates":[-71.900602,19.251005]},"properties":{"t":"banque"}},{"type":"Feature","geometry":{"type":"Point","coordinates":[-71.8850117,18.6653005]},"properties":{"t":"change"}},{"type":"Feature","geometry":{"type":"Point","coordinates":[-72.2135475,18.6533575]},"properties":{"t":"poste"}},{"type":"Feature","geometry":{"type":"Point","coordinates":[-72.245526,18.557214]},"properties":{"t":"banque"}},{"type":"Feature","geometry":{"type":"Point","coordinates":[-72.2462451,18.5585914]},"properties":{"t":"banque"}},{"type":"Feature","geometry":{"type":"Point","coordinates":[-72.2269165,18.5794774]},"properties":{"t":"banque"}},{"type":"Feature","geometry":{"type":"Point","coordinates":[-72.2254388,18.578476]},"properties":{"t":"change"}},{"type":"Feature","geometry":{"type":"Point","coordinates":[-72.2264389,18.5774913]},"properties":{"t":"banque"}},{"type":"Feature","geometry":{"type":"Point","coordinates":[-72.2266618,18.5774611]},"properties":{"t":"change"}},{"type":"Feature","geometry":{"type":"Point","coordinates":[-72.229436,18.5771664]},"properties":{"t":"poste"}},{"type":"Feature","geometry":{"type":"Point","coordinates":[-72.228545,18.5769959]},"properties":{"t":"banque"}},{"type":"Feature","geometry":{"type":"Point","coordinates":[-72.2284874,18.5771526]},"properties":{"t":"banque"}},{"type":"Feature","geometry":{"type":"Point","coordinates":[-72.2848208,18.5998619]},"properties":{"t":"banque"}},{"type":"Feature","geometry":{"type":"Point","coordinates":[-72.290334,18.591944]},"properties":{"t":"banque"}},{"type":"Feature","geometry":{"type":"Point","coordinates":[-72.2738599,18.5847298]},"properties":{"t":"banque"}},{"type":"Feature","geometry":{"type":"Point","coordinates":[-72.2900695,18.5759804]},"properties":{"t":"poste"}},{"type":"Feature","geometry":{"type":"Point","coordinates":[-72.2808135,18.5730898]},"properties":{"t":"change"}},{"type":"Feature","geometry":{"type":"Point","coordinates":[-72.2784979,18.577243]},"properties":{"t":"guichet"}},{"type":"Feature","geometry":{"type":"Point","coordinates":[-72.2752792,18.5780395]},"properties":{"t":"guichet"}},{"type":"Feature","geometry":{"type":"Point","coordinates":[-72.2701116,18.5756603]},"properties":{"t":"transfert"}},{"type":"Feature","geometry":{"type":"Point","coordinates":[-72.2616427,18.5747832]},"properties":{"t":"banque"}},{"type":"Feature","geometry":{"type":"Point","coordinates":[-72.262059,18.576847]},"properties":{"t":"banque"}},{"type":"Feature","geometry":{"type":"Point","coordinates":[-72.2644629,18.5782411]},"properties":{"t":"banque"}},{"type":"Feature","geometry":{"type":"Point","coordinates":[-72.2493101,18.5639933]},"properties":{"t":"guichet"}},{"type":"Feature","geometry":{"type":"Point","coordinates":[-72.2506471,18.5638678]},"properties":{"t":"banque"}},{"type":"Feature","geometry":{"type":"Point","coordinates":[-72.2506376,18.5638624]},"properties":{"t":"banque"}},{"type":"Feature","geometry":{"type":"Point","coordinates":[-72.251098,18.5645963]},"properties":{"t":"banque"}},{"type":"Feature","geometry":{"type":"Point","coordinates":[-72.262483,18.555873]},"properties":{"t":"poste"}},{"type":"Feature","geometry":{"type":"Point","coordinates":[-72.2624909,18.55587]},"properties":{"t":"poste"}},{"type":"Feature","geometry":{"type":"Point","coordinates":[-72.3103973,18.5694067]},"properties":{"t":"banque"}},{"type":"Feature","geometry":{"type":"Point","coordinates":[-72.311938,18.5685476]},"properties":{"t":"banque"}},{"type":"Feature","geometry":{"type":"Point","coordinates":[-72.3117706,18.5678746]},"properties":{"t":"banque"}},{"type":"Feature","geometry":{"type":"Point","coordinates":[-72.3124489,18.565885]},"properties":{"t":"poste"}},{"type":"Feature","geometry":{"type":"Point","coordinates":[-72.3124913,18.5658645]},"properties":{"t":"banque"}},{"type":"Feature","geometry":{"type":"Point","coordinates":[-72.3135057,18.565274]},"properties":{"t":"banque"}},{"type":"Feature","geometry":{"type":"Point","coordinates":[-72.3125911,18.5644374]},"properties":{"t":"banque"}},{"type":"Feature","geometry":{"type":"Point","coordinates":[-72.3135408,18.5648595]},"properties":{"t":"banque"}},{"type":"Feature","geometry":{"type":"Point","coordinates":[-72.2977973,18.5407195]},"properties":{"t":"banque"}},{"type":"Feature","geometry":{"type":"Point","coordinates":[-72.3020514,18.5391098]},"properties":{"t":"banque"}},{"type":"Feature","geometry":{"type":"Point","coordinates":[-72.3073322,18.544972]},"properties":{"t":"change"}},{"type":"Feature","geometry":{"type":"Point","coordinates":[-72.3117864,18.5505998]},"properties":{"t":"guichet"}},{"type":"Feature","geometry":{"type":"Point","coordinates":[-72.3117864,18.5505184]},"properties":{"t":"guichet"}},{"type":"Feature","geometry":{"type":"Point","coordinates":[-72.3100591,18.5503201]},"properties":{"t":"banque"}},{"type":"Feature","geometry":{"type":"Point","coordinates":[-72.310113,18.550433]},"properties":{"t":"banque"}},{"type":"Feature","geometry":{"type":"Point","coordinates":[-72.3067609,18.5484896]},"properties":{"t":"banque"}},{"type":"Feature","geometry":{"type":"Point","coordinates":[-72.3054671,18.5472318]},"properties":{"t":"guichet"}},{"type":"Feature","geometry":{"type":"Point","coordinates":[-72.3054658,18.5472585]},"properties":{"t":"guichet"}},{"type":"Feature","geometry":{"type":"Point","coordinates":[-72.3054582,18.5474379]},"properties":{"t":"banque"}},{"type":"Feature","geometry":{"type":"Point","coordinates":[-72.3041091,18.5470346]},"properties":{"t":"poste"}},{"type":"Feature","geometry":{"type":"Point","coordinates":[-72.3031059,18.5478895]},"properties":{"t":"guichet"}},{"type":"Feature","geometry":{"type":"Point","coordinates":[-72.3050098,18.5477982]},"properties":{"t":"banque"}},{"type":"Feature","geometry":{"type":"Point","coordinates":[-72.3086606,18.5534859]},"properties":{"t":"poste"}},{"type":"Feature","geometry":{"type":"Point","coordinates":[-72.3107453,18.5513484]},"properties":{"t":"poste"}},{"type":"Feature","geometry":{"type":"Point","coordinates":[-72.3158321,18.5537449]},"properties":{"t":"change"}},{"type":"Feature","geometry":{"type":"Point","coordinates":[-72.3172552,18.5465826]},"properties":{"t":"banque"}},{"type":"Feature","geometry":{"type":"Point","coordinates":[-72.3217724,18.5389001]},"properties":{"t":"banque"}}]}