{"titre":"Stations-service (OSM)","source_id":"SRC-028","source":"OpenStreetMap via HOT — © contributeurs OSM","licence":"ODbL","millesime":"extrait le 06/08/2026","limite":"Cartographie contributive : complète nulle part, inégale partout.","type":"FeatureCollection","features":[{"type":"Feature","geometry":{"type":"Point","coordinates":[-71.842454,18.2433983]},"properties":{}},{"type":"Feature","geometry":{"type":"Point","coordinates":[-72.6920541,19.0999883]},"properties":{}},{"type":"Feature","geometry":{"type":"Point","coordinates":[-72.6460509,19.1520956]},"properties":{}},{"type":"Feature","geometry":{"type":"Point","coordinates":[-72.6188539,19.149955]},"properties":{}},{"type":"Feature","geometry":{"type":"Point","coordinates":[-72.5996274,19.1676936]},"properties":{}},{"type":"Feature","geometry":{"type":"Point","coordinates":[-72.4854638,19.1305974]},"properties":{}},{"type":"Feature","geometry":{"type":"Point","coordinates":[-73.3926575,18.2833672]},"properties":{}},{"type":"Feature","geometry":{"type":"Point","coordinates":[-73.340057,18.298953]},"properties":{}},{"type":"Feature","geometry":{"type":"Point","coordinates":[-73.3266534,18.3062102]},"properties":{}},{"type":"Feature","geometry":{"type":"Point","coordinates":[-73.2594023,18.3531377]},"properties":{}},{"type":"Feature","geometry":{"type":"Point","coordinates":[-73.2396618,18.3585707]},"properties":{}},{"type":"Feature","geometry":{"type":"Point","coordinates":[-73.2224768,18.3630943]},"properties":{}},{"type":"Feature","geometry":{"type":"Point","coordinates":[-73.070523,18.433001]},"properties":{}},{"type":"Feature","geometry":{"type":"Point","coordinates":[-73.0800777,18.42868]},"properties":{}},{"type":"Feature","geometry":{"type":"Point","coordinates":[-73.0794214,18.4329857]},"properties":{}},{"type":"Feature","geometry":{"type":"Point","coordinates":[-73.2522868,18.4778612]},"properties":{}},{"type":"Feature","geometry":{"type":"Point","coordinates":[-73.7901717,18.1846557]},"properties":{}},{"type":"Feature","geometry":{"type":"Point","coordinates":[-73.7859426,18.1864974]},"properties":{}},{"type":"Feature","geometry":{"type":"Point","coordinates":[-73.8219023,18.1600532]},"properties":{}},{"type":"Feature","geometry":{"type":"Point","coordinates":[-74.0410562,18.2076508]},"properties":{}},{"type":"Feature","geometry":{"type":"Point","coordinates":[-73.7496879,18.1979267]},"properties":{}},{"type":"Feature","geometry":{"type":"Point","coordinates":[-73.7495799,18.1920966]},"properties":{}},{"type":"Feature","geometry":{"type":"Point","coordinates":[-73.7580569,18.1966429]},"properties":{}},{"type":"Feature","geometry":{"type":"Point","coordinates":[-73.7639529,18.2039211]},"properties":{}},{"type":"Feature","geometry":{"type":"Point","coordinates":[-73.7628236,18.2041542]},"properties":{}},{"type":"Feature","geometry":{"type":"Point","coordinates":[-73.7617223,18.2047422]},"properties":{}},{"type":"Feature","geometry":{"type":"Point","coordinates":[-73.7582895,18.2070213]},"properties":{}},{"type":"Feature","geometry":{"type":"Point","coordinates":[-73.7549831,18.2034863]},"properties":{}},{"type":"Feature","geometry":{"type":"Point","coordinates":[-73.7551394,18.2108344]},"properties":{}},{"type":"Feature","geometry":{"type":"Point","coordinates":[-73.7532975,18.2246267]},"properties":{}},{"type":"Feature","geometry":{"type":"Point","coordinates":[-73.7471383,18.2171175]},"properties":{}},{"type":"Feature","geometry":{"type":"Point","coordinates":[-72.5903951,18.3861444]},"properties":{}},{"type":"Feature","geometry":{"type":"Point","coordinates":[-72.6353161,18.4518514]},"properties":{}},{"type":"Feature","geometry":{"type":"Point","coordinates":[-72.633856,18.4548344]},"properties":{}},{"type":"Feature","geometry":{"type":"Point","coordinates":[-72.5362927,18.5362499]},"properties":{}},{"type":"Feature","geometry":{"type":"Point","coordinates":[-72.55134,18.531629]},"properties":{}},{"type":"Feature","geometry":{"type":"Point","coordinates":[-72.5516828,18.5313389]},"properties":{}},{"type":"Feature","geometry":{"type":"Point","coordinates":[-72.6038867,18.5166602]},"properties":{}},{"type":"Feature","geometry":{"type":"Point","coordinates":[-72.6133304,18.5112193]},"properties":{}},{"type":"Feature","geometry":{"type":"Point","coordinates":[-72.62413,18.5062461]},"properties":{}},{"type":"Feature","geometry":{"type":"Point","coordinates":[-72.6259256,18.5058834]},"properties":{}},{"type":"Feature","geometry":{"type":"Point","coordinates":[-72.6279591,18.5060948]},"properties":{}},{"type":"Feature","geometry":{"type":"Point","coordinates":[-72.628,18.506108]},"properties":{}},{"type":"Feature","geometry":{"type":"Point","coordinates":[-72.762185,18.422101]},"properties":{}},{"type":"Feature","geometry":{"type":"Point","coordinates":[-72.7716203,18.4202304]},"properties":{}},{"type":"Feature","geometry":{"type":"Point","coordinates":[-72.8613678,18.4285329]},"properties":{}},{"type":"Feature","geometry":{"type":"Point","coordinates":[-72.8600908,18.4287307]},"properties":{}},{"type":"Feature","geometry":{"type":"Point","coordinates":[-72.9253953,18.4201425]},"properties":{}},{"type":"Feature","geometry":{"type":"Point","coordinates":[-72.2105276,18.8124961]},"properties":{}},{"type":"Feature","geometry":{"type":"Point","coordinates":[-72.108433,18.835419]},"properties":{}},{"type":"Feature","geometry":{"type":"Point","coordinates":[-72.1056348,18.8332568]},"properties":{}},{"type":"Feature","geometry":{"type":"Point","coordinates":[-72.1048457,18.8333384]},"properties":{}},{"type":"Feature","geometry":{"type":"Point","coordinates":[-72.0942861,18.8354863]},"properties":{}},{"type":"Feature","geometry":{"type":"Point","coordinates":[-72.094793,18.835201]},"properties":{}},{"type":"Feature","geometry":{"type":"Point","coordinates":[-72.064991,18.8164348]},"properties":{}},{"type":"Feature","geometry":{"type":"Point","coordinates":[-72.3926295,18.9957451]},"properties":{}},{"type":"Feature","geometry":{"type":"Point","coordinates":[-72.4652505,19.0524889]},"properties":{}},{"type":"Feature","geometry":{"type":"Point","coordinates":[-72.5136642,18.7995089]},"properties":{}},{"type":"Feature","geometry":{"type":"Point","coordinates":[-72.5195039,18.8043241]},"properties":{}},{"type":"Feature","geometry":{"type":"Point","coordinates":[-72.54949,18.824849]},"properties":{}},{"type":"Feature","geometry":{"type":"Point","coordinates":[-72.5738863,18.8427026]},"properties":{}},{"type":"Feature","geometry":{"type":"Point","coordinates":[-72.5715925,18.8406333]},"properties":{}},{"type":"Feature","geometry":{"type":"Point","coordinates":[-72.571861,18.8393808]},"properties":{}},{"type":"Feature","geometry":{"type":"Point","coordinates":[-72.5844705,18.8488062]},"properties":{}},{"type":"Feature","geometry":{"type":"Point","coordinates":[-72.7352153,19.0499482]},"properties":{}},{"type":"Feature","geometry":{"type":"Point","coordinates":[-72.7037774,18.9495106]},"properties":{}},{"type":"Feature","geometry":{"type":"Point","coordinates":[-72.7164342,18.9579849]},"properties":{}},{"type":"Feature","geometry":{"type":"Point","coordinates":[-72.5231983,18.5420852]},"properties":{}},{"type":"Feature","geometry":{"type":"Point","coordinates":[-72.4169677,18.7364737]},"properties":{}},{"type":"Feature","geometry":{"type":"Point","coordinates":[-72.4169312,18.7367121]},"properties":{}},{"type":"Feature","geometry":{"type":"Point","coordinates":[-72.4046605,18.7352339]},"properties":{}},{"type":"Feature","geometry":{"type":"Point","coordinates":[-72.4044997,18.7357695]},"properties":{}},{"type":"Feature","geometry":{"type":"Point","coordinates":[-72.3646161,18.7158864]},"properties":{}},{"type":"Feature","geometry":{"type":"Point","coordinates":[-72.365299,18.717417]},"properties":{}},{"type":"Feature","geometry":{"type":"Point","coordinates":[-73.6526763,18.297015]},"properties":{}},{"type":"Feature","geometry":{"type":"Point","coordinates":[-73.6527461,18.2962906]},"properties":{}},{"type":"Feature","geometry":{"type":"Point","coordinates":[-74.113,18.633966]},"properties":{}},{"type":"Feature","geometry":{"type":"Point","coordinates":[-74.1124973,18.6327713]},"properties":{}},{"type":"Feature","geometry":{"type":"Point","coordinates":[-74.1084477,18.6351873]},"properties":{}},{"type":"Feature","geometry":{"type":"Point","coordinates":[-74.1147523,18.6460093]},"properties":{}},{"type":"Feature","geometry":{"type":"Point","coordinates":[-71.7358266,19.5472057]},"properties":{}},{"type":"Feature","geometry":{"type":"Point","coordinates":[-71.7388951,19.545827]},"properties":{}},{"type":"Feature","geometry":{"type":"Point","coordinates":[-72.319996,19.371058]},"properties":{}},{"type":"Feature","geometry":{"type":"Point","coordinates":[-72.336037,19.377042]},"properties":{}},{"type":"Feature","geometry":{"type":"Point","coordinates":[-72.335394,19.375707]},"properties":{}},{"type":"Feature","geometry":{"type":"Point","coordinates":[-72.3175074,19.3551046]},"properties":{}},{"type":"Feature","geometry":{"type":"Point","coordinates":[-72.1172491,19.337592]},"properties":{}},{"type":"Feature","geometry":{"type":"Point","coordinates":[-72.0296014,19.25884]},"properties":{}},{"type":"Feature","geometry":{"type":"Point","coordinates":[-72.0085344,19.1466514]},"properties":{}},{"type":"Feature","geometry":{"type":"Point","coordinates":[-72.0088077,19.148014]},"properties":{}},{"type":"Feature","geometry":{"type":"Point","coordinates":[-72.0078777,19.1504435]},"properties":{}},{"type":"Feature","geometry":{"type":"Point","coordinates":[-72.0028621,19.1320022]},"properties":{}},{"type":"Feature","geometry":{"type":"Point","coordinates":[-72.0020127,19.1258185]},"properties":{}},{"type":"Feature","geometry":{"type":"Point","coordinates":[-71.9373404,18.8280187]},"properties":{}},{"type":"Feature","geometry":{"type":"Point","coordinates":[-71.9419983,18.8253434]},"properties":{}},{"type":"Feature","geometry":{"type":"Point","coordinates":[-71.946045,18.8223085]},"properties":{}},{"type":"Feature","geometry":{"type":"Point","coordinates":[-71.7802837,18.856098]},"properties":{}},{"type":"Feature","geometry":{"type":"Point","coordinates":[-72.1456606,18.5626335]},"properties":{}},{"type":"Feature","geometry":{"type":"Point","coordinates":[-72.1819241,18.5661558]},"properties":{}},{"type":"Feature","geometry":{"type":"Point","coordinates":[-72.2000349,18.5684369]},"properties":{}},{"type":"Feature","geometry":{"type":"Point","coordinates":[-72.204457,18.5690137]},"properties":{}},{"type":"Feature","geometry":{"type":"Point","coordinates":[-72.2047385,18.5690056]},"properties":{}},{"type":"Feature","geometry":{"type":"Point","coordinates":[-72.2166527,18.5709062]},"properties":{}},{"type":"Feature","geometry":{"type":"Point","coordinates":[-72.2430712,18.5508994]},"properties":{}},{"type":"Feature","geometry":{"type":"Point","coordinates":[-72.2418017,18.582114]},"properties":{}},{"type":"Feature","geometry":{"type":"Point","coordinates":[-72.244605,18.582502]},"properties":{}},{"type":"Feature","geometry":{"type":"Point","coordinates":[-72.2457044,18.5821675]},"properties":{}},{"type":"Feature","geometry":{"type":"Point","coordinates":[-72.245741,18.5821301]},"properties":{}},{"type":"Feature","geometry":{"type":"Point","coordinates":[-72.239674,18.5830473]},"properties":{}},{"type":"Feature","geometry":{"type":"Point","coordinates":[-72.2273365,18.5813331]},"properties":{}},{"type":"Feature","geometry":{"type":"Point","coordinates":[-72.2300264,18.5764227]},"properties":{}},{"type":"Feature","geometry":{"type":"Point","coordinates":[-72.2316991,18.5778751]},"properties":{}},{"type":"Feature","geometry":{"type":"Point","coordinates":[-72.2302635,18.5764359]},"properties":{}},{"type":"Feature","geometry":{"type":"Point","coordinates":[-72.2273226,18.5735103]},"properties":{}},{"type":"Feature","geometry":{"type":"Point","coordinates":[-72.2465149,18.5883171]},"properties":{}},{"type":"Feature","geometry":{"type":"Point","coordinates":[-72.2531875,18.5935878]},"properties":{}},{"type":"Feature","geometry":{"type":"Point","coordinates":[-72.2824659,18.6024349]},"properties":{}},{"type":"Feature","geometry":{"type":"Point","coordinates":[-72.291446,18.5911931]},"properties":{}},{"type":"Feature","geometry":{"type":"Point","coordinates":[-72.2737556,18.585075]},"properties":{}},{"type":"Feature","geometry":{"type":"Point","coordinates":[-72.2870441,18.5758004]},"properties":{}},{"type":"Feature","geometry":{"type":"Point","coordinates":[-72.2907156,18.5712307]},"properties":{}},{"type":"Feature","geometry":{"type":"Point","coordinates":[-72.288019,18.5709529]},"properties":{}},{"type":"Feature","geometry":{"type":"Point","coordinates":[-72.273574,18.576526]},"properties":{}},{"type":"Feature","geometry":{"type":"Point","coordinates":[-72.2700948,18.5755883]},"properties":{}},{"type":"Feature","geometry":{"type":"Point","coordinates":[-72.262943,18.576567]},"properties":{}},{"type":"Feature","geometry":{"type":"Point","coordinates":[-72.2629275,18.5765538]},"properties":{}},{"type":"Feature","geometry":{"type":"Point","coordinates":[-72.257887,18.577794]},"properties":{}},{"type":"Feature","geometry":{"type":"Point","coordinates":[-72.2547315,18.565663]},"properties":{}},{"type":"Feature","geometry":{"type":"Point","coordinates":[-72.2636917,18.5564178]},"properties":{}},{"type":"Feature","geometry":{"type":"Point","coordinates":[-72.272581,18.542289]},"properties":{}},{"type":"Feature","geometry":{"type":"Point","coordinates":[-72.2787284,18.5412005]},"properties":{}},{"type":"Feature","geometry":{"type":"Point","coordinates":[-72.2884838,18.5394421]},"properties":{}},{"type":"Feature","geometry":{"type":"Point","coordinates":[-72.2914991,18.5622104]},"properties":{}},{"type":"Feature","geometry":{"type":"Point","coordinates":[-72.2901919,18.5635799]},"properties":{}},{"type":"Feature","geometry":{"type":"Point","coordinates":[-72.2880095,18.5705629]},"properties":{}},{"type":"Feature","geometry":{"type":"Point","coordinates":[-72.3109351,18.5674589]},"properties":{}},{"type":"Feature","geometry":{"type":"Point","coordinates":[-72.31288,18.5659239]},"properties":{}},{"type":"Feature","geometry":{"type":"Point","coordinates":[-72.31294,18.565314]},"properties":{}},{"type":"Feature","geometry":{"type":"Point","coordinates":[-72.3124563,18.565189]},"properties":{}},{"type":"Feature","geometry":{"type":"Point","coordinates":[-72.3089247,18.5597562]},"properties":{}},{"type":"Feature","geometry":{"type":"Point","coordinates":[-72.3040866,18.5554468]},"properties":{}},{"type":"Feature","geometry":{"type":"Point","coordinates":[-72.3025724,18.5527986]},"properties":{}},{"type":"Feature","geometry":{"type":"Point","coordinates":[-72.2967315,18.5487658]},"properties":{}},{"type":"Feature","geometry":{"type":"Point","coordinates":[-72.2996286,18.5426262]},"properties":{}},{"type":"Feature","geometry":{"type":"Point","coordinates":[-72.3031717,18.5462718]},"properties":{}},{"type":"Feature","geometry":{"type":"Point","coordinates":[-72.3122618,18.5497719]},"properties":{}},{"type":"Feature","geometry":{"type":"Point","coordinates":[-72.3088703,18.5497577]},"properties":{}},{"type":"Feature","geometry":{"type":"Point","coordinates":[-72.305504,18.5480703]},"properties":{}},{"type":"Feature","geometry":{"type":"Point","coordinates":[-72.30435,18.546783]},"properties":{}},{"type":"Feature","geometry":{"type":"Point","coordinates":[-72.310889,18.5509061]},"properties":{}},{"type":"Feature","geometry":{"type":"Point","coordinates":[-72.3165232,18.5518309]},"properties":{}},{"type":"Feature","geometry":{"type":"Point","coordinates":[-72.3171671,18.5461568]},"properties":{}},{"type":"Feature","geometry":{"type":"Point","coordinates":[-72.3229525,18.5392246]},"properties":{}},{"type":"Feature","geometry":{"type":"Point","coordinates":[-72.3258906,18.5402086]},"properties":{}},{"type":"Feature","geometry":{"type":"Point","coordinates":[-72.3323227,18.5396415]},"properties":{}},{"type":"Feature","geometry":{"type":"Point","coordinates":[-72.3324864,18.5399859]},"properties":{}},{"type":"Feature","geometry":{"type":"Point","coordinates":[-72.3317957,18.5430639]},"properties":{}},{"type":"Feature","geometry":{"type":"Point","coordinates":[-72.3140516,18.5552417]},"properties":{}},{"type":"Feature","geometry":{"type":"Point","coordinates":[-72.3145385,18.5552713]},"properties":{}},{"type":"Feature","geometry":{"type":"Point","coordinates":[-72.318816,18.5585968]},"properties":{}},{"type":"Feature","geometry":{"type":"Point","coordinates":[-72.3184408,18.5603806]},"properties":{}},{"type":"Feature","geometry":{"type":"Point","coordinates":[-72.33404,18.565765]},"properties":{}},{"type":"Feature","geometry":{"type":"Point","coordinates":[-72.3147282,18.57855]},"properties":{}},{"type":"Feature","geometry":{"type":"Point","coordinates":[-72.2974923,18.574975]},"properties":{}},{"type":"Feature","geometry":{"type":"Point","coordinates":[-72.3096616,18.5812658]},"properties":{}},{"type":"Feature","geometry":{"type":"Point","coordinates":[-72.2939897,18.5883358]},"properties":{}},{"type":"Feature","geometry":{"type":"Point","coordinates":[-72.3221395,18.600567]},"properties":{}},{"type":"Feature","geometry":{"type":"Point","coordinates":[-72.3234711,18.596689]},"properties":{}},{"type":"Feature","geometry":{"type":"Point","coordinates":[-72.310794,18.6223134]},"properties":{}},{"type":"Feature","geometry":{"type":"Point","coordinates":[-72.2671032,18.6323438]},"properties":{}},{"type":"Feature","geometry":{"type":"Point","coordinates":[-72.2667592,18.6351412]},"properties":{}},{"type":"Feature","geometry":{"type":"Point","coordinates":[-72.2720906,18.6233391]},"properties":{}},{"type":"Feature","geometry":{"type":"Point","coordinates":[-72.2711304,18.6409217]},"properties":{}},{"type":"Feature","geometry":{"type":"Point","coordinates":[-72.2594994,18.6663788]},"properties":{}},{"type":"Feature","geometry":{"type":"Point","coordinates":[-72.6099643,19.2982487]},"properties":{}},{"type":"Feature","geometry":{"type":"Point","coordinates":[-72.605749,19.3116053]},"properties":{}},{"type":"Feature","geometry":{"type":"Point","coordinates":[-72.660638,19.439432]},"properties":{}},{"type":"Feature","geometry":{"type":"Point","coordinates":[-72.4885975,19.4906222]},"properties":{}},{"type":"Feature","geometry":{"type":"Point","coordinates":[-72.64366,19.494619]},"properties":{}},{"type":"Feature","geometry":{"type":"Point","coordinates":[-72.6848807,19.4450767]},"properties":{}},{"type":"Feature","geometry":{"type":"Point","coordinates":[-72.6890191,19.4457972]},"properties":{}},{"type":"Feature","geometry":{"type":"Point","coordinates":[-72.6847661,19.4507875]},"properties":{}},{"type":"Feature","geometry":{"type":"Point","coordinates":[-72.6835301,19.4518984]},"properties":{}},{"type":"Feature","geometry":{"type":"Point","coordinates":[-72.6917621,19.4612758]},"properties":{}},{"type":"Feature","geometry":{"type":"Point","coordinates":[-72.6559002,19.4853854]},"properties":{}},{"type":"Feature","geometry":{"type":"Point","coordinates":[-72.6547695,19.4853032]},"properties":{}},{"type":"Feature","geometry":{"type":"Point","coordinates":[-72.6986206,19.4630274]},"properties":{}},{"type":"Feature","geometry":{"type":"Point","coordinates":[-72.8006046,19.7812199]},"properties":{}},{"type":"Feature","geometry":{"type":"Point","coordinates":[-72.8186279,19.9474352]},"properties":{}},{"type":"Feature","geometry":{"type":"Point","coordinates":[-72.8450039,19.9343433]},"properties":{}},{"type":"Feature","geometry":{"type":"Point","coordinates":[-72.8400453,19.9370566]},"properties":{}},{"type":"Feature","geometry":{"type":"Point","coordinates":[-72.8378945,19.9379914]},"properties":{}},{"type":"Feature","geometry":{"type":"Point","coordinates":[-72.8322003,19.9394972]},"properties":{}},{"type":"Feature","geometry":{"type":"Point","coordinates":[-73.9231622,18.4673786]},"properties":{}},{"type":"Feature","geometry":{"type":"Point","coordinates":[-73.868706,18.334678]},"properties":{}},{"type":"Feature","geometry":{"type":"Point","coordinates":[-73.7841964,18.2674072]},"properties":{}},{"type":"Feature","geometry":{"type":"Point","coordinates":[-73.7819232,18.2678687]},"properties":{}},{"type":"Feature","geometry":{"type":"Point","coordinates":[-72.4583074,18.5451275]},"properties":{}},{"type":"Feature","geometry":{"type":"Point","coordinates":[-72.4368796,18.5419138]},"properties":{}},{"type":"Feature","geometry":{"type":"Point","coordinates":[-72.434101,18.541172]},"properties":{}},{"type":"Feature","geometry":{"type":"Point","coordinates":[-72.428459,18.540467]},"properties":{}},{"type":"Feature","geometry":{"type":"Point","coordinates":[-72.427528,18.540202]},"properties":{}},{"type":"Feature","geometry":{"type":"Point","coordinates":[-72.422044,18.5473577]},"properties":{}},{"type":"Feature","geometry":{"type":"Point","coordinates":[-72.4161592,18.5502031]},"properties":{}},{"type":"Feature","geometry":{"type":"Point","coordinates":[-72.411664,18.551238]},"properties":{}},{"type":"Feature","geometry":{"type":"Point","coordinates":[-72.3972952,18.5452852]},"properties":{}},{"type":"Feature","geometry":{"type":"Point","coordinates":[-72.3959997,18.5450105]},"properties":{}},{"type":"Feature","geometry":{"type":"Point","coordinates":[-72.402195,18.548706]},"properties":{}},{"type":"Feature","geometry":{"type":"Point","coordinates":[-72.3382569,18.5609589]},"properties":{}},{"type":"Feature","geometry":{"type":"Point","coordinates":[-72.340756,18.562748]},"properties":{}},{"type":"Feature","geometry":{"type":"Point","coordinates":[-72.3371055,18.5598334]},"properties":{}},{"type":"Feature","geometry":{"type":"Point","coordinates":[-72.3410372,18.5565288]},"properties":{}},{"type":"Feature","geometry":{"type":"Point","coordinates":[-72.347626,18.5459885]},"properties":{}},{"type":"Feature","geometry":{"type":"Point","coordinates":[-72.3449,18.548023]},"properties":{}},{"type":"Feature","geometry":{"type":"Point","coordinates":[-72.3374629,18.545145]},"properties":{}},{"type":"Feature","geometry":{"type":"Point","coordinates":[-72.345338,18.546087]},"properties":{}},{"type":"Feature","geometry":{"type":"Point","coordinates":[-72.3453649,18.5461122]},"properties":{}},{"type":"Feature","geometry":{"type":"Point","coordinates":[-72.343489,18.536918]},"properties":{}},{"type":"Feature","geometry":{"type":"Point","coordinates":[-72.3403597,18.5318502]},"properties":{}},{"type":"Feature","geometry":{"type":"Point","coordinates":[-72.3400395,18.5329325]},"properties":{}},{"type":"Feature","geometry":{"type":"Point","coordinates":[-72.3406047,18.5266993]},"properties":{}},{"type":"Feature","geometry":{"type":"Point","coordinates":[-72.3600474,18.5316278]},"properties":{}},{"type":"Feature","geometry":{"type":"Point","coordinates":[-72.3649313,18.5327877]},"properties":{}},{"type":"Feature","geometry":{"type":"Point","coordinates":[-72.3792467,18.5317906]},"properties":{}},{"type":"Feature","geometry":{"type":"Point","coordinates":[-72.3798998,18.531947]},"properties":{}},{"type":"Feature","geometry":{"type":"Point","coordinates":[-72.3758289,18.5317916]},"properties":{}},{"type":"Feature","geometry":{"type":"Point","coordinates":[-72.386452,18.533462]},"properties":{}},{"type":"Feature","geometry":{"type":"Point","coordinates":[-72.3862462,18.5330368]},"properties":{}},{"type":"Feature","geometry":{"type":"Point","coordinates":[-72.5654044,18.27307]},"properties":{}},{"type":"Feature","geometry":{"type":"Point","coordinates":[-72.5456455,18.250926]},"properties":{}},{"type":"Feature","geometry":{"type":"Point","coordinates":[-72.5203369,18.2357968]},"properties":{}},{"type":"Feature","geometry":{"type":"Point","coordinates":[-72.5206219,18.2354101]},"properties":{}},{"type":"Feature","geometry":{"type":"Point","coordinates":[-72.5404617,18.2394699]},"properties":{}},{"type":"Feature","geometry":{"type":"Point","coordinates":[-72.5406493,18.2388613]},"properties":{}},{"type":"Feature","geometry":{"type":"Point","coordinates":[-72.5373485,18.2374056]},"properties":{}},{"type":"Feature","geometry":{"type":"Point","coordinates":[-72.5378656,18.2366269]},"properties":{}},{"type":"Feature","geometry":{"type":"Point","coordinates":[-72.505225,18.234376]},"properties":{}},{"type":"Feature","geometry":{"type":"Point","coordinates":[-72.4226081,18.2278459]},"properties":{}},{"type":"Feature","geometry":{"type":"Point","coordinates":[-72.3940161,18.2304195]},"properties":{}},{"type":"Feature","geometry":{"type":"Point","coordinates":[-72.399214,18.2299008]},"properties":{}},{"type":"Feature","geometry":{"type":"Point","coordinates":[-72.3246646,18.2316083]},"properties":{}},{"type":"Feature","geometry":{"type":"Point","coordinates":[-72.3247874,18.2315783]},"properties":{}},{"type":"Feature","geometry":{"type":"Point","coordinates":[-72.2950811,18.4701484]},"properties":{}},{"type":"Feature","geometry":{"type":"Point","coordinates":[-72.3169089,18.498955]},"properties":{}},{"type":"Feature","geometry":{"type":"Point","coordinates":[-72.3183045,18.4993806]},"properties":{}},{"type":"Feature","geometry":{"type":"Point","coordinates":[-72.3337719,18.5337403]},"properties":{}},{"type":"Feature","geometry":{"type":"Point","coordinates":[-72.3361417,18.5369888]},"properties":{}},{"type":"Feature","geometry":{"type":"Point","coordinates":[-72.3285421,18.5332201]},"properties":{}},{"type":"Feature","geometry":{"type":"Point","coordinates":[-72.3248802,18.5331076]},"properties":{}},{"type":"Feature","geometry":{"type":"Point","coordinates":[-72.3245944,18.5333444]},"properties":{}},{"type":"Feature","geometry":{"type":"Point","coordinates":[-72.3186158,18.5337662]},"properties":{}},{"type":"Feature","geometry":{"type":"Point","coordinates":[-72.307608,18.525957]},"properties":{}},{"type":"Feature","geometry":{"type":"Point","coordinates":[-72.2952801,18.5382812]},"properties":{}},{"type":"Feature","geometry":{"type":"Point","coordinates":[-72.2917087,18.5184009]},"properties":{}},{"type":"Feature","geometry":{"type":"Point","coordinates":[-72.291902,18.5164607]},"properties":{}},{"type":"Feature","geometry":{"type":"Point","coordinates":[-72.30159,18.518038]},"properties":{}},{"type":"Feature","geometry":{"type":"Point","coordinates":[-72.2840511,18.5159661]},"properties":{}},{"type":"Feature","geometry":{"type":"Point","coordinates":[-72.2841083,18.5156888]},"properties":{}},{"type":"Feature","geometry":{"type":"Point","coordinates":[-72.2865754,18.5152938]},"properties":{}},{"type":"Feature","geometry":{"type":"Point","coordinates":[-72.2873774,18.516207]},"properties":{}},{"type":"Feature","geometry":{"type":"Point","coordinates":[-72.2907619,18.5179253]},"properties":{}},{"type":"Feature","geometry":{"type":"Point","coordinates":[-72.290808,18.517933]},"properties":{}},{"type":"Feature","geometry":{"type":"Point","coordinates":[-72.2887314,18.5304494]},"properties":{}},{"type":"Feature","geometry":{"type":"Point","coordinates":[-72.291313,18.5332892]},"properties":{}},{"type":"Feature","geometry":{"type":"Point","coordinates":[-72.2735067,18.5281372]},"properties":{}},{"type":"Feature","geometry":{"type":"Point","coordinates":[-72.2797397,18.5225931]},"properties":{}},{"type":"Feature","geometry":{"type":"Point","coordinates":[-72.265927,18.526325]},"properties":{}},{"type":"Feature","geometry":{"type":"Point","coordinates":[-72.265966,18.526264]},"properties":{}},{"type":"Feature","geometry":{"type":"Point","coordinates":[-72.2539032,18.5220564]},"properties":{}},{"type":"Feature","geometry":{"type":"Point","coordinates":[-72.288796,18.502551]},"properties":{}},{"type":"Feature","geometry":{"type":"Point","coordinates":[-72.2415908,18.5201374]},"properties":{}},{"type":"Feature","geometry":{"type":"Point","coordinates":[-72.2230826,18.5213068]},"properties":{}},{"type":"Feature","geometry":{"type":"Point","coordinates":[-71.9785923,18.510301]},"properties":{}},{"type":"Feature","geometry":{"type":"Point","coordinates":[-74.2155728,18.5819527]},"properties":{}},{"type":"Feature","geometry":{"type":"Point","coordinates":[-73.1914646,19.8533073]},"properties":{}},{"type":"Feature","geometry":{"type":"Point","coordinates":[-72.6984746,19.1223002]},"properties":{}},{"type":"Feature","geometry":{"type":"Point","coordinates":[-72.720303,19.0906055]},"properties":{}},{"type":"Feature","geometry":{"type":"Point","coordinates":[-72.702494,19.107115]},"properties":{}},{"type":"Feature","geometry":{"type":"Point","coordinates":[-72.7024222,19.1062804]},"properties":{}},{"type":"Feature","geometry":{"type":"Point","coordinates":[-72.7037594,19.0979266]},"properties":{}},{"type":"Feature","geometry":{"type":"Point","coordinates":[-72.701704,19.1029345]},"properties":{}},{"type":"Feature","geometry":{"type":"Point","coordinates":[-72.7016262,19.1027142]},"properties":{}},{"type":"Feature","geometry":{"type":"Point","coordinates":[-72.7109334,19.0952176]},"properties":{}},{"type":"Feature","geometry":{"type":"Point","coordinates":[-72.4053955,19.7015011]},"properties":{}},{"type":"Feature","geometry":{"type":"Point","coordinates":[-72.6849963,19.6723189]},"properties":{}},{"type":"Feature","geometry":{"type":"Point","coordinates":[-72.6743382,19.6666945]},"properties":{}},{"type":"Feature","geometry":{"type":"Point","coordinates":[-72.673227,19.6629205]},"properties":{}},{"type":"Feature","geometry":{"type":"Point","coordinates":[-72.406624,19.6947638]},"properties":{}},{"type":"Feature","geometry":{"type":"Point","coordinates":[-72.180251,19.6992994]},"properties":{}},{"type":"Feature","geometry":{"type":"Point","coordinates":[-72.1643483,19.6966116]},"properties":{}},{"type":"Feature","geometry":{"type":"Point","coordinates":[-72.1582605,19.6936323]},"properties":{}},{"type":"Feature","geometry":{"type":"Point","coordinates":[-72.1976826,19.7592634]},"properties":{}},{"type":"Feature","geometry":{"type":"Point","coordinates":[-72.2009964,19.7569856]},"properties":{}},{"type":"Feature","geometry":{"type":"Point","coordinates":[-72.2019203,19.7560232]},"properties":{}},{"type":"Feature","geometry":{"type":"Point","coordinates":[-72.1943682,19.7413609]},"properties":{}},{"type":"Feature","geometry":{"type":"Point","coordinates":[-72.1802298,19.7016212]},"properties":{}},{"type":"Feature","geometry":{"type":"Point","coordinates":[-72.180385,19.7007562]},"properties":{}},{"type":"Feature","geometry":{"type":"Point","coordinates":[-72.1813291,19.7217639]},"properties":{}},{"type":"Feature","geometry":{"type":"Point","coordinates":[-72.2288599,19.7238378]},"properties":{}},{"type":"Feature","geometry":{"type":"Point","coordinates":[-72.2264985,19.7297966]},"properties":{}},{"type":"Feature","geometry":{"type":"Point","coordinates":[-72.2244222,19.7328216]},"properties":{}},{"type":"Feature","geometry":{"type":"Point","coordinates":[-72.221708,19.734015]},"properties":{}},{"type":"Feature","geometry":{"type":"Point","coordinates":[-72.2215877,19.7344755]},"properties":{}},{"type":"Feature","geometry":{"type":"Point","coordinates":[-72.2191199,19.7397339]},"properties":{}},{"type":"Feature","geometry":{"type":"Point","coordinates":[-72.2077691,19.7486474]},"properties":{}},{"type":"Feature","geometry":{"type":"Point","coordinates":[-72.2023896,19.7486184]},"properties":{}},{"type":"Feature","geometry":{"type":"Point","coordinates":[-72.2027823,19.7500721]},"properties":{}},{"type":"Feature","geometry":{"type":"Point","coordinates":[-72.2512557,19.7197419]},"properties":{}},{"type":"Feature","geometry":{"type":"Point","coordinates":[-72.2713067,19.7093278]},"properties":{}},{"type":"Feature","geometry":{"type":"Point","coordinates":[-71.826076,19.635487]},"properties":{}}]}