{"type":"FeatureCollection","titre":"Caisses populaires et microfinance cartographiées (OSM)","source_id":"SRC-028","source":"OpenStreetMap via HOT — © contributeurs OSM ; reconnaissance par Atmart, sigles agréés de la BRH","licence":"ODbL","millesime":"extraits des 14 et 21/08/2026","legende":{"f":{"caisse":"caisse populaire ou coopérative","microfinance":"microfinance"}},"limite":"CE N'EST PAS UN RECENSEMENT. La BRH agrée 58 caisses populaires et compte 108 points de service ; la cartographie contributive en montre une trentaine. Un objet est reconnu soit parce que son NOM se déclare — « caisse populaire », « kès popilè », « CEC » —, soit parce qu'il porte un SIGLE agréé par la BRH ET qu'il est étiqueté comme financier. Un sigle nu ne suffit pas : l'un des sigles agréés est le mot « succès », qui attraperait sinon une école, une pharmacie et un point d'eau. La règle rate donc des caisses mal étiquetées, et c'est le sens dans lequel elle doit se tromper. LES MUTUELLES DE SOLIDARITÉ N'Y SONT PAS et ne peuvent pas y être : sans agrément, sans local et souvent sans nom stable, elles n'ont pas d'adresse à cartographier — un point les ferait nommer des personnes plutôt qu'une institution.","features":[{"type":"Feature","geometry":{"type":"Point","coordinates":[-73.955786,18.477965]},"properties":{"f":"microfinance","e":"FONKOZE","r":"enseigne de microfinance","a":""}},{"type":"Feature","geometry":{"type":"Point","coordinates":[-73.747872,18.196]},"properties":{"f":"caisse","e":"Caisse Populaire Des Cayes","r":"nom déclaré","a":""}},{"type":"Feature","geometry":{"type":"Point","coordinates":[-73.749115,18.196556]},"properties":{"f":"microfinance","e":"Sevis Finance De Fonkoze","r":"enseigne de microfinance","a":""}},{"type":"Feature","geometry":{"type":"Point","coordinates":[-73.750512,18.194607]},"properties":{"f":"caisse","e":"CAPOSUD (Caisse Populaire Du Sud)","r":"nom déclaré","a":""}},{"type":"Feature","geometry":{"type":"Point","coordinates":[-73.74735,18.195111]},"properties":{"f":"caisse","e":"CAPOSUD (Caisse Populaire Du Sud)","r":"nom déclaré","a":""}},{"type":"Feature","geometry":{"type":"Point","coordinates":[-72.615215,19.149836]},"properties":{"f":"caisse","e":"Socolavim","r":"sigle agréé","a":"SOCOLAVIM"}},{"type":"Feature","geometry":{"type":"Point","coordinates":[-72.614248,19.150032]},"properties":{"f":"caisse","e":"Fonkoze sevis finansye Cooperative","r":"nom déclaré","a":""}},{"type":"Feature","geometry":{"type":"Point","coordinates":[-72.515518,19.262678]},"properties":{"f":"caisse","e":"Soco Lavim Caisse Populaire","r":"nom déclaré","a":""}},{"type":"Feature","geometry":{"type":"Point","coordinates":[-72.682376,19.444118]},"properties":{"f":"caisse","e":"Caisse populaire CAPOFRAGO","r":"nom déclaré","a":""}},{"type":"Feature","geometry":{"type":"Point","coordinates":[-72.694658,19.448225]},"properties":{"f":"microfinance","e":"fonkoze","r":"enseigne de microfinance","a":""}},{"type":"Feature","geometry":{"type":"Point","coordinates":[-72.980194,19.812402]},"properties":{"f":"caisse","e":"Kes Popile Fos Trankil Beauchamps","r":"nom déclaré","a":""}},{"type":"Feature","geometry":{"type":"Point","coordinates":[-72.664875,18.268312]},"properties":{"f":"caisse","e":"Caisse Populaire Petite Epagne de la La Vallée","r":"nom déclaré","a":""}},{"type":"Feature","geometry":{"type":"Point","coordinates":[-72.315195,18.23386]},"properties":{"f":"caisse","e":"caisse populaire ressource confiance de marigot","r":"nom déclaré","a":""}},{"type":"Feature","geometry":{"type":"Point","coordinates":[-72.331131,18.534965]},"properties":{"f":"microfinance","e":"Fonkoze","r":"enseigne de microfinance","a":""}},{"type":"Feature","geometry":{"type":"Point","coordinates":[-72.313248,18.911639]},"properties":{"f":"caisse","e":"CAPOSOV","r":"sigle agréé","a":"CAPOSOV"}},{"type":"Feature","geometry":{"type":"Point","coordinates":[-72.111457,18.836603]},"properties":{"f":"microfinance","e":"Fonkoze","r":"enseigne de microfinance","a":""}},{"type":"Feature","geometry":{"type":"Point","coordinates":[-72.104369,18.837494]},"properties":{"f":"caisse","e":"CODECREM","r":"sigle agréé","a":"CODECREM"}},{"type":"Feature","geometry":{"type":"Point","coordinates":[-72.140072,18.919332]},"properties":{"f":"microfinance","e":"Fonkoze","r":"enseigne de microfinance","a":""}},{"type":"Feature","geometry":{"type":"Point","coordinates":[-72.388892,18.991061]},"properties":{"f":"caisse","e":"Caisse Populaire Desarmes","r":"nom déclaré","a":""}},{"type":"Feature","geometry":{"type":"Point","coordinates":[-72.706637,18.950579]},"properties":{"f":"caisse","e":"Socolavim","r":"sigle agréé","a":"SOCOLAVIM"}},{"type":"Feature","geometry":{"type":"Point","coordinates":[-72.863255,18.830491]},"properties":{"f":"microfinance","e":"Fonkoze Bank","r":"enseigne de microfinance","a":""}},{"type":"Feature","geometry":{"type":"Point","coordinates":[-72.862765,18.830505]},"properties":{"f":"microfinance","e":"Fonkoze Bank","r":"enseigne de microfinance","a":""}},{"type":"Feature","geometry":{"type":"Point","coordinates":[-72.516269,18.773066]},"properties":{"f":"caisse","e":"Kes Popile Graf","r":"nom déclaré","a":""}},{"type":"Feature","geometry":{"type":"Point","coordinates":[-72.339804,18.528696]},"properties":{"f":"caisse","e":"Caisse Populaire de Saint Gérard","r":"nom déclaré","a":""}},{"type":"Feature","geometry":{"type":"Point","coordinates":[-73.256642,19.802261]},"properties":{"f":"caisse","e":"Capomar","r":"sigle agréé","a":"CAPOMAR"}},{"type":"Feature","geometry":{"type":"Point","coordinates":[-72.699926,19.111347]},"properties":{"f":"caisse","e":"Socolavim","r":"sigle agréé","a":"SOCOLAVIM"}},{"type":"Feature","geometry":{"type":"Point","coordinates":[-72.69979,19.109622]},"properties":{"f":"microfinance","e":"ACME","r":"enseigne de microfinance","a":""}},{"type":"Feature","geometry":{"type":"Point","coordinates":[-72.701302,19.108668]},"properties":{"f":"microfinance","e":"Sogesol Banque","r":"enseigne de microfinance","a":""}},{"type":"Feature","geometry":{"type":"Point","coordinates":[-72.682414,19.671711]},"properties":{"f":"caisse","e":"Caisse Populaire Espoir","r":"nom déclaré","a":""}},{"type":"Feature","geometry":{"type":"Point","coordinates":[-72.678668,19.669922]},"properties":{"f":"microfinance","e":"Fonkoze","r":"enseigne de microfinance","a":""}},{"type":"Feature","geometry":{"type":"Point","coordinates":[-72.269158,19.680301]},"properties":{"f":"caisse","e":"Caisse populaire fraternite","r":"nom déclaré","a":""}},{"type":"Feature","geometry":{"type":"Point","coordinates":[-72.124592,19.671055]},"properties":{"f":"caisse","e":"Caisse Populaire Fraternite","r":"nom déclaré","a":""}},{"type":"Feature","geometry":{"type":"Point","coordinates":[-71.836644,19.664625]},"properties":{"f":"caisse","e":"Caisse populaire","r":"nom déclaré","a":""}},{"type":"Feature","geometry":{"type":"Point","coordinates":[-71.725331,19.55022]},"properties":{"f":"microfinance","e":"Fonkoze","r":"enseigne de microfinance","a":""}},{"type":"Feature","geometry":{"type":"Point","coordinates":[-72.334962,19.373494]},"properties":{"f":"caisse","e":"Caisse Populaire","r":"nom déclaré","a":""}},{"type":"Feature","geometry":{"type":"Point","coordinates":[-72.335028,19.372551]},"properties":{"f":"caisse","e":"Caisse Populaire","r":"nom déclaré","a":""}},{"type":"Feature","geometry":{"type":"Point","coordinates":[-71.900575,19.251004]},"properties":{"f":"caisse","e":"Caisse Rurale d'Epargne et de Crédit (KREP)","r":"nom déclaré","a":""}},{"type":"Feature","geometry":{"type":"Point","coordinates":[-71.885012,18.665301]},"properties":{"f":"microfinance","e":"Bureau Fonkoze et Money Gram Transfert","r":"enseigne de microfinance","a":""}},{"type":"Feature","geometry":{"type":"Point","coordinates":[-73.628174,18.360741]},"properties":{"f":"caisse","e":"Caisse Populaire De Gros Marin","r":"nom déclaré","a":""}},{"type":"Feature","geometry":{"type":"Point","coordinates":[-73.654486,18.300925]},"properties":{"f":"caisse","e":"Caisse Populaire de Cavaillon","r":"nom déclaré","a":""}},{"type":"Feature","geometry":{"type":"Point","coordinates":[-72.261394,18.655393]},"properties":{"f":"caisse","e":"CEC Gravine","r":"nom déclaré","a":""}},{"type":"Feature","geometry":{"type":"Point","coordinates":[-72.829519,19.938858]},"properties":{"f":"caisse","e":"Caisse Populaire COPLES","r":"nom déclaré","a":""}},{"type":"Feature","geometry":{"type":"Point","coordinates":[-72.303897,18.24746]},"properties":{"f":"caisse","e":"caisse populaire de peredo","r":"nom déclaré","a":""}}]}