{"type": "FeatureCollection", "name": "Haïti — départements, contours d'affichage", "crs": {"type": "name", "properties": {"name": "urn:ogc:def:crs:OGC:1.3:CRS84"}}, "traitement": "Simplification Douglas-Peucker, tolérance 0.0035 degré ; îlots de moins de 0.0009 degré carré écartés. Contours d'AFFICHAGE : la géométrie complète, au mètre et avec ses attributs, reste dans le Pack Géo.", "source": "CNIGS / UN OCHA COD-AB Haïti", "licence": "CC BY 3.0 IGO", "features": [{"type": "Feature", "geometry": {"type": "Polygon", "coordinates": [[[-72.69573, 19.81251], [-72.72298, 19.8107], [-72.74261, 19.7836], [-72.76527, 19.78842], [-72.80697, 19.75696], [-72.81222, 19.73799], [-72.83838, 19.72989], [-72.83775, 19.721], [-72.84665, 19.71333], [-72.89489, 19.71037], [-72.92492, 19.71765], [-72.92744, 19.72927], [-72.99219, 19.72238], [-73.03746, 19.7396], [-73.05719, 19.74069], [-73.07004, 19.73128], [-73.08006, 19.73123], [-73.08707, 19.71445], [-73.10563, 19.70256], [-73.10377, 19.69637], [-73.1206, 19.70207], [-73.11838, 19.67636], [-73.13625, 19.64045], [-73.12205, 19.63194], [-73.10271, 19.64216], [-73.06253, 19.63344], [-73.01333, 19.6057], [-73.00292, 19.60468], [-72.99396, 19.61376], [-72.99823, 19.60203], [-72.98174, 19.59018], [-72.97721, 19.59476], [-72.97838, 19.58723], [-72.96214, 19.57553], [-72.9209, 19.56214], [-72.88671, 19.54561], [-72.88702, 19.54161], [-72.86772, 19.53974], [-72.84846, 19.53112], [-72.83307, 19.51614], [-72.8196, 19.51291], [-72.78284, 19.47646], [-72.7704, 19.45358], [-72.75397, 19.44641], [-72.73184, 19.44738], [-72.72401, 19.45783], [-72.71435, 19.4494], [-72.70921, 19.4541], [-72.71387, 19.45473], [-72.69706, 19.4589], [-72.70331, 19.45513], [-72.69701, 19.4519], [-72.70041, 19.42786], [-72.68214, 19.41203], [-72.68368, 19.40465], [-72.702, 19.39337], [-72.7104, 19.40167], [-72.70446, 19.40984], [-72.71744, 19.41519], [-72.71371, 19.42263], [-72.71861, 19.43116], [-72.72689, 19.42008], [-72.72967, 19.40311], [-72.71559, 19.39694], [-72.71112, 19.38659], [-72.7332, 19.36293], [-72.74811, 19.37535], [-72.76511, 19.37187], [-72.77363, 19.3458], [-72.76968, 19.34019], [-72.75995, 19.34414], [-72.76106, 19.32964], [-72.74765, 19.32131], [-72.72842, 19.32572], [-72.72498, 19.32121], [-72.73238, 19.31099], [-72.7194, 19.30524], [-72.73376, 19.3072], [-72.73247, 19.29749], [-72.72198, 19.30291], [-72.71518, 19.29683], [-72.71658, 19.29139], [-72.7249, 19.28304], [-72.73639, 19.29352], [-72.74719, 19.27796], [-72.7735, 19.28432], [-72.76729, 19.27059], [-72.77405, 19.26895], [-72.77654, 19.24119], [-72.78674, 19.23485], [-72.77698, 19.22677], [-72.76885, 19.24356], [-72.75208, 19.23295], [-72.767, 19.23233], [-72.7797, 19.21948], [-72.77995, 19.22535], [-72.78345, 19.21964], [-72.7996, 19.22124], [-72.77741, 19.19654], [-72.76213, 19.16462], [-72.74157, 19.14705], [-72.70022, 19.12817], [-72.70266, 19.10729], [-72.72978, 19.08828], [-72.77081, 19.09301], [-72.80603, 19.08037], [-72.81782, 19.07189], [-72.82368, 19.05805], [-72.81192, 19.03164], [-72.76308, 19.01405], [-72.73927, 18.99216], [-72.72924, 18.97256], [-72.72742, 18.95331], [-72.70999, 18.94234], [-72.68158, 18.97306], [-72.67861, 18.96859], [-72.66437, 18.97217], [-72.65761, 18.96738], [-72.62826, 18.97717], [-72.62323, 18.97082], [-72.61729, 18.97635], [-72.60344, 18.97533], [-72.53652, 18.95734], [-72.49575, 18.95895], [-72.46702, 18.92582], [-72.45949, 18.92725], [-72.45496, 18.91983], [-72.43564, 18.92346], [-72.41482, 18.90363], [-72.39222, 18.89323], [-72.36469, 18.86587], [-72.35627, 18.87023], [-72.31545, 18.85807], [-72.30089, 18.86382], [-72.25334, 18.85805], [-72.24363, 18.89972], [-72.24967, 18.90901], [-72.24086, 18.91663], [-72.23774, 18.93803], [-72.22496, 18.95641], [-72.23822, 18.97035], [-72.23784, 19.00205], [-72.24855, 19.02688], [-72.23852, 19.03682], [-72.2401, 19.04981], [-72.22187, 19.08038], [-72.23853, 19.09992], [-72.24064, 19.11574], [-72.2196, 19.13095], [-72.2425, 19.15615], [-72.25507, 19.16112], [-72.26432, 19.19166], [-72.25752, 19.20673], [-72.26576, 19.21608], [-72.25618, 19.22746], [-72.24168, 19.2322], [-72.24205, 19.26479], [-72.20331, 19.29846], [-72.20071, 19.31144], [-72.22396, 19.32506], [-72.23235, 19.36909], [-72.24866, 19.38463], [-72.22883, 19.38423], [-72.23111, 19.41723], [-72.223, 19.41559], [-72.22988, 19.42622], [-72.22656, 19.4327], [-72.25014, 19.44437], [-72.25708, 19.45609], [-72.24955, 19.477], [-72.27321, 19.46983], [-72.27564, 19.46396], [-72.28819, 19.46785], [-72.32045, 19.45975], [-72.32879, 19.46296], [-72.31868, 19.48726], [-72.32539, 19.48975], [-72.33161, 19.50548], [-72.32208, 19.51101], [-72.33119, 19.53251], [-72.31912, 19.55874], [-72.32779, 19.5721], [-72.35907, 19.57265], [-72.3666, 19.5661], [-72.36636, 19.57654], [-72.35922, 19.58179], [-72.36524, 19.59192], [-72.38119, 19.58553], [-72.3932, 19.56217], [-72.41183, 19.57135], [-72.42313, 19.56529], [-72.4248, 19.55888], [-72.41507, 19.54508], [-72.41764, 19.53946], [-72.42476, 19.52978], [-72.43321, 19.52531], [-72.44002, 19.52812], [-72.4472, 19.52139], [-72.46241, 19.52636], [-72.49343, 19.55573], [-72.52114, 19.57124], [-72.51527, 19.58192], [-72.52574, 19.57815], [-72.53588, 19.58257], [-72.54305, 19.59039], [-72.54148, 19.59876], [-72.56917, 19.63391], [-72.57615, 19.65734], [-72.57381, 19.67338], [-72.59857, 19.68166], [-72.61496, 19.69444], [-72.59768, 19.71435], [-72.60879, 19.75165], [-72.62338, 19.75695], [-72.62887, 19.74239], [-72.6466, 19.74534], [-72.64825, 19.76155], [-72.6374, 19.77376], [-72.64319, 19.78548], [-72.65631, 19.78565], [-72.6533, 19.77675], [-72.67362, 19.77871], [-72.68147, 19.80376], [-72.67802, 19.80893], [-72.69573, 19.81251]]]}, "properties": {"atmart_geo_id": "HTD-05", "pcode": "HT05", "nom_fr": "Artibonite", "nom_ht": "Latibonit", "niveau_admin": "1"}}, {"type": "Feature", "geometry": {"type": "Polygon", "coordinates": [[[-71.98404, 19.33367], [-72.00381, 19.32392], [-72.02217, 19.3245], [-72.02209, 19.31626], [-72.03035, 19.30763], [-72.05636, 19.29772], [-72.09464, 19.26667], [-72.11874, 19.26527], [-72.13498, 19.25497], [-72.15482, 19.2589], [-72.15278, 19.26871], [-72.15913, 19.28282], [-72.20333, 19.30055], [-72.22659, 19.27493], [-72.23829, 19.2702], [-72.24168, 19.2322], [-72.25618, 19.22746], [-72.26576, 19.21608], [-72.25752, 19.20673], [-72.26432, 19.19166], [-72.25507, 19.16112], [-72.2425, 19.15615], [-72.2196, 19.13095], [-72.24064, 19.11574], [-72.23853, 19.09992], [-72.22187, 19.08038], [-72.2401, 19.04981], [-72.23852, 19.03682], [-72.24855, 19.02688], [-72.23784, 19.00205], [-72.23822, 18.97035], [-72.22496, 18.95641], [-72.23774, 18.93803], [-72.24086, 18.91663], [-72.24967, 18.90901], [-72.24363, 18.89972], [-72.24684, 18.87176], [-72.25683, 18.85725], [-72.28925, 18.86376], [-72.31545, 18.85807], [-72.35627, 18.87023], [-72.36469, 18.86587], [-72.36328, 18.85903], [-72.33575, 18.83835], [-72.3194, 18.81166], [-72.30311, 18.81821], [-72.28171, 18.81663], [-72.2724, 18.80405], [-72.27902, 18.79754], [-72.22498, 18.77243], [-72.21787, 18.77375], [-72.20681, 18.75805], [-72.19984, 18.75852], [-72.19393, 18.75152], [-72.20117, 18.74184], [-72.18996, 18.72388], [-72.16658, 18.70265], [-72.14722, 18.69468], [-72.12721, 18.7064], [-72.11552, 18.70361], [-72.09172, 18.71056], [-72.07355, 18.73669], [-72.06814, 18.72076], [-72.04423, 18.71934], [-72.02759, 18.72692], [-72.01708, 18.72417], [-72.00944, 18.73699], [-72.00531, 18.73007], [-71.98854, 18.73772], [-71.97786, 18.73411], [-71.9711, 18.74684], [-71.96091, 18.74093], [-71.92597, 18.73896], [-71.92095, 18.73139], [-71.89351, 18.71955], [-71.8533, 18.71882], [-71.80422, 18.68539], [-71.79771, 18.69189], [-71.78891, 18.68957], [-71.78382, 18.7062], [-71.73798, 18.72229], [-71.72204, 18.80434], [-71.72083, 18.83284], [-71.72659, 18.85494], [-71.72215, 18.87871], [-71.73751, 18.87797], [-71.73916, 18.89145], [-71.76818, 18.90697], [-71.78188, 18.95487], [-71.80229, 18.95442], [-71.81436, 18.96481], [-71.82612, 18.96398], [-71.82291, 18.96941], [-71.83316, 18.96286], [-71.83707, 18.97039], [-71.84419, 18.96331], [-71.83988, 18.95842], [-71.84548, 18.95759], [-71.84852, 18.96354], [-71.85436, 18.95457], [-71.861, 18.96369], [-71.86108, 18.94772], [-71.87508, 18.949], [-71.87973, 18.94184], [-71.88548, 18.95961], [-71.87484, 18.95826], [-71.87595, 18.97204], [-71.86875, 18.97454], [-71.86817, 18.98193], [-71.85687, 18.97725], [-71.85234, 18.99302], [-71.84402, 18.99136], [-71.83346, 19.00592], [-71.82617, 18.99355], [-71.79913, 19.00518], [-71.7984, 18.99619], [-71.78909, 18.99328], [-71.79098, 19.00797], [-71.77586, 19.01302], [-71.78274, 19.01755], [-71.77092, 19.03181], [-71.76114, 19.02743], [-71.76388, 19.03476], [-71.75228, 19.04622], [-71.74053, 19.0434], [-71.73779, 19.04999], [-71.71668, 19.06013], [-71.72102, 19.06614], [-71.71637, 19.07123], [-71.71015, 19.06732], [-71.70186, 19.07325], [-71.71288, 19.08224], [-71.69731, 19.08718], [-71.6994, 19.09574], [-71.70717, 19.10016], [-71.70262, 19.10669], [-71.68493, 19.10305], [-71.67927, 19.10954], [-71.68259, 19.1172], [-71.67299, 19.1129], [-71.67059, 19.1175], [-71.66314, 19.11305], [-71.65432, 19.1156], [-71.64608, 19.13567], [-71.6569, 19.14367], [-71.64045, 19.14694], [-71.6468, 19.15268], [-71.6424, 19.15703], [-71.64637, 19.16872], [-71.63375, 19.16896], [-71.64731, 19.17672], [-71.62765, 19.18188], [-71.62692, 19.18635], [-71.63964, 19.19302], [-71.63836, 19.2012], [-71.62215, 19.20615], [-71.6337, 19.20795], [-71.6286, 19.21122], [-71.63976, 19.22957], [-71.66517, 19.22931], [-71.66662, 19.23403], [-71.67915, 19.23246], [-71.69701, 19.24083], [-71.7081, 19.25118], [-71.70869, 19.25971], [-71.7238, 19.26773], [-71.72556, 19.27841], [-71.7317, 19.2623], [-71.73891, 19.27881], [-71.7472, 19.27418], [-71.75306, 19.27968], [-71.77611, 19.26723], [-71.77474, 19.25943], [-71.84631, 19.26654], [-71.86561, 19.27991], [-71.90076, 19.27545], [-71.91406, 19.30557], [-71.9602, 19.31278], [-71.98404, 19.33367]]]}, "properties": {"atmart_geo_id": "HTD-06", "pcode": "HT06", "nom_fr": "Centre", "nom_ht": "Sant", "niveau_admin": "1"}}, {"type": "Feature", "geometry": {"type": "MultiPolygon", "coordinates": [[[[-74.19441, 18.6743], [-74.23342, 18.67207], [-74.24703, 18.66517], [-74.25973, 18.67042], [-74.27946, 18.64785], [-74.29682, 18.66192], [-74.3075, 18.65944], [-74.30935, 18.64963], [-74.33001, 18.65536], [-74.36755, 18.63594], [-74.37637, 18.63587], [-74.38573, 18.64402], [-74.39517, 18.6272], [-74.40717, 18.62994], [-74.4248, 18.61619], [-74.42893, 18.60518], [-74.41634, 18.59439], [-74.41497, 18.58207], [-74.42576, 18.55779], [-74.43625, 18.54886], [-74.43564, 18.53787], [-74.44483, 18.53235], [-74.44216, 18.51571], [-74.45948, 18.49904], [-74.46286, 18.49079], [-74.45294, 18.48634], [-74.45313, 18.47116], [-74.46167, 18.4651], [-74.45929, 18.46169], [-74.47088, 18.44964], [-74.47259, 18.43392], [-74.48018, 18.429], [-74.4727, 18.42006], [-74.4804, 18.41553], [-74.46433, 18.41317], [-74.44892, 18.39704], [-74.44904, 18.35851], [-74.4411, 18.35702], [-74.43675, 18.36627], [-74.43235, 18.35891], [-74.42309, 18.35716], [-74.38787, 18.36286], [-74.32918, 18.36097], [-74.30218, 18.37216], [-74.29392, 18.39474], [-74.27701, 18.38136], [-74.24968, 18.37483], [-74.22289, 18.38005], [-74.21499, 18.40396], [-74.18109, 18.39202], [-74.13177, 18.40105], [-74.11823, 18.39684], [-74.08186, 18.40764], [-74.06098, 18.40341], [-74.04707, 18.38947], [-74.03189, 18.38409], [-74.00276, 18.38373], [-73.96431, 18.3688], [-73.8956, 18.36306], [-73.89294, 18.37537], [-73.9062, 18.38924], [-73.90569, 18.39902], [-73.87864, 18.40739], [-73.84288, 18.40677], [-73.78002, 18.42395], [-73.77487, 18.45417], [-73.73906, 18.48149], [-73.74237, 18.48929], [-73.76881, 18.49898], [-73.74328, 18.52324], [-73.73152, 18.54072], [-73.7325, 18.55029], [-73.78989, 18.535], [-73.79355, 18.54836], [-73.80374, 18.54951], [-73.80639, 18.55588], [-73.81484, 18.55651], [-73.81411, 18.56108], [-73.81724, 18.55724], [-73.82201, 18.5628], [-73.83456, 18.56347], [-73.84177, 18.57208], [-73.85012, 18.56617], [-73.85545, 18.57264], [-73.90317, 18.56641], [-73.90434, 18.57691], [-73.90827, 18.57268], [-73.91874, 18.581], [-73.90913, 18.58786], [-73.91499, 18.58611], [-73.92714, 18.59426], [-73.93999, 18.58822], [-73.96274, 18.60162], [-74.00444, 18.59925], [-74.06704, 18.61119], [-74.10845, 18.63604], [-74.11232, 18.64216], [-74.10883, 18.64575], [-74.13475, 18.66172], [-74.14623, 18.65978], [-74.15579, 18.66646], [-74.19441, 18.6743]]], [[[-73.75492, 18.64331], [-73.76653, 18.64314], [-73.79375, 18.62624], [-73.79676, 18.60324], [-73.79198, 18.59785], [-73.77319, 18.5913], [-73.7612, 18.59302], [-73.75497, 18.5845], [-73.74395, 18.58174], [-73.71858, 18.59209], [-73.70124, 18.60803], [-73.69868, 18.6187], [-73.70311, 18.62715], [-73.75492, 18.64331]]]]}, "properties": {"atmart_geo_id": "HTD-08", "pcode": "HT08", "nom_fr": "Grande'Anse", "nom_ht": "Grandans", "niveau_admin": "1"}}, {"type": "Feature", "geometry": {"type": "Polygon", "coordinates": [[[-73.56737, 18.58722], [-73.61719, 18.58544], [-73.65618, 18.57244], [-73.70269, 18.57705], [-73.71857, 18.57156], [-73.71947, 18.56481], [-73.72699, 18.56655], [-73.73429, 18.55835], [-73.71941, 18.5586], [-73.72112, 18.55178], [-73.73122, 18.55075], [-73.73553, 18.54585], [-73.73152, 18.54072], [-73.74328, 18.52324], [-73.76881, 18.49898], [-73.73799, 18.48408], [-73.77487, 18.45417], [-73.78002, 18.42395], [-73.771, 18.41768], [-73.75916, 18.4235], [-73.72146, 18.41473], [-73.70234, 18.42007], [-73.67669, 18.39799], [-73.67156, 18.40291], [-73.67203, 18.43074], [-73.66816, 18.43334], [-73.6534, 18.42584], [-73.64357, 18.43021], [-73.63154, 18.42201], [-73.60965, 18.42713], [-73.60166, 18.42044], [-73.57799, 18.42053], [-73.5789, 18.4072], [-73.57388, 18.40119], [-73.56224, 18.40142], [-73.55897, 18.39124], [-73.53863, 18.38462], [-73.54178, 18.37365], [-73.55493, 18.36997], [-73.5563, 18.34982], [-73.56435, 18.34655], [-73.55459, 18.33613], [-73.50448, 18.3365], [-73.48216, 18.34228], [-73.45879, 18.33787], [-73.42923, 18.34451], [-73.41227, 18.34202], [-73.40453, 18.34755], [-73.35522, 18.34251], [-73.3306, 18.37078], [-73.31871, 18.36273], [-73.28687, 18.36771], [-73.25918, 18.35284], [-73.22817, 18.3523], [-73.21767, 18.36253], [-73.19513, 18.36406], [-73.15658, 18.3502], [-73.14163, 18.36474], [-73.12519, 18.35886], [-73.11046, 18.36185], [-73.08001, 18.3294], [-73.07068, 18.33102], [-73.07201, 18.3228], [-73.05937, 18.30303], [-73.04222, 18.30035], [-73.05236, 18.28699], [-73.03769, 18.26953], [-73.04165, 18.25968], [-73.02992, 18.25114], [-73.03, 18.23974], [-73.01669, 18.23665], [-73.02282, 18.22519], [-73.01478, 18.22778], [-73.01649, 18.22207], [-73.01125, 18.22274], [-73.01289, 18.27926], [-72.99492, 18.30592], [-72.99532, 18.31971], [-73.01726, 18.34165], [-73.02015, 18.34851], [-73.01089, 18.36065], [-73.02557, 18.37467], [-73.01901, 18.38311], [-73.0297, 18.38901], [-73.05374, 18.43221], [-73.04457, 18.4375], [-73.05477, 18.45237], [-73.05068, 18.46108], [-73.06978, 18.45806], [-73.0735, 18.44676], [-73.0848, 18.44949], [-73.09148, 18.44289], [-73.10515, 18.44662], [-73.1061, 18.45644], [-73.11056, 18.45327], [-73.11636, 18.45818], [-73.11393, 18.46211], [-73.1247, 18.46247], [-73.12001, 18.46588], [-73.1219, 18.4701], [-73.12519, 18.46664], [-73.12522, 18.47494], [-73.16035, 18.48551], [-73.18867, 18.4897], [-73.23941, 18.47619], [-73.26963, 18.48365], [-73.294, 18.48315], [-73.33087, 18.50335], [-73.45745, 18.52869], [-73.47101, 18.52255], [-73.52052, 18.52924], [-73.52813, 18.51756], [-73.53017, 18.52296], [-73.53891, 18.52403], [-73.5363, 18.52117], [-73.54823, 18.52048], [-73.55905, 18.50986], [-73.56403, 18.51297], [-73.57066, 18.50524], [-73.57912, 18.50956], [-73.57844, 18.50445], [-73.58772, 18.50148], [-73.6229, 18.49951], [-73.62315, 18.50409], [-73.63633, 18.50643], [-73.66176, 18.49912], [-73.66364, 18.50613], [-73.67298, 18.5093], [-73.66004, 18.53287], [-73.66351, 18.54119], [-73.6807, 18.54485], [-73.68455, 18.53644], [-73.68432, 18.54502], [-73.69287, 18.53939], [-73.69382, 18.54553], [-73.69959, 18.54126], [-73.71355, 18.54078], [-73.72107, 18.54623], [-73.72502, 18.54289], [-73.71664, 18.55128], [-73.71046, 18.54402], [-73.69865, 18.55356], [-73.68253, 18.5538], [-73.68027, 18.56021], [-73.69005, 18.56224], [-73.68815, 18.5657], [-73.67498, 18.56468], [-73.66621, 18.55715], [-73.66171, 18.55987], [-73.66612, 18.55312], [-73.64436, 18.55437], [-73.64356, 18.56043], [-73.59224, 18.55265], [-73.57747, 18.56137], [-73.56367, 18.58132], [-73.56737, 18.58722]]]}, "properties": {"atmart_geo_id": "HTD-10", "pcode": "HT10", "nom_fr": "Nippes", "nom_ht": "Nip", "niveau_admin": "1"}}, {"type": "Feature", "geometry": {"type": "Polygon", "coordinates": [[[-72.55529, 19.87769], [-72.567, 19.87762], [-72.58303, 19.86646], [-72.58006, 19.84981], [-72.59019, 19.84984], [-72.59552, 19.83994], [-72.59089, 19.83148], [-72.60156, 19.83825], [-72.61069, 19.83615], [-72.61935, 19.81486], [-72.63007, 19.8117], [-72.63913, 19.81854], [-72.63896, 19.82935], [-72.6846, 19.83163], [-72.67723, 19.81388], [-72.68147, 19.80376], [-72.67362, 19.77871], [-72.6533, 19.77675], [-72.65631, 19.78565], [-72.64319, 19.78548], [-72.63853, 19.77801], [-72.64825, 19.76155], [-72.6466, 19.74534], [-72.62887, 19.74239], [-72.62338, 19.75695], [-72.60879, 19.75165], [-72.59768, 19.71435], [-72.61496, 19.69444], [-72.59857, 19.68166], [-72.57381, 19.67338], [-72.57615, 19.65734], [-72.56917, 19.63391], [-72.54148, 19.59876], [-72.53832, 19.58476], [-72.52574, 19.57815], [-72.51527, 19.58192], [-72.52114, 19.57124], [-72.49343, 19.55573], [-72.46241, 19.52636], [-72.4472, 19.52139], [-72.44002, 19.52812], [-72.43321, 19.52531], [-72.42476, 19.52978], [-72.41764, 19.53946], [-72.41507, 19.54508], [-72.4248, 19.55888], [-72.42313, 19.56529], [-72.41183, 19.57135], [-72.3932, 19.56217], [-72.39, 19.57395], [-72.37455, 19.59024], [-72.36524, 19.59192], [-72.3591, 19.5856], [-72.36636, 19.57654], [-72.36488, 19.56536], [-72.35907, 19.57265], [-72.32466, 19.57002], [-72.31912, 19.55874], [-72.33119, 19.53251], [-72.32208, 19.51101], [-72.33161, 19.50548], [-72.32539, 19.48975], [-72.31868, 19.48726], [-72.32879, 19.46296], [-72.32045, 19.45975], [-72.28819, 19.46785], [-72.27564, 19.46396], [-72.27321, 19.46983], [-72.24955, 19.477], [-72.25708, 19.45609], [-72.25014, 19.44437], [-72.22694, 19.4332], [-72.22988, 19.42622], [-72.22292, 19.4192], [-72.23111, 19.41723], [-72.22883, 19.38423], [-72.24866, 19.38463], [-72.23235, 19.36909], [-72.22548, 19.32769], [-72.20257, 19.31379], [-72.20333, 19.30055], [-72.15913, 19.28282], [-72.15086, 19.25713], [-72.13498, 19.25497], [-72.11874, 19.26527], [-72.09464, 19.26667], [-72.05636, 19.29772], [-72.03035, 19.30763], [-72.02209, 19.31626], [-72.02217, 19.3245], [-72.00381, 19.32392], [-71.99195, 19.33289], [-71.97752, 19.3352], [-71.97855, 19.34048], [-71.97116, 19.33901], [-72.00439, 19.39523], [-72.03728, 19.42609], [-72.03777, 19.43225], [-72.06468, 19.4453], [-72.06917, 19.44071], [-72.0644, 19.43707], [-72.07287, 19.43492], [-72.07941, 19.44325], [-72.08221, 19.44004], [-72.09181, 19.44701], [-72.08011, 19.45856], [-72.06993, 19.45547], [-72.06212, 19.47768], [-72.09113, 19.49752], [-72.09393, 19.51532], [-72.10364, 19.52392], [-72.09803, 19.54139], [-72.10808, 19.55942], [-72.11407, 19.5588], [-72.111, 19.5674], [-72.12003, 19.57494], [-72.12214, 19.58557], [-72.10575, 19.60299], [-72.11247, 19.61069], [-72.11016, 19.63447], [-72.09349, 19.6262], [-72.06565, 19.63542], [-72.0665, 19.65566], [-72.05869, 19.67316], [-72.06286, 19.68544], [-72.05652, 19.6961], [-72.06462, 19.69884], [-72.03771, 19.70532], [-72.04026, 19.72074], [-72.03628, 19.72651], [-72.04084, 19.73389], [-72.04875, 19.73667], [-72.04462, 19.73026], [-72.06177, 19.71799], [-72.061, 19.70787], [-72.0674, 19.70669], [-72.06684, 19.70242], [-72.07808, 19.70317], [-72.07833, 19.7147], [-72.06437, 19.71346], [-72.05556, 19.73166], [-72.09343, 19.72618], [-72.11475, 19.7301], [-72.1283, 19.75086], [-72.15235, 19.75724], [-72.14328, 19.74674], [-72.14567, 19.74315], [-72.17254, 19.74775], [-72.17402, 19.74138], [-72.18935, 19.74053], [-72.20206, 19.75082], [-72.19475, 19.75849], [-72.19025, 19.78478], [-72.19774, 19.78838], [-72.22765, 19.78295], [-72.24694, 19.7889], [-72.24349, 19.77332], [-72.25947, 19.77531], [-72.2582, 19.75963], [-72.28488, 19.76842], [-72.3039, 19.76112], [-72.31885, 19.77008], [-72.31101, 19.74794], [-72.31975, 19.74549], [-72.30808, 19.73906], [-72.31384, 19.73563], [-72.31022, 19.71053], [-72.31935, 19.70691], [-72.33748, 19.72319], [-72.34202, 19.75024], [-72.3382, 19.75234], [-72.33133, 19.74289], [-72.33059, 19.74991], [-72.32663, 19.74598], [-72.33879, 19.77141], [-72.37635, 19.79882], [-72.38175, 19.8172], [-72.38865, 19.81676], [-72.39037, 19.8055], [-72.40807, 19.80458], [-72.42952, 19.81954], [-72.4249, 19.82607], [-72.43061, 19.8307], [-72.43313, 19.82135], [-72.44464, 19.81741], [-72.47022, 19.83301], [-72.46792, 19.82507], [-72.47967, 19.82147], [-72.48912, 19.83416], [-72.49385, 19.81965], [-72.50024, 19.82451], [-72.49833, 19.83535], [-72.50435, 19.83604], [-72.50738, 19.84669], [-72.51829, 19.83978], [-72.52244, 19.85006], [-72.52954, 19.84777], [-72.55461, 19.86986], [-72.55529, 19.87769]]]}, "properties": {"atmart_geo_id": "HTD-03", "pcode": "HT03", "nom_fr": "Nord", "nom_ht": "Nò", "niveau_admin": "1"}}, {"type": "Feature", "geometry": {"type": "Polygon", "coordinates": [[[-71.96148, 19.73427], [-71.98862, 19.73207], [-71.98456, 19.72857], [-71.99189, 19.72622], [-71.98919, 19.70466], [-71.99323, 19.69796], [-72.00667, 19.7061], [-72.00788, 19.70034], [-72.0189, 19.6969], [-72.0337, 19.70101], [-72.04133, 19.70009], [-72.039, 19.69236], [-72.05908, 19.69328], [-72.06286, 19.68544], [-72.05894, 19.67163], [-72.06724, 19.64883], [-72.06485, 19.63749], [-72.07163, 19.63091], [-72.09349, 19.6262], [-72.11016, 19.63447], [-72.11247, 19.61069], [-72.10575, 19.60299], [-72.12117, 19.58882], [-72.12003, 19.57494], [-72.11199, 19.57043], [-72.11407, 19.5588], [-72.10808, 19.55942], [-72.09803, 19.54139], [-72.10364, 19.52392], [-72.09393, 19.51532], [-72.09113, 19.49752], [-72.06212, 19.47768], [-72.06993, 19.45547], [-72.08011, 19.45856], [-72.09194, 19.44733], [-72.07287, 19.43492], [-72.0644, 19.43707], [-72.06917, 19.44071], [-72.06468, 19.4453], [-72.03777, 19.43225], [-72.03728, 19.42609], [-72.00762, 19.39972], [-71.99014, 19.36616], [-71.97148, 19.34564], [-71.97116, 19.33901], [-71.97855, 19.34048], [-71.98225, 19.33326], [-71.9602, 19.31278], [-71.91406, 19.30557], [-71.90076, 19.27545], [-71.86561, 19.27991], [-71.84631, 19.26654], [-71.77474, 19.25943], [-71.77611, 19.26723], [-71.75306, 19.27968], [-71.75326, 19.28834], [-71.76109, 19.29157], [-71.75609, 19.29908], [-71.76427, 19.30369], [-71.76869, 19.32004], [-71.78583, 19.3318], [-71.75266, 19.33975], [-71.74826, 19.35364], [-71.72446, 19.36666], [-71.71819, 19.36292], [-71.7141, 19.37174], [-71.7013, 19.35964], [-71.69373, 19.36042], [-71.69103, 19.37188], [-71.69816, 19.3961], [-71.67849, 19.44412], [-71.69424, 19.47722], [-71.68862, 19.51323], [-71.69929, 19.51243], [-71.7029, 19.53366], [-71.71284, 19.5339], [-71.71322, 19.55144], [-71.74316, 19.58478], [-71.74577, 19.63388], [-71.73246, 19.6464], [-71.73534, 19.66176], [-71.75626, 19.67609], [-71.75413, 19.68584], [-71.75959, 19.68848], [-71.75509, 19.6922], [-71.76158, 19.69323], [-71.76103, 19.70471], [-71.83583, 19.71447], [-71.84419, 19.71211], [-71.84095, 19.68759], [-71.83176, 19.68809], [-71.82307, 19.68088], [-71.81878, 19.6844], [-71.81006, 19.67553], [-71.81088, 19.67125], [-71.81848, 19.67269], [-71.81184, 19.66715], [-71.82028, 19.66779], [-71.81588, 19.66477], [-71.81969, 19.66111], [-71.81669, 19.65085], [-71.82474, 19.64856], [-71.82588, 19.66232], [-71.84087, 19.67569], [-71.8467, 19.66943], [-71.86505, 19.66961], [-71.87868, 19.66069], [-71.88876, 19.67199], [-71.8975, 19.6689], [-71.88606, 19.67721], [-71.88731, 19.68153], [-71.90066, 19.67862], [-71.90517, 19.68735], [-71.89606, 19.68288], [-71.88376, 19.68598], [-71.87557, 19.6796], [-71.86311, 19.69108], [-71.85145, 19.69107], [-71.8457, 19.70766], [-71.85101, 19.71624], [-71.93788, 19.7302], [-71.94779, 19.72695], [-71.96148, 19.73427]]]}, "properties": {"atmart_geo_id": "HTD-04", "pcode": "HT04", "nom_fr": "Nord-Est", "nom_ht": "Nòdès", "niveau_admin": "1"}}, {"type": "Feature", "geometry": {"type": "MultiPolygon", "coordinates": [[[[-72.81638, 19.95254], [-72.83145, 19.94084], [-72.85004, 19.94396], [-72.87183, 19.93145], [-72.89119, 19.93598], [-72.9451, 19.92684], [-72.95607, 19.92174], [-72.95896, 19.90957], [-72.97374, 19.92413], [-73.00209, 19.91716], [-73.02973, 19.92205], [-73.02647, 19.91563], [-73.03192, 19.90934], [-73.04519, 19.91908], [-73.14721, 19.92494], [-73.16468, 19.93021], [-73.22928, 19.88922], [-73.23983, 19.87536], [-73.24633, 19.87769], [-73.27189, 19.86465], [-73.30355, 19.85772], [-73.34061, 19.83795], [-73.36708, 19.84597], [-73.38915, 19.84085], [-73.40816, 19.84309], [-73.42146, 19.82898], [-73.41316, 19.82044], [-73.37403, 19.82016], [-73.36411, 19.83537], [-73.3599, 19.83355], [-73.36972, 19.81178], [-73.37894, 19.80906], [-73.38524, 19.79936], [-73.41025, 19.79102], [-73.42492, 19.79676], [-73.45262, 19.75974], [-73.45299, 19.68739], [-73.41597, 19.64901], [-73.3639, 19.62316], [-73.32126, 19.62426], [-73.2693, 19.63373], [-73.23537, 19.62912], [-73.22344, 19.6385], [-73.21857, 19.65733], [-73.20697, 19.66193], [-73.17917, 19.63889], [-73.1274, 19.62283], [-73.12205, 19.63194], [-73.13631, 19.64367], [-73.11838, 19.67636], [-73.1206, 19.70207], [-73.10377, 19.69637], [-73.10563, 19.70256], [-73.08707, 19.71445], [-73.08006, 19.73123], [-73.04694, 19.74187], [-72.99219, 19.72238], [-72.92744, 19.72927], [-72.92492, 19.71765], [-72.89489, 19.71037], [-72.84665, 19.71333], [-72.83775, 19.721], [-72.83838, 19.72989], [-72.81222, 19.73799], [-72.80697, 19.75696], [-72.76527, 19.78842], [-72.74167, 19.78399], [-72.71971, 19.81204], [-72.69931, 19.81567], [-72.68947, 19.80857], [-72.67802, 19.80893], [-72.68292, 19.83239], [-72.63896, 19.82935], [-72.63913, 19.81854], [-72.63007, 19.8117], [-72.61875, 19.81519], [-72.61069, 19.83615], [-72.60156, 19.83825], [-72.59089, 19.83148], [-72.59552, 19.83994], [-72.59019, 19.84984], [-72.58006, 19.84981], [-72.58332, 19.86616], [-72.56027, 19.88081], [-72.57385, 19.88705], [-72.58009, 19.89727], [-72.62138, 19.89342], [-72.63164, 19.89729], [-72.63655, 19.90786], [-72.64661, 19.90626], [-72.65227, 19.91366], [-72.68012, 19.92299], [-72.68781, 19.92085], [-72.7221, 19.93666], [-72.73175, 19.93536], [-72.78108, 19.95169], [-72.81031, 19.94812], [-72.81638, 19.95254]]], [[[-72.79594, 20.08583], [-72.86346, 20.08689], [-72.96772, 20.06493], [-72.95954, 20.0553], [-72.87526, 20.03279], [-72.81024, 20.02852], [-72.69511, 19.99775], [-72.64529, 19.99235], [-72.62012, 19.99683], [-72.64063, 20.02223], [-72.66615, 20.03896], [-72.75623, 20.06761], [-72.79594, 20.08583]]]]}, "properties": {"atmart_geo_id": "HTD-09", "pcode": "HT09", "nom_fr": "Nord-Ouest", "nom_ht": "Nòdwès", "niveau_admin": "1"}}, {"type": "Feature", "geometry": {"type": "MultiPolygon", "coordinates": [[[[-73.66357, 18.43067], [-73.67203, 18.43074], [-73.67102, 18.40575], [-73.67669, 18.39799], [-73.70234, 18.42007], [-73.72146, 18.41473], [-73.75916, 18.4235], [-73.771, 18.41768], [-73.78562, 18.42407], [-73.84288, 18.40677], [-73.88611, 18.40601], [-73.90569, 18.39902], [-73.9062, 18.38924], [-73.89294, 18.37537], [-73.89664, 18.36289], [-73.94278, 18.37051], [-73.96431, 18.3688], [-74.00276, 18.38373], [-74.03189, 18.38409], [-74.04707, 18.38947], [-74.06098, 18.40341], [-74.08186, 18.40764], [-74.11823, 18.39684], [-74.13177, 18.40105], [-74.18109, 18.39202], [-74.21499, 18.40396], [-74.22289, 18.38005], [-74.24968, 18.37483], [-74.27701, 18.38136], [-74.29392, 18.39474], [-74.30218, 18.37216], [-74.32918, 18.36097], [-74.38787, 18.36286], [-74.42309, 18.35716], [-74.43235, 18.35891], [-74.43675, 18.36627], [-74.4411, 18.35702], [-74.45053, 18.35669], [-74.43886, 18.34442], [-74.40208, 18.33421], [-74.39731, 18.32551], [-74.40188, 18.31918], [-74.3838, 18.31433], [-74.36966, 18.29644], [-74.31161, 18.28499], [-74.25755, 18.31155], [-74.22981, 18.3111], [-74.20909, 18.29724], [-74.18887, 18.29687], [-74.16794, 18.28025], [-74.16675, 18.27303], [-74.09211, 18.24803], [-74.08475, 18.23545], [-74.06225, 18.22682], [-74.05221, 18.21023], [-74.0052, 18.18119], [-74.00083, 18.16583], [-73.97963, 18.16367], [-73.97482, 18.14622], [-73.96094, 18.13342], [-73.95, 18.13179], [-73.9397, 18.09932], [-73.91761, 18.07838], [-73.91713, 18.06436], [-73.90284, 18.04347], [-73.90429, 18.03275], [-73.87632, 18.0223], [-73.82728, 18.02687], [-73.80483, 18.0226], [-73.78853, 18.02921], [-73.79089, 18.03842], [-73.78288, 18.04333], [-73.78594, 18.05421], [-73.80689, 18.06719], [-73.81371, 18.08118], [-73.84022, 18.10218], [-73.84335, 18.12268], [-73.82008, 18.15134], [-73.73809, 18.19278], [-73.71827, 18.2104], [-73.70169, 18.21259], [-73.69677, 18.23634], [-73.67746, 18.23809], [-73.67311, 18.22349], [-73.66749, 18.23327], [-73.65446, 18.23913], [-73.64745, 18.25376], [-73.64115, 18.24542], [-73.65046, 18.22755], [-73.65844, 18.22806], [-73.65708, 18.22421], [-73.66092, 18.22796], [-73.66221, 18.21012], [-73.6332, 18.2235], [-73.63203, 18.2507], [-73.62185, 18.24888], [-73.61015, 18.25669], [-73.60017, 18.24945], [-73.59992, 18.24326], [-73.61266, 18.23724], [-73.61962, 18.21691], [-73.60168, 18.21227], [-73.58673, 18.22018], [-73.58585, 18.2359], [-73.57883, 18.21743], [-73.56722, 18.21606], [-73.55968, 18.22336], [-73.57532, 18.24968], [-73.56323, 18.25959], [-73.54257, 18.25886], [-73.53131, 18.23292], [-73.50694, 18.23257], [-73.49473, 18.2404], [-73.50786, 18.2451], [-73.492, 18.25611], [-73.48157, 18.25722], [-73.47494, 18.25], [-73.47527, 18.25734], [-73.45903, 18.26174], [-73.4516, 18.25517], [-73.45486, 18.2624], [-73.45057, 18.26688], [-73.44356, 18.25878], [-73.44278, 18.2654], [-73.4347, 18.26527], [-73.43075, 18.25394], [-73.4204, 18.2558], [-73.40725, 18.24922], [-73.40393, 18.25658], [-73.41, 18.26118], [-73.40317, 18.26069], [-73.4047, 18.26586], [-73.39772, 18.26385], [-73.39239, 18.27013], [-73.39072, 18.26105], [-73.39007, 18.28043], [-73.38345, 18.26828], [-73.38303, 18.27311], [-73.3667, 18.25877], [-73.35077, 18.2531], [-73.36579, 18.23829], [-73.37001, 18.21752], [-73.3583, 18.21681], [-73.35474, 18.22431], [-73.34333, 18.21933], [-73.28421, 18.23264], [-73.27186, 18.22836], [-73.26662, 18.21522], [-73.17192, 18.21137], [-73.14065, 18.19696], [-73.08363, 18.18567], [-73.04128, 18.18161], [-73.00354, 18.18577], [-73.0102, 18.19333], [-73.00388, 18.19936], [-73.00897, 18.20687], [-73.00116, 18.2075], [-73.01047, 18.2088], [-73.00938, 18.22369], [-73.02282, 18.22519], [-73.01669, 18.23665], [-73.03069, 18.24056], [-73.02992, 18.25114], [-73.04165, 18.25968], [-73.03798, 18.2702], [-73.05236, 18.28699], [-73.04222, 18.30035], [-73.05937, 18.30303], [-73.07201, 18.3228], [-73.07068, 18.33102], [-73.08001, 18.3294], [-73.11046, 18.36185], [-73.12519, 18.35886], [-73.14163, 18.36474], [-73.15658, 18.3502], [-73.19513, 18.36406], [-73.21767, 18.36253], [-73.22817, 18.3523], [-73.25918, 18.35284], [-73.28687, 18.36771], [-73.31871, 18.36273], [-73.3306, 18.37078], [-73.35522, 18.34251], [-73.40453, 18.34755], [-73.41227, 18.34202], [-73.42923, 18.34451], [-73.45879, 18.33787], [-73.48216, 18.34228], [-73.50448, 18.3365], [-73.55459, 18.33613], [-73.56435, 18.34655], [-73.5563, 18.34982], [-73.55493, 18.36997], [-73.54178, 18.37365], [-73.53863, 18.38462], [-73.55897, 18.39124], [-73.56224, 18.40142], [-73.57388, 18.40119], [-73.5789, 18.4072], [-73.57799, 18.42053], [-73.60166, 18.42044], [-73.60965, 18.42713], [-73.63154, 18.42201], [-73.64357, 18.43021], [-73.6534, 18.42584], [-73.66357, 18.43067]]], [[[-73.70372, 18.1093], [-73.70821, 18.10535], [-73.70188, 18.0952], [-73.70545, 18.09273], [-73.6873, 18.0831], [-73.67471, 18.0597], [-73.58554, 18.05624], [-73.57144, 18.06804], [-73.58264, 18.08728], [-73.60003, 18.09958], [-73.61067, 18.09899], [-73.63996, 18.08296], [-73.66164, 18.08898], [-73.6716, 18.09959], [-73.67649, 18.09627], [-73.68037, 18.10365], [-73.68382, 18.09831], [-73.6854, 18.10561], [-73.69742, 18.10261], [-73.70372, 18.1093]]]]}, "properties": {"atmart_geo_id": "HTD-07", "pcode": "HT07", "nom_fr": "Sud", "nom_ht": "Sid", "niveau_admin": "1"}}, {"type": "Feature", "geometry": {"type": "Polygon", "coordinates": [[[-72.76129, 18.28151], [-72.76726, 18.26673], [-72.79474, 18.27548], [-72.80864, 18.28678], [-72.82753, 18.28935], [-72.83144, 18.28226], [-72.85627, 18.2812], [-72.85339, 18.2583], [-72.89493, 18.28633], [-72.8897, 18.29512], [-72.92948, 18.28668], [-72.93482, 18.29285], [-72.95291, 18.29347], [-72.95824, 18.27839], [-72.96465, 18.27737], [-72.97517, 18.28777], [-72.98682, 18.32085], [-72.99369, 18.32703], [-72.99492, 18.30592], [-73.01017, 18.28798], [-73.01562, 18.2611], [-73.00903, 18.25237], [-73.01047, 18.2088], [-73.00116, 18.2075], [-73.00897, 18.20687], [-73.00388, 18.19936], [-73.0102, 18.19333], [-72.9956, 18.17686], [-72.96254, 18.16748], [-72.93156, 18.1677], [-72.88553, 18.14894], [-72.85405, 18.14379], [-72.84587, 18.15101], [-72.81577, 18.14189], [-72.78692, 18.14735], [-72.77961, 18.16027], [-72.74916, 18.15441], [-72.74843, 18.16043], [-72.76091, 18.1706], [-72.75025, 18.18391], [-72.71305, 18.17497], [-72.70225, 18.18198], [-72.69567, 18.1793], [-72.67338, 18.18705], [-72.66155, 18.18391], [-72.63964, 18.19143], [-72.59417, 18.17801], [-72.58319, 18.18003], [-72.56811, 18.17152], [-72.55324, 18.17224], [-72.54374, 18.17636], [-72.54147, 18.19008], [-72.55388, 18.1994], [-72.5581, 18.22227], [-72.54075, 18.23232], [-72.51418, 18.21437], [-72.48929, 18.22452], [-72.47836, 18.21944], [-72.46822, 18.22495], [-72.42312, 18.22487], [-72.37155, 18.23492], [-72.31643, 18.2312], [-72.29907, 18.22219], [-72.27486, 18.22848], [-72.21562, 18.22102], [-72.15948, 18.23173], [-72.12577, 18.22908], [-72.08851, 18.23416], [-72.08378, 18.23893], [-72.05176, 18.23732], [-72.04002, 18.23164], [-72.0341, 18.2172], [-72.00978, 18.20554], [-72.00024, 18.21401], [-71.98543, 18.20202], [-71.92084, 18.18566], [-71.91168, 18.17027], [-71.86307, 18.14054], [-71.8497, 18.12146], [-71.81793, 18.09646], [-71.81314, 18.07414], [-71.76025, 18.03184], [-71.74514, 18.0523], [-71.7357, 18.07885], [-71.74058, 18.08937], [-71.73629, 18.09589], [-71.7467, 18.10039], [-71.75056, 18.11257], [-71.74384, 18.1317], [-71.75198, 18.13878], [-71.74665, 18.14084], [-71.74731, 18.14773], [-71.75467, 18.14195], [-71.76883, 18.1617], [-71.76632, 18.16798], [-71.78329, 18.16882], [-71.7875, 18.18061], [-71.78143, 18.19313], [-71.77227, 18.19791], [-71.76909, 18.21985], [-71.75767, 18.22692], [-71.75741, 18.23987], [-71.72496, 18.29228], [-71.75045, 18.2925], [-71.78031, 18.28302], [-71.80624, 18.28652], [-71.81991, 18.27898], [-71.83798, 18.2828], [-71.8461, 18.27562], [-71.8701, 18.27329], [-71.86198, 18.31922], [-71.87164, 18.32424], [-71.93359, 18.30702], [-71.95267, 18.31739], [-72.00226, 18.31165], [-72.00396, 18.31795], [-72.0327, 18.31966], [-72.03926, 18.3276], [-72.04181, 18.32065], [-72.05582, 18.32647], [-72.06742, 18.32033], [-72.09027, 18.33765], [-72.12764, 18.33645], [-72.15982, 18.34869], [-72.17927, 18.34647], [-72.18991, 18.35333], [-72.21815, 18.34853], [-72.25728, 18.35829], [-72.28064, 18.35438], [-72.29113, 18.34146], [-72.32682, 18.34105], [-72.36477, 18.35298], [-72.3697, 18.36645], [-72.3671, 18.37806], [-72.38346, 18.38014], [-72.38901, 18.3916], [-72.40985, 18.37879], [-72.43501, 18.37332], [-72.43631, 18.37961], [-72.42352, 18.40113], [-72.44518, 18.39658], [-72.50291, 18.40569], [-72.52003, 18.39504], [-72.53463, 18.37078], [-72.55096, 18.36516], [-72.55275, 18.35194], [-72.5636, 18.3547], [-72.56433, 18.34703], [-72.587, 18.35206], [-72.60139, 18.3242], [-72.60826, 18.32287], [-72.6223, 18.34444], [-72.64195, 18.34559], [-72.64364, 18.32803], [-72.65902, 18.32429], [-72.67065, 18.33033], [-72.6874, 18.32264], [-72.70297, 18.30804], [-72.71127, 18.30896], [-72.70672, 18.30024], [-72.71044, 18.296], [-72.72156, 18.31148], [-72.74141, 18.32242], [-72.74123, 18.2887], [-72.74842, 18.29059], [-72.76129, 18.28151]]]}, "properties": {"atmart_geo_id": "HTD-02", "pcode": "HT02", "nom_fr": "Sud-Est", "nom_ht": "Sidès", "niveau_admin": "1"}}, {"type": "Feature", "geometry": {"type": "MultiPolygon", "coordinates": [[[[-72.62698, 18.97347], [-72.63442, 18.97629], [-72.63803, 18.97088], [-72.65761, 18.96738], [-72.66437, 18.97217], [-72.67861, 18.96859], [-72.68158, 18.97306], [-72.70999, 18.94234], [-72.69035, 18.94115], [-72.6351, 18.90642], [-72.61925, 18.88727], [-72.61091, 18.85939], [-72.59823, 18.85773], [-72.57617, 18.83398], [-72.56071, 18.7963], [-72.54871, 18.78984], [-72.54268, 18.77702], [-72.51869, 18.76727], [-72.49647, 18.76462], [-72.48824, 18.7689], [-72.46677, 18.75838], [-72.45779, 18.74735], [-72.45885, 18.73361], [-72.45289, 18.73141], [-72.45015, 18.71966], [-72.42673, 18.71357], [-72.39479, 18.71458], [-72.35183, 18.68719], [-72.32154, 18.67916], [-72.31904, 18.65876], [-72.33123, 18.65314], [-72.34715, 18.62748], [-72.35909, 18.6287], [-72.35086, 18.62306], [-72.34591, 18.59744], [-72.3387, 18.593], [-72.33887, 18.57465], [-72.34524, 18.57497], [-72.35286, 18.56632], [-72.3471, 18.56355], [-72.35203, 18.55834], [-72.34768, 18.55562], [-72.34922, 18.54418], [-72.36082, 18.5339], [-72.37558, 18.53242], [-72.39464, 18.54879], [-72.41844, 18.5558], [-72.43038, 18.54181], [-72.47313, 18.54864], [-72.54092, 18.54431], [-72.55247, 18.55295], [-72.55339, 18.56087], [-72.57905, 18.5653], [-72.60483, 18.55976], [-72.62632, 18.55111], [-72.65238, 18.52451], [-72.6796, 18.45212], [-72.69527, 18.43866], [-72.73012, 18.42591], [-72.76158, 18.43346], [-72.79143, 18.43017], [-72.81418, 18.44233], [-72.84918, 18.44485], [-72.87527, 18.42555], [-72.89185, 18.42448], [-72.90275, 18.4411], [-72.89001, 18.44237], [-72.89497, 18.44715], [-72.9314, 18.45805], [-72.98708, 18.46796], [-73.04231, 18.4648], [-73.05446, 18.45414], [-73.04457, 18.4375], [-73.05403, 18.4333], [-73.03743, 18.40918], [-73.03588, 18.39775], [-73.01901, 18.38311], [-73.02557, 18.37467], [-73.01089, 18.36065], [-73.02015, 18.34851], [-73.01309, 18.33624], [-72.98682, 18.32085], [-72.98412, 18.30461], [-72.96584, 18.27809], [-72.95824, 18.27839], [-72.95291, 18.29347], [-72.93482, 18.29285], [-72.92948, 18.28668], [-72.8897, 18.29512], [-72.89621, 18.28775], [-72.8593, 18.25907], [-72.85056, 18.26103], [-72.85627, 18.2812], [-72.83144, 18.28226], [-72.82753, 18.28935], [-72.80864, 18.28678], [-72.79474, 18.27548], [-72.76498, 18.26698], [-72.76633, 18.27391], [-72.75692, 18.28668], [-72.74123, 18.2887], [-72.74176, 18.32229], [-72.72156, 18.31148], [-72.71044, 18.296], [-72.70672, 18.30024], [-72.71127, 18.30896], [-72.70297, 18.30804], [-72.6874, 18.32264], [-72.67065, 18.33033], [-72.65902, 18.32429], [-72.64364, 18.32803], [-72.64195, 18.34559], [-72.6223, 18.34444], [-72.60826, 18.32287], [-72.60139, 18.3242], [-72.587, 18.35206], [-72.56433, 18.34703], [-72.5636, 18.3547], [-72.55275, 18.35194], [-72.55096, 18.36516], [-72.53463, 18.37078], [-72.52003, 18.39504], [-72.50291, 18.40569], [-72.44518, 18.39658], [-72.42352, 18.40113], [-72.43631, 18.37961], [-72.43501, 18.37332], [-72.40985, 18.37879], [-72.38901, 18.3916], [-72.38346, 18.38014], [-72.3671, 18.37806], [-72.3697, 18.36645], [-72.36477, 18.35298], [-72.32682, 18.34105], [-72.29113, 18.34146], [-72.28064, 18.35438], [-72.25728, 18.35829], [-72.21815, 18.34853], [-72.18991, 18.35333], [-72.17927, 18.34647], [-72.15982, 18.34869], [-72.12764, 18.33645], [-72.09027, 18.33765], [-72.06742, 18.32033], [-72.05582, 18.32647], [-72.04181, 18.32065], [-72.03926, 18.3276], [-72.0327, 18.31966], [-72.00396, 18.31795], [-72.00226, 18.31165], [-71.95267, 18.31739], [-71.93359, 18.30702], [-71.87164, 18.32424], [-71.86198, 18.31922], [-71.8701, 18.27329], [-71.8461, 18.27562], [-71.83798, 18.2828], [-71.81991, 18.27898], [-71.80624, 18.28652], [-71.78031, 18.28302], [-71.75045, 18.2925], [-71.72496, 18.29228], [-71.69526, 18.34072], [-71.79535, 18.37891], [-71.80336, 18.39252], [-71.82984, 18.39896], [-71.84405, 18.42934], [-71.90457, 18.45728], [-71.91374, 18.48536], [-71.88076, 18.49033], [-71.88083, 18.50382], [-71.95515, 18.57918], [-71.96515, 18.60352], [-71.97558, 18.60546], [-71.98634, 18.619], [-72.00042, 18.61759], [-72.00825, 18.62511], [-71.98239, 18.63633], [-71.96639, 18.65676], [-71.92572, 18.63489], [-71.9083, 18.64912], [-71.88427, 18.63662], [-71.88056, 18.62721], [-71.8734, 18.62801], [-71.86857, 18.63766], [-71.85232, 18.63586], [-71.84436, 18.62946], [-71.81538, 18.63071], [-71.80715, 18.63545], [-71.80957, 18.66143], [-71.80164, 18.68082], [-71.82902, 18.70462], [-71.8533, 18.71882], [-71.89351, 18.71955], [-71.92095, 18.73139], [-71.92597, 18.73896], [-71.96091, 18.74093], [-71.9711, 18.74684], [-71.97786, 18.73411], [-71.98854, 18.73772], [-72.00531, 18.73007], [-72.00944, 18.73699], [-72.01708, 18.72417], [-72.02759, 18.72692], [-72.04423, 18.71934], [-72.06814, 18.72076], [-72.07355, 18.73669], [-72.09172, 18.71056], [-72.11552, 18.70361], [-72.12721, 18.7064], [-72.14938, 18.69533], [-72.16658, 18.70265], [-72.1973, 18.73218], [-72.20117, 18.74184], [-72.19393, 18.75152], [-72.19984, 18.75852], [-72.20681, 18.75805], [-72.21787, 18.77375], [-72.22498, 18.77243], [-72.27902, 18.79754], [-72.2724, 18.80405], [-72.28171, 18.81663], [-72.30311, 18.81821], [-72.3194, 18.81166], [-72.33575, 18.83835], [-72.36033, 18.85595], [-72.36184, 18.86423], [-72.39222, 18.89323], [-72.41482, 18.90363], [-72.43564, 18.92346], [-72.45496, 18.91983], [-72.45949, 18.92725], [-72.46702, 18.92582], [-72.49575, 18.95895], [-72.53652, 18.95734], [-72.59107, 18.97331], [-72.62698, 18.97347]]], [[[-73.20477, 18.96978], [-73.25884, 18.96606], [-73.30051, 18.93748], [-73.29818, 18.93088], [-73.30381, 18.92557], [-73.29794, 18.9079], [-73.26558, 18.88647], [-73.23835, 18.85011], [-73.22849, 18.84861], [-73.21751, 18.83524], [-73.19201, 18.83668], [-73.12606, 18.81796], [-73.10095, 18.79897], [-73.07626, 18.79559], [-73.07154, 18.78578], [-73.03671, 18.75651], [-72.99965, 18.74429], [-72.92178, 18.73981], [-72.85001, 18.71732], [-72.83889, 18.72114], [-72.83658, 18.70358], [-72.82361, 18.69272], [-72.8061, 18.70507], [-72.81874, 18.72164], [-72.79304, 18.73545], [-72.8043, 18.75278], [-72.8061, 18.77747], [-72.8224, 18.80419], [-72.85206, 18.82891], [-72.8462, 18.83366], [-72.90358, 18.8504], [-72.9372, 18.85452], [-72.99176, 18.88254], [-72.99989, 18.89456], [-73.04196, 18.91118], [-73.05871, 18.9255], [-73.11437, 18.9316], [-73.17991, 18.96347], [-73.20477, 18.96978]]]]}, "properties": {"atmart_geo_id": "HTD-01", "pcode": "HT01", "nom_fr": "Ouest", "nom_ht": "Lwès", "niveau_admin": "1"}}]}
