{"type":"FeatureCollection","features":[{"type":"Feature","properties":{"nom_fr":"Haïti","nom_ht":"Ayiti","pcode":"HT","source":"CNIGS / UN OCHA COD-AB Haïti (couche admin0)","licence":"CC BY 3.0 IGO","traitement":"Simplification Douglas-Peucker, tolérance 0.004 degré (~400 m) ; îlots de moins de 0.0009 degré carré écartés. Contour national uniquement : le découpage administratif n'est pas inclus.","version":"v1.2026.07"},"geometry":{"type":"MultiPolygon","coordinates":[[[[-72.81638,19.95254],[-72.83145,19.94084],[-72.85004,19.94396],[-72.87183,19.93145],[-72.89119,19.93598],[-72.9451,19.92684],[-72.95607,19.92174],[-72.95896,19.90957],[-72.97374,19.92413],[-73.00209,19.91716],[-73.02973,19.92205],[-73.02647,19.91563],[-73.03192,19.90934],[-73.04519,19.91908],[-73.16468,19.93021],[-73.22928,19.88922],[-73.23983,19.87536],[-73.30355,19.85772],[-73.34061,19.83795],[-73.36708,19.84597],[-73.40816,19.84309],[-73.42146,19.82898],[-73.41316,19.82044],[-73.37403,19.82016],[-73.36411,19.83537],[-73.3599,19.83355],[-73.36972,19.81178],[-73.38524,19.79936],[-73.41025,19.79102],[-73.42492,19.79676],[-73.45262,19.75974],[-73.45475,19.69238],[-73.41597,19.64901],[-73.3639,19.62316],[-73.2693,19.63373],[-73.23537,19.62912],[-73.22344,19.6385],[-73.21857,19.65733],[-73.20697,19.66193],[-73.17917,19.63889],[-73.1446,19.62561],[-73.1274,19.62283],[-73.11741,19.63787],[-73.10271,19.64216],[-73.05338,19.63032],[-73.01519,19.60606],[-73.00292,19.60468],[-72.99396,19.61376],[-72.99823,19.60203],[-72.98174,19.59018],[-72.97721,19.59476],[-72.97838,19.58723],[-72.96214,19.57553],[-72.9209,19.56214],[-72.88702,19.54161],[-72.86772,19.53974],[-72.8196,19.51291],[-72.78284,19.47646],[-72.7704,19.45358],[-72.74466,19.44485],[-72.73184,19.44738],[-72.72556,19.4575],[-72.71435,19.4494],[-72.70921,19.4541],[-72.71387,19.45473],[-72.69706,19.4589],[-72.70331,19.45513],[-72.69701,19.4519],[-72.70041,19.42786],[-72.68214,19.41203],[-72.68368,19.40465],[-72.702,19.39337],[-72.7104,19.40167],[-72.70446,19.40984],[-72.71744,19.41519],[-72.71371,19.42263],[-72.71861,19.43116],[-72.72967,19.40311],[-72.71559,19.39694],[-72.71112,19.38659],[-72.7332,19.36293],[-72.74811,19.37535],[-72.76511,19.37187],[-72.77363,19.3458],[-72.76968,19.34019],[-72.75995,19.34414],[-72.76106,19.32964],[-72.74765,19.32131],[-72.72842,19.32572],[-72.72498,19.32121],[-72.73238,19.31099],[-72.7194,19.30524],[-72.73376,19.3072],[-72.73247,19.29749],[-72.72198,19.30291],[-72.71658,19.29139],[-72.7249,19.28304],[-72.73639,19.29352],[-72.74719,19.27796],[-72.7735,19.28432],[-72.76729,19.27059],[-72.77405,19.26895],[-72.77654,19.24119],[-72.78674,19.23485],[-72.77698,19.22677],[-72.76885,19.24356],[-72.75208,19.23295],[-72.767,19.23233],[-72.7797,19.21948],[-72.77995,19.22535],[-72.78345,19.21964],[-72.7996,19.22124],[-72.77741,19.19654],[-72.76213,19.16462],[-72.74157,19.14705],[-72.70022,19.12817],[-72.70266,19.10729],[-72.72978,19.08828],[-72.77081,19.09301],[-72.80603,19.08037],[-72.82223,19.06468],[-72.82163,19.04555],[-72.81085,19.03081],[-72.76308,19.01405],[-72.73927,18.99216],[-72.72742,18.95331],[-72.66409,18.92825],[-72.6351,18.90642],[-72.61925,18.88727],[-72.61091,18.85939],[-72.59823,18.85773],[-72.57617,18.83398],[-72.56071,18.7963],[-72.54871,18.78984],[-72.54268,18.77702],[-72.51869,18.76727],[-72.48824,18.7689],[-72.46677,18.75838],[-72.45015,18.71966],[-72.39479,18.71458],[-72.35183,18.68719],[-72.32154,18.67916],[-72.31904,18.65876],[-72.33123,18.65314],[-72.34715,18.62748],[-72.35909,18.6287],[-72.35086,18.62306],[-72.34591,18.59744],[-72.3387,18.593],[-72.33887,18.57465],[-72.35286,18.56632],[-72.3471,18.56355],[-72.35203,18.55834],[-72.34922,18.54418],[-72.36082,18.5339],[-72.37558,18.53242],[-72.39464,18.54879],[-72.41844,18.5558],[-72.43038,18.54181],[-72.47313,18.54864],[-72.54092,18.54431],[-72.55247,18.55295],[-72.55339,18.56087],[-72.58126,18.565],[-72.62632,18.55111],[-72.65238,18.52451],[-72.67511,18.45911],[-72.69527,18.43866],[-72.74,18.42593],[-72.76158,18.43346],[-72.79143,18.43017],[-72.81418,18.44233],[-72.84918,18.44485],[-72.87527,18.42555],[-72.89185,18.42448],[-72.90275,18.4411],[-72.89001,18.44237],[-72.89497,18.44715],[-72.96288,18.46463],[-73.04231,18.4648],[-73.06978,18.45806],[-73.0735,18.44676],[-73.0848,18.44949],[-73.09148,18.44289],[-73.10515,18.44662],[-73.1061,18.45644],[-73.11636,18.45818],[-73.11393,18.46211],[-73.1247,18.46247],[-73.12001,18.46588],[-73.12519,18.46664],[-73.12522,18.47494],[-73.16035,18.48551],[-73.18867,18.4897],[-73.23941,18.47619],[-73.294,18.48315],[-73.33087,18.50335],[-73.45745,18.52869],[-73.47101,18.52255],[-73.52052,18.52924],[-73.52813,18.51756],[-73.53891,18.52403],[-73.55905,18.50986],[-73.56403,18.51297],[-73.57066,18.50524],[-73.57912,18.50956],[-73.57844,18.50445],[-73.58772,18.50148],[-73.6229,18.49951],[-73.63633,18.50643],[-73.66176,18.49912],[-73.67298,18.5093],[-73.66004,18.53287],[-73.66351,18.54119],[-73.6807,18.54485],[-73.68455,18.53644],[-73.68432,18.54502],[-73.69287,18.53939],[-73.69382,18.54553],[-73.71069,18.54064],[-73.7249,18.54557],[-73.71664,18.55128],[-73.71046,18.54402],[-73.69865,18.55356],[-73.68253,18.5538],[-73.68027,18.56021],[-73.68815,18.5657],[-73.66171,18.55987],[-73.66612,18.55312],[-73.64436,18.55437],[-73.64356,18.56043],[-73.59224,18.55265],[-73.57747,18.56137],[-73.56414,18.58417],[-73.57776,18.58931],[-73.61719,18.58544],[-73.65618,18.57244],[-73.70269,18.57705],[-73.73173,18.56271],[-73.7339,18.55737],[-73.71941,18.5586],[-73.72112,18.55178],[-73.78989,18.535],[-73.79355,18.54836],[-73.80374,18.54951],[-73.81411,18.56108],[-73.81724,18.55724],[-73.83456,18.56347],[-73.84177,18.57208],[-73.85012,18.56617],[-73.85545,18.57264],[-73.90317,18.56641],[-73.90434,18.57691],[-73.90827,18.57268],[-73.91874,18.581],[-73.90913,18.58786],[-73.92714,18.59426],[-73.93999,18.58822],[-73.96274,18.60162],[-74.00444,18.59925],[-74.06704,18.61119],[-74.10845,18.63604],[-74.10883,18.64575],[-74.13475,18.66172],[-74.21486,18.67483],[-74.24703,18.66517],[-74.25973,18.67042],[-74.27946,18.64785],[-74.29682,18.66192],[-74.3075,18.65944],[-74.30935,18.64963],[-74.33001,18.65536],[-74.36755,18.63594],[-74.38573,18.64402],[-74.39517,18.6272],[-74.40717,18.62994],[-74.4248,18.61619],[-74.42893,18.60518],[-74.41634,18.59439],[-74.41497,18.58207],[-74.42576,18.55779],[-74.43625,18.54886],[-74.43564,18.53787],[-74.44483,18.53235],[-74.44216,18.51571],[-74.45948,18.49904],[-74.46286,18.49079],[-74.45294,18.48634],[-74.45313,18.47116],[-74.48018,18.429],[-74.4727,18.42006],[-74.4804,18.41553],[-74.46433,18.41317],[-74.44892,18.39704],[-74.44766,18.34997],[-74.40208,18.33421],[-74.39731,18.32551],[-74.40188,18.31918],[-74.3838,18.31433],[-74.36759,18.29582],[-74.31161,18.28499],[-74.25755,18.31155],[-74.22981,18.3111],[-74.20909,18.29724],[-74.18887,18.29687],[-74.16794,18.28025],[-74.16675,18.27303],[-74.09211,18.24803],[-74.08475,18.23545],[-74.06225,18.22682],[-74.05221,18.21023],[-74.0052,18.18119],[-74.00083,18.16583],[-73.97963,18.16367],[-73.97482,18.14622],[-73.96094,18.13342],[-73.95,18.13179],[-73.9397,18.09932],[-73.91761,18.07838],[-73.91713,18.06436],[-73.90284,18.04347],[-73.90429,18.03275],[-73.87632,18.0223],[-73.82728,18.02687],[-73.80483,18.0226],[-73.78853,18.02921],[-73.79089,18.03842],[-73.78288,18.04333],[-73.78594,18.05421],[-73.80689,18.06719],[-73.81371,18.08118],[-73.84022,18.10218],[-73.84335,18.12268],[-73.82008,18.15134],[-73.73809,18.19278],[-73.71827,18.2104],[-73.70169,18.21259],[-73.69677,18.23634],[-73.67746,18.23809],[-73.67311,18.22349],[-73.64654,18.25369],[-73.64115,18.24542],[-73.65046,18.22755],[-73.66092,18.22796],[-73.66413,18.21568],[-73.65746,18.21059],[-73.6332,18.2235],[-73.63203,18.2507],[-73.62185,18.24888],[-73.60957,18.25673],[-73.59992,18.24326],[-73.61266,18.23724],[-73.61962,18.21691],[-73.59544,18.21459],[-73.58499,18.22382],[-73.58585,18.2359],[-73.57883,18.21743],[-73.56722,18.21606],[-73.55886,18.2275],[-73.57532,18.24968],[-73.56323,18.25959],[-73.54257,18.25886],[-73.53131,18.23292],[-73.50694,18.23257],[-73.49473,18.2404],[-73.50786,18.2451],[-73.492,18.25611],[-73.48157,18.25722],[-73.47494,18.25],[-73.47527,18.25734],[-73.45903,18.26174],[-73.4516,18.25517],[-73.45057,18.26688],[-73.44356,18.25878],[-73.44278,18.2654],[-73.4347,18.26527],[-73.43075,18.25394],[-73.40725,18.24922],[-73.40393,18.25658],[-73.41,18.26118],[-73.40317,18.26069],[-73.4047,18.26586],[-73.39772,18.26385],[-73.39239,18.27013],[-73.39072,18.26105],[-73.39007,18.28043],[-73.38345,18.26828],[-73.38303,18.27311],[-73.35077,18.2531],[-73.36579,18.23829],[-73.37001,18.21752],[-73.3583,18.21681],[-73.35474,18.22431],[-73.34333,18.21933],[-73.30852,18.23029],[-73.27829,18.23211],[-73.26662,18.21522],[-73.17192,18.21137],[-73.14065,18.19696],[-73.0556,18.18254],[-73.00795,18.18695],[-72.9956,18.17686],[-72.96254,18.16748],[-72.93156,18.1677],[-72.88553,18.14894],[-72.85405,18.14379],[-72.84587,18.15101],[-72.8218,18.14199],[-72.79034,18.14582],[-72.77961,18.16027],[-72.74916,18.15441],[-72.74843,18.16043],[-72.76091,18.1706],[-72.75025,18.18391],[-72.71305,18.17497],[-72.70225,18.18198],[-72.66155,18.18391],[-72.63964,18.19143],[-72.55324,18.17224],[-72.54374,18.17636],[-72.54147,18.19008],[-72.55388,18.1994],[-72.5581,18.22227],[-72.54075,18.23232],[-72.51418,18.21437],[-72.48929,18.22452],[-72.47836,18.21944],[-72.37155,18.23492],[-72.31643,18.2312],[-72.29907,18.22219],[-72.27486,18.22848],[-72.21562,18.22102],[-72.15948,18.23173],[-72.12577,18.22908],[-72.08378,18.23893],[-72.05176,18.23732],[-72.04002,18.23164],[-72.0341,18.2172],[-72.00978,18.20554],[-72.00024,18.21401],[-71.98543,18.20202],[-71.92084,18.18566],[-71.91168,18.17027],[-71.86307,18.14054],[-71.8497,18.12146],[-71.81793,18.09646],[-71.81314,18.07414],[-71.75942,18.0317],[-71.7382,18.0694],[-71.73629,18.09589],[-71.7467,18.10039],[-71.75031,18.11139],[-71.74384,18.1317],[-71.75198,18.13878],[-71.74731,18.14773],[-71.75467,18.14195],[-71.76883,18.1617],[-71.76632,18.16798],[-71.78329,18.16882],[-71.78653,18.18636],[-71.77227,18.19791],[-71.76909,18.21985],[-71.75767,18.22692],[-71.75741,18.23987],[-71.69526,18.34072],[-71.79535,18.37891],[-71.80336,18.39252],[-71.82984,18.39896],[-71.84405,18.42934],[-71.90457,18.45728],[-71.91374,18.48536],[-71.88076,18.49033],[-71.88083,18.50382],[-71.95515,18.57918],[-71.96515,18.60352],[-71.97558,18.60546],[-71.98634,18.619],[-72.00042,18.61759],[-72.00825,18.62511],[-71.98239,18.63633],[-71.96639,18.65676],[-71.92572,18.63489],[-71.9083,18.64912],[-71.88427,18.63662],[-71.88056,18.62721],[-71.8734,18.62801],[-71.86857,18.63766],[-71.84436,18.62946],[-71.81538,18.63071],[-71.80715,18.63545],[-71.80422,18.68539],[-71.78588,18.69207],[-71.78382,18.7062],[-71.73798,18.72229],[-71.72204,18.80434],[-71.72303,18.88082],[-71.73751,18.87797],[-71.73916,18.89145],[-71.76818,18.90697],[-71.78188,18.95487],[-71.80229,18.95442],[-71.81436,18.96481],[-71.82612,18.96398],[-71.82291,18.96941],[-71.83316,18.96286],[-71.83707,18.97039],[-71.84419,18.96331],[-71.83988,18.95842],[-71.84852,18.96354],[-71.85436,18.95457],[-71.861,18.96369],[-71.86108,18.94772],[-71.87508,18.949],[-71.87973,18.94184],[-71.88588,18.95539],[-71.87484,18.95826],[-71.87595,18.97204],[-71.86875,18.97454],[-71.86817,18.98193],[-71.85687,18.97725],[-71.85234,18.99302],[-71.84402,18.99136],[-71.83346,19.00592],[-71.82617,18.99355],[-71.79913,19.00518],[-71.7984,18.99619],[-71.78909,18.99328],[-71.79098,19.00797],[-71.77586,19.01302],[-71.78274,19.01755],[-71.77092,19.03181],[-71.76114,19.02743],[-71.76388,19.03476],[-71.75228,19.04622],[-71.74053,19.0434],[-71.71668,19.06013],[-71.72102,19.06614],[-71.71637,19.07123],[-71.71015,19.06732],[-71.70186,19.07325],[-71.71288,19.08224],[-71.69731,19.08718],[-71.70717,19.10016],[-71.70262,19.10669],[-71.68493,19.10305],[-71.67927,19.10954],[-71.68259,19.1172],[-71.65432,19.1156],[-71.64608,19.13567],[-71.6569,19.14367],[-71.64045,19.14694],[-71.6468,19.15268],[-71.6424,19.15703],[-71.64637,19.16872],[-71.63375,19.16896],[-71.64731,19.17672],[-71.62765,19.18188],[-71.63964,19.19302],[-71.63836,19.2012],[-71.62215,19.20615],[-71.6337,19.20795],[-71.6286,19.21122],[-71.63976,19.22957],[-71.66517,19.22931],[-71.69701,19.24083],[-71.70869,19.25971],[-71.7238,19.26773],[-71.72556,19.27841],[-71.7317,19.2623],[-71.73891,19.27881],[-71.74825,19.27459],[-71.75486,19.28033],[-71.75326,19.28834],[-71.76109,19.29157],[-71.75609,19.29908],[-71.76427,19.30369],[-71.76869,19.32004],[-71.78573,19.33103],[-71.75266,19.33975],[-71.74826,19.35364],[-71.72446,19.36666],[-71.71819,19.36292],[-71.7141,19.37174],[-71.7013,19.35964],[-71.69373,19.36042],[-71.69103,19.37188],[-71.69816,19.3961],[-71.67973,19.43434],[-71.67993,19.45158],[-71.69424,19.47722],[-71.68862,19.51323],[-71.69929,19.51243],[-71.7029,19.53366],[-71.71284,19.5339],[-71.71322,19.55144],[-71.74316,19.58478],[-71.74577,19.63388],[-71.73246,19.6464],[-71.73534,19.66176],[-71.75626,19.67609],[-71.76103,19.70471],[-71.83583,19.71447],[-71.84419,19.71211],[-71.84095,19.68759],[-71.82307,19.68088],[-71.81878,19.6844],[-71.81006,19.67553],[-71.81848,19.67269],[-71.81184,19.66715],[-71.82028,19.66779],[-71.81669,19.65085],[-71.82474,19.64856],[-71.82588,19.66232],[-71.84087,19.67569],[-71.87868,19.66069],[-71.88876,19.67199],[-71.8975,19.6689],[-71.88731,19.68153],[-71.90066,19.67862],[-71.90517,19.68735],[-71.88376,19.68598],[-71.87557,19.6796],[-71.86311,19.69108],[-71.85145,19.69107],[-71.8457,19.70766],[-71.85101,19.71624],[-71.93788,19.7302],[-71.94779,19.72695],[-71.96607,19.73484],[-71.98862,19.73207],[-71.98456,19.72857],[-71.99189,19.72622],[-71.99323,19.69796],[-72.00667,19.7061],[-72.0189,19.6969],[-72.04133,19.70009],[-72.039,19.69236],[-72.05242,19.68975],[-72.06462,19.69884],[-72.03627,19.70764],[-72.03648,19.72739],[-72.04533,19.73696],[-72.0492,19.73531],[-72.04462,19.73026],[-72.06177,19.71799],[-72.06684,19.70242],[-72.07808,19.70317],[-72.07619,19.70882],[-72.0813,19.70964],[-72.07833,19.7147],[-72.0635,19.71414],[-72.05556,19.73166],[-72.09343,19.72618],[-72.11475,19.7301],[-72.1283,19.75086],[-72.15235,19.75724],[-72.14567,19.74315],[-72.17254,19.74775],[-72.17402,19.74138],[-72.18935,19.74053],[-72.20157,19.74776],[-72.18901,19.78255],[-72.19774,19.78838],[-72.22765,19.78295],[-72.24777,19.78878],[-72.24308,19.77443],[-72.25947,19.77531],[-72.2582,19.75963],[-72.28488,19.76842],[-72.3039,19.76112],[-72.31885,19.77008],[-72.31101,19.74794],[-72.31975,19.74549],[-72.30808,19.73906],[-72.31384,19.73563],[-72.31022,19.71053],[-72.31935,19.70691],[-72.33748,19.72319],[-72.34202,19.75024],[-72.33133,19.74289],[-72.33059,19.74991],[-72.32663,19.74598],[-72.33879,19.77141],[-72.37635,19.79882],[-72.38175,19.8172],[-72.38865,19.81676],[-72.39037,19.8055],[-72.40807,19.80458],[-72.42952,19.81954],[-72.4249,19.82607],[-72.43061,19.8307],[-72.43313,19.82135],[-72.44464,19.81741],[-72.47022,19.83301],[-72.46792,19.82507],[-72.47967,19.82147],[-72.48912,19.83416],[-72.49385,19.81965],[-72.50738,19.84669],[-72.51829,19.83978],[-72.52244,19.85006],[-72.53213,19.84955],[-72.55576,19.87127],[-72.55343,19.87645],[-72.57385,19.88705],[-72.58009,19.89727],[-72.62138,19.89342],[-72.63164,19.89729],[-72.63655,19.90786],[-72.64661,19.90626],[-72.65227,19.91366],[-72.68781,19.92085],[-72.7221,19.93666],[-72.78108,19.95169],[-72.81031,19.94812],[-72.81638,19.95254]]],[[[-73.20477,18.96978],[-73.25884,18.96606],[-73.30051,18.93748],[-73.29818,18.93088],[-73.30381,18.92557],[-73.29794,18.9079],[-73.26558,18.88647],[-73.23835,18.85011],[-73.22849,18.84861],[-73.21751,18.83524],[-73.19201,18.83668],[-73.12606,18.81796],[-73.10095,18.79897],[-73.07626,18.79559],[-73.03671,18.75651],[-72.99965,18.74429],[-72.92178,18.73981],[-72.85001,18.71732],[-72.83889,18.72114],[-72.83658,18.70358],[-72.82361,18.69272],[-72.8061,18.70507],[-72.81874,18.72164],[-72.79304,18.73545],[-72.8043,18.75278],[-72.8061,18.77747],[-72.8224,18.80419],[-72.85206,18.82891],[-72.8462,18.83366],[-72.9372,18.85452],[-73.05871,18.9255],[-73.11437,18.9316],[-73.20477,18.96978]]],[[[-72.79594,20.08583],[-72.86346,20.08689],[-72.96772,20.06493],[-72.95954,20.0553],[-72.87526,20.03279],[-72.81024,20.02852],[-72.69511,19.99775],[-72.64529,19.99235],[-72.62012,19.99683],[-72.64063,20.02223],[-72.66615,20.03896],[-72.79594,20.08583]]],[[[-73.75492,18.64331],[-73.76653,18.64314],[-73.79375,18.62624],[-73.79676,18.60324],[-73.79198,18.59785],[-73.7612,18.59302],[-73.74395,18.58174],[-73.71858,18.59209],[-73.70124,18.60803],[-73.70311,18.62715],[-73.75492,18.64331]]],[[[-73.70372,18.1093],[-73.70821,18.10535],[-73.70188,18.0952],[-73.70545,18.09273],[-73.6873,18.0831],[-73.67471,18.0597],[-73.58554,18.05624],[-73.57144,18.06804],[-73.58264,18.08728],[-73.60003,18.09958],[-73.63996,18.08296],[-73.70372,18.1093]]]]}}]}