{"type": "FeatureCollection", "titre": "Équipements télécom (OSM)", "source_id": "SRC-036", "source": "OpenStreetMap via Overpass — © contributeurs OSM", "licence": "ODbL", "millesime": "extrait le 15/08/2026", "limite": "Cartographie contributive : ce comptage recense les équipements présents dans OpenStreetMap, pas le parc réel des opérateurs. Une commune à zéro n'est pas une commune sans couverture.", "features": [{"type": "Feature", "geometry": {"type": "Point", "coordinates": [-72.296178, 18.661144]}, "properties": {"o": "?", "g": "site de communication"}}, {"type": "Feature", "geometry": {"type": "Point", "coordinates": [-72.26042, 18.504283]}, "properties": {"o": "?", "g": "site de communication"}}, {"type": "Feature", "geometry": {"type": "Point", "coordinates": [-72.257737, 18.505848]}, "properties": {"o": "?", "g": "site de communication"}}, {"type": "Feature", "geometry": {"type": "Point", "coordinates": [-72.535614, 18.23425]}, "properties": {"o": "?", "g": "bureau d'opérateur"}}, {"type": "Feature", "geometry": {"type": "Point", "coordinates": [-72.19945, 19.765966]}, "properties": {"o": "?", "g": "site de communication"}}, {"type": "Feature", "geometry": {"type": "Point", "coordinates": [-72.330071, 18.687678]}, "properties": {"o": "?", "g": "site de communication"}}, {"type": "Feature", "geometry": {"type": "Point", "coordinates": [-72.166502, 18.659788]}, "properties": {"o": "?", "g": "site de communication"}}, {"type": "Feature", "geometry": {"type": "Point", "coordinates": [-72.27911, 18.546962]}, "properties": {"o": "?", "g": "site de communication"}}, {"type": "Feature", "geometry": {"type": "Point", "coordinates": [-72.278611, 18.536783]}, "properties": {"o": "?", "g": "site de communication"}}, {"type": "Feature", "geometry": {"type": "Point", "coordinates": [-72.300036, 18.591261]}, "properties": {"o": "?", "g": "site de communication"}}, {"type": "Feature", "geometry": {"type": "Point", "coordinates": [-72.31498, 18.55681]}, "properties": {"o": "?", "g": "site de communication"}}, {"type": "Feature", "geometry": {"type": "Point", "coordinates": [-72.119068, 19.336975]}, "properties": {"o": "?", "g": "site de communication"}}, {"type": "Feature", "geometry": {"type": "Point", "coordinates": [-72.858033, 18.429185]}, "properties": {"o": "D", "g": "boutique mobile"}}, {"type": "Feature", "geometry": {"type": "Point", "coordinates": [-72.284471, 18.600406]}, "properties": {"o": "?", "g": "site de communication"}}, {"type": "Feature", "geometry": {"type": "Point", "coordinates": [-72.316325, 18.549763]}, "properties": {"o": "?", "g": "site de communication"}}, {"type": "Feature", "geometry": {"type": "Point", "coordinates": [-72.256294, 18.521113]}, "properties": {"o": "?", "g": "site de communication"}}, {"type": "Feature", "geometry": {"type": "Point", "coordinates": [-72.227211, 18.55366]}, "properties": {"o": "?", "g": "site de communication"}}, {"type": "Feature", "geometry": {"type": "Point", "coordinates": [-72.261198, 18.612276]}, "properties": {"o": "?", "g": "site de communication"}}, {"type": "Feature", "geometry": {"type": "Point", "coordinates": [-72.284703, 18.561823]}, "properties": {"o": "?", "g": "site de communication"}}, {"type": "Feature", "geometry": {"type": "Point", "coordinates": [-72.285744, 18.561543]}, "properties": {"o": "?", "g": "site de communication"}}, {"type": "Feature", "geometry": {"type": "Point", "coordinates": [-72.309116, 18.545834]}, "properties": {"o": "?", "g": "site de communication"}}, {"type": "Feature", "geometry": {"type": "Point", "coordinates": [-72.256284, 18.521225]}, "properties": {"o": "?", "g": "site de communication"}}, {"type": "Feature", "geometry": {"type": "Point", "coordinates": [-72.238175, 18.517193]}, "properties": {"o": "?", "g": "site de communication"}}, {"type": "Feature", "geometry": {"type": "Point", "coordinates": [-72.340519, 18.530697]}, "properties": {"o": "?", "g": "site de communication"}}, {"type": "Feature", "geometry": {"type": "Point", "coordinates": [-72.319129, 18.555277]}, "properties": {"o": "?", "g": "site de communication"}}, {"type": "Feature", "geometry": {"type": "Point", "coordinates": [-72.313053, 18.550379]}, "properties": {"o": "?", "g": "site de communication"}}, {"type": "Feature", "geometry": {"type": "Point", "coordinates": [-72.312962, 18.534391]}, "properties": {"o": "?", "g": "site de communication"}}, {"type": "Feature", "geometry": {"type": "Point", "coordinates": [-72.267178, 18.569413]}, "properties": {"o": "?", "g": "site de communication"}}, {"type": "Feature", "geometry": {"type": "Point", "coordinates": [-72.263345, 18.576232]}, "properties": {"o": "?", "g": "site de communication"}}, {"type": "Feature", "geometry": {"type": "Point", "coordinates": [-72.312961, 18.534373]}, "properties": {"o": "?", "g": "site de communication"}}, {"type": "Feature", "geometry": {"type": "Point", "coordinates": [-72.279333, 18.540331]}, "properties": {"o": "?", "g": "site de communication"}}, {"type": "Feature", "geometry": {"type": "Point", "coordinates": [-72.345683, 18.545547]}, "properties": {"o": "?", "g": "site de communication"}}, {"type": "Feature", "geometry": {"type": "Point", "coordinates": [-72.306616, 18.476024]}, "properties": {"o": "?", "g": "site de communication"}}, {"type": "Feature", "geometry": {"type": "Point", "coordinates": [-72.43397, 18.534277]}, "properties": {"o": "?", "g": "site de communication"}}, {"type": "Feature", "geometry": {"type": "Point", "coordinates": [-72.6195, 18.509438]}, "properties": {"o": "?", "g": "site de communication"}}, {"type": "Feature", "geometry": {"type": "Point", "coordinates": [-72.619814, 18.509253]}, "properties": {"o": "?", "g": "site de communication"}}, {"type": "Feature", "geometry": {"type": "Point", "coordinates": [-72.307045, 18.584438]}, "properties": {"o": "?", "g": "site de communication"}}, {"type": "Feature", "geometry": {"type": "Point", "coordinates": [-72.273802, 18.527888]}, "properties": {"o": "V", "g": "boutique mobile"}}, {"type": "Feature", "geometry": {"type": "Point", "coordinates": [-72.273882, 18.528459]}, "properties": {"o": "D", "g": "boutique mobile"}}, {"type": "Feature", "geometry": {"type": "Point", "coordinates": [-72.288312, 18.514969]}, "properties": {"o": "D", "g": "boutique mobile"}}, {"type": "Feature", "geometry": {"type": "Point", "coordinates": [-72.737501, 18.290814]}, "properties": {"o": "?", "g": "site de communication"}}, {"type": "Feature", "geometry": {"type": "Point", "coordinates": [-72.184405, 18.663522]}, "properties": {"o": "?", "g": "site de communication"}}, {"type": "Feature", "geometry": {"type": "Point", "coordinates": [-73.237871, 18.408885]}, "properties": {"o": "?", "g": "site de communication"}}, {"type": "Feature", "geometry": {"type": "Point", "coordinates": [-73.368424, 18.297479]}, "properties": {"o": "?", "g": "site de communication"}}, {"type": "Feature", "geometry": {"type": "Point", "coordinates": [-73.369454, 18.298803]}, "properties": {"o": "?", "g": "site de communication"}}, {"type": "Feature", "geometry": {"type": "Point", "coordinates": [-72.534875, 18.234569]}, "properties": {"o": "D", "g": "boutique mobile"}}, {"type": "Feature", "geometry": {"type": "Point", "coordinates": [-73.414727, 18.383926]}, "properties": {"o": "?", "g": "site de communication"}}, {"type": "Feature", "geometry": {"type": "Point", "coordinates": [-72.58847, 18.301087]}, "properties": {"o": "?", "g": "site de communication"}}, {"type": "Feature", "geometry": {"type": "Point", "coordinates": [-73.12168, 18.378841]}, "properties": {"o": "?", "g": "site de communication"}}, {"type": "Feature", "geometry": {"type": "Point", "coordinates": [-72.533094, 18.236822]}, "properties": {"o": "?", "g": "accès internet public"}}, {"type": "Feature", "geometry": {"type": "Point", "coordinates": [-72.523272, 18.235823]}, "properties": {"o": "?", "g": "accès internet public"}}, {"type": "Feature", "geometry": {"type": "Point", "coordinates": [-72.231873, 18.580815]}, "properties": {"o": "?", "g": "accès internet public"}}, {"type": "Feature", "geometry": {"type": "Point", "coordinates": [-72.231168, 18.584021]}, "properties": {"o": "?", "g": "accès internet public"}}, {"type": "Feature", "geometry": {"type": "Point", "coordinates": [-72.234287, 18.579678]}, "properties": {"o": "D", "g": "boutique mobile"}}, {"type": "Feature", "geometry": {"type": "Point", "coordinates": [-72.537796, 18.244159]}, "properties": {"o": "D", "g": "site de communication"}}, {"type": "Feature", "geometry": {"type": "Point", "coordinates": [-72.495965, 18.230181]}, "properties": {"o": "D", "g": "site de communication"}}, {"type": "Feature", "geometry": {"type": "Point", "coordinates": [-72.495404, 18.232659]}, "properties": {"o": "N", "g": "site de communication"}}, {"type": "Feature", "geometry": {"type": "Point", "coordinates": [-72.571896, 18.20715]}, "properties": {"o": "D", "g": "site de communication"}}, {"type": "Feature", "geometry": {"type": "Point", "coordinates": [-72.56959, 18.196098]}, "properties": {"o": "?", "g": "site de communication"}}, {"type": "Feature", "geometry": {"type": "Point", "coordinates": [-72.571776, 18.195564]}, "properties": {"o": "A", "g": "site de communication"}}, {"type": "Feature", "geometry": {"type": "Point", "coordinates": [-72.569609, 18.195963]}, "properties": {"o": "V", "g": "site de communication"}}, {"type": "Feature", "geometry": {"type": "Point", "coordinates": [-72.400258, 18.23213]}, "properties": {"o": "D", "g": "site de communication"}}, {"type": "Feature", "geometry": {"type": "Point", "coordinates": [-72.39894, 18.230525]}, "properties": {"o": "D", "g": "site de communication"}}, {"type": "Feature", "geometry": {"type": "Point", "coordinates": [-72.400941, 18.254691]}, "properties": {"o": "D", "g": "site de communication"}}, {"type": "Feature", "geometry": {"type": "Point", "coordinates": [-72.382657, 18.233229]}, "properties": {"o": "D", "g": "site de communication"}}, {"type": "Feature", "geometry": {"type": "Point", "coordinates": [-72.305973, 18.252226]}, "properties": {"o": "D", "g": "site de communication"}}, {"type": "Feature", "geometry": {"type": "Point", "coordinates": [-72.687096, 19.449059]}, "properties": {"o": "V", "g": "boutique mobile"}}, {"type": "Feature", "geometry": {"type": "Point", "coordinates": [-72.660534, 19.439429]}, "properties": {"o": "D", "g": "boutique mobile"}}, {"type": "Feature", "geometry": {"type": "Point", "coordinates": [-72.540648, 18.243743]}, "properties": {"o": "?", "g": "accès internet public"}}, {"type": "Feature", "geometry": {"type": "Point", "coordinates": [-72.559455, 18.265774]}, "properties": {"o": "D", "g": "site de communication"}}, {"type": "Feature", "geometry": {"type": "Point", "coordinates": [-72.513304, 18.328776]}, "properties": {"o": "D", "g": "site de communication"}}, {"type": "Feature", "geometry": {"type": "Point", "coordinates": [-72.22666, 18.577677]}, "properties": {"o": "N", "g": "boutique mobile"}}, {"type": "Feature", "geometry": {"type": "Point", "coordinates": [-71.752827, 18.868343]}, "properties": {"o": "?", "g": "bureau d'opérateur"}}, {"type": "Feature", "geometry": {"type": "Point", "coordinates": [-72.298019, 18.540747]}, "properties": {"o": "D", "g": "boutique mobile"}}, {"type": "Feature", "geometry": {"type": "Point", "coordinates": [-72.58057, 18.313947]}, "properties": {"o": "D", "g": "site de communication"}}, {"type": "Feature", "geometry": {"type": "Point", "coordinates": [-72.580575, 18.313619]}, "properties": {"o": "N", "g": "site de communication"}}, {"type": "Feature", "geometry": {"type": "Point", "coordinates": [-72.348175, 18.451274]}, "properties": {"o": "?", "g": "site de communication"}}, {"type": "Feature", "geometry": {"type": "Point", "coordinates": [-72.639935, 19.467242]}, "properties": {"o": "N", "g": "site de communication"}}, {"type": "Feature", "geometry": {"type": "Point", "coordinates": [-74.114253, 18.64502]}, "properties": {"o": "D", "g": "boutique mobile"}}, {"type": "Feature", "geometry": {"type": "Point", "coordinates": [-74.114307, 18.644843]}, "properties": {"o": "N", "g": "boutique mobile"}}, {"type": "Feature", "geometry": {"type": "Point", "coordinates": [-72.323362, 18.532982]}, "properties": {"o": "D", "g": "site de communication"}}, {"type": "Feature", "geometry": {"type": "Point", "coordinates": [-72.584949, 18.368272]}, "properties": {"o": "D", "g": "boutique mobile"}}, {"type": "Feature", "geometry": {"type": "Point", "coordinates": [-72.589483, 18.377511]}, "properties": {"o": "?", "g": "site de communication"}}, {"type": "Feature", "geometry": {"type": "Point", "coordinates": [-72.308377, 18.549515]}, "properties": {"o": "D", "g": "boutique mobile"}}, {"type": "Feature", "geometry": {"type": "Point", "coordinates": [-72.032206, 19.266101]}, "properties": {"o": "?", "g": "site de communication"}}, {"type": "Feature", "geometry": {"type": "Point", "coordinates": [-73.858446, 18.328086]}, "properties": {"o": "?", "g": "site de communication"}}, {"type": "Feature", "geometry": {"type": "Point", "coordinates": [-73.889243, 18.201978]}, "properties": {"o": "?", "g": "site de communication"}}, {"type": "Feature", "geometry": {"type": "Point", "coordinates": [-73.889721, 18.202392]}, "properties": {"o": "?", "g": "site de communication"}}, {"type": "Feature", "geometry": {"type": "Point", "coordinates": [-73.858257, 18.327986]}, "properties": {"o": "?", "g": "site de communication"}}, {"type": "Feature", "geometry": {"type": "Point", "coordinates": [-72.300026, 18.543598]}, "properties": {"o": "?", "g": "site de communication"}}, {"type": "Feature", "geometry": {"type": "Point", "coordinates": [-72.290463, 18.516352]}, "properties": {"o": "?", "g": "boutique mobile"}}, {"type": "Feature", "geometry": {"type": "Point", "coordinates": [-73.200562, 18.315578]}, "properties": {"o": "D", "g": "site de communication"}}, {"type": "Feature", "geometry": {"type": "Point", "coordinates": [-73.545976, 18.26334]}, "properties": {"o": "?", "g": "site de communication"}}, {"type": "Feature", "geometry": {"type": "Point", "coordinates": [-72.1511, 18.75093]}, "properties": {"o": "?", "g": "site de communication"}}, {"type": "Feature", "geometry": {"type": "Point", "coordinates": [-72.133012, 18.767776]}, "properties": {"o": "?", "g": "site de communication"}}, {"type": "Feature", "geometry": {"type": "Point", "coordinates": [-72.116363, 18.792302]}, "properties": {"o": "?", "g": "site de communication"}}, {"type": "Feature", "geometry": {"type": "Point", "coordinates": [-72.116102, 18.794402]}, "properties": {"o": "?", "g": "site de communication"}}, {"type": "Feature", "geometry": {"type": "Point", "coordinates": [-72.116122, 18.795852]}, "properties": {"o": "?", "g": "site de communication"}}, {"type": "Feature", "geometry": {"type": "Point", "coordinates": [-73.778795, 18.345335]}, "properties": {"o": "?", "g": "site de communication"}}, {"type": "Feature", "geometry": {"type": "Point", "coordinates": [-73.778868, 18.34536]}, "properties": {"o": "?", "g": "boutique mobile"}}, {"type": "Feature", "geometry": {"type": "Point", "coordinates": [-72.693114, 19.108605]}, "properties": {"o": "N", "g": "boutique mobile"}}, {"type": "Feature", "geometry": {"type": "Point", "coordinates": [-72.69402, 19.111183]}, "properties": {"o": "N", "g": "boutique mobile"}}, {"type": "Feature", "geometry": {"type": "Point", "coordinates": [-72.695099, 19.116427]}, "properties": {"o": "?", "g": "bureau d'opérateur"}}, {"type": "Feature", "geometry": {"type": "Point", "coordinates": [-73.393264, 18.281952]}, "properties": {"o": "?", "g": "site de communication"}}, {"type": "Feature", "geometry": {"type": "Point", "coordinates": [-72.009095, 19.146176]}, "properties": {"o": "?", "g": "bureau d'opérateur"}}, {"type": "Feature", "geometry": {"type": "Point", "coordinates": [-72.690199, 19.104005]}, "properties": {"o": "?", "g": "site de communication"}}, {"type": "Feature", "geometry": {"type": "Point", "coordinates": [-72.656509, 19.091945]}, "properties": {"o": "D", "g": "site de communication"}}, {"type": "Feature", "geometry": {"type": "Point", "coordinates": [-72.70976, 19.095644]}, "properties": {"o": "?", "g": "bureau d'opérateur"}}, {"type": "Feature", "geometry": {"type": "Point", "coordinates": [-72.6957, 19.105685]}, "properties": {"o": "?", "g": "bureau d'opérateur"}}, {"type": "Feature", "geometry": {"type": "Point", "coordinates": [-73.749562, 18.197046]}, "properties": {"o": "V", "g": "boutique mobile"}}, {"type": "Feature", "geometry": {"type": "Point", "coordinates": [-73.749052, 18.19632]}, "properties": {"o": "D", "g": "boutique mobile"}}, {"type": "Feature", "geometry": {"type": "Point", "coordinates": [-73.748876, 18.195443]}, "properties": {"o": "D", "g": "boutique mobile"}}, {"type": "Feature", "geometry": {"type": "Point", "coordinates": [-73.748954, 18.19518]}, "properties": {"o": "V", "g": "boutique mobile"}}, {"type": "Feature", "geometry": {"type": "Point", "coordinates": [-73.752214, 18.195821]}, "properties": {"o": "?", "g": "boutique mobile"}}, {"type": "Feature", "geometry": {"type": "Point", "coordinates": [-73.760737, 18.201411]}, "properties": {"o": "N", "g": "boutique mobile"}}, {"type": "Feature", "geometry": {"type": "Point", "coordinates": [-73.749476, 18.193128]}, "properties": {"o": "D", "g": "boutique mobile"}}, {"type": "Feature", "geometry": {"type": "Point", "coordinates": [-72.106251, 18.829979]}, "properties": {"o": "?", "g": "boutique mobile"}}, {"type": "Feature", "geometry": {"type": "Point", "coordinates": [-72.104247, 18.834583]}, "properties": {"o": "D", "g": "boutique mobile"}}, {"type": "Feature", "geometry": {"type": "Point", "coordinates": [-72.104807, 18.833499]}, "properties": {"o": "N", "g": "boutique mobile"}}, {"type": "Feature", "geometry": {"type": "Point", "coordinates": [-72.651473, 19.087472]}, "properties": {"o": "?", "g": "bureau d'opérateur"}}, {"type": "Feature", "geometry": {"type": "Point", "coordinates": [-73.654149, 18.299143]}, "properties": {"o": "V", "g": "boutique mobile"}}, {"type": "Feature", "geometry": {"type": "Point", "coordinates": [-73.65492, 18.298744]}, "properties": {"o": "N", "g": "boutique mobile"}}, {"type": "Feature", "geometry": {"type": "Point", "coordinates": [-72.1023, 18.83583]}, "properties": {"o": "?", "g": "boutique mobile"}}, {"type": "Feature", "geometry": {"type": "Point", "coordinates": [-72.101997, 18.835672]}, "properties": {"o": "?", "g": "site de communication"}}, {"type": "Feature", "geometry": {"type": "Point", "coordinates": [-72.112559, 18.837129]}, "properties": {"o": "?", "g": "site de communication"}}, {"type": "Feature", "geometry": {"type": "Point", "coordinates": [-72.106249, 18.834837]}, "properties": {"o": "V", "g": "boutique mobile"}}, {"type": "Feature", "geometry": {"type": "Point", "coordinates": [-72.105433, 18.82961]}, "properties": {"o": "?", "g": "boutique mobile"}}, {"type": "Feature", "geometry": {"type": "Point", "coordinates": [-72.105206, 18.830098]}, "properties": {"o": "N", "g": "boutique mobile"}}, {"type": "Feature", "geometry": {"type": "Point", "coordinates": [-73.757646, 18.214624]}, "properties": {"o": "?", "g": "boutique mobile"}}, {"type": "Feature", "geometry": {"type": "Point", "coordinates": [-73.758247, 18.213979]}, "properties": {"o": "?", "g": "boutique mobile"}}, {"type": "Feature", "geometry": {"type": "Point", "coordinates": [-73.749933, 18.190971]}, "properties": {"o": "D", "g": "boutique mobile"}}, {"type": "Feature", "geometry": {"type": "Point", "coordinates": [-72.697744, 19.095773]}, "properties": {"o": "?", "g": "bureau d'opérateur"}}, {"type": "Feature", "geometry": {"type": "Point", "coordinates": [-73.798278, 18.219361]}, "properties": {"o": "?", "g": "site de communication"}}, {"type": "Feature", "geometry": {"type": "Point", "coordinates": [-73.654123, 18.298912]}, "properties": {"o": "D", "g": "boutique mobile"}}, {"type": "Feature", "geometry": {"type": "Point", "coordinates": [-72.697277, 19.118308]}, "properties": {"o": "V", "g": "site de communication"}}, {"type": "Feature", "geometry": {"type": "Point", "coordinates": [-72.708536, 19.096804]}, "properties": {"o": "D", "g": "site de communication"}}, {"type": "Feature", "geometry": {"type": "Point", "coordinates": [-72.696515, 19.119975]}, "properties": {"o": "N", "g": "site de communication"}}, {"type": "Feature", "geometry": {"type": "Point", "coordinates": [-72.202455, 18.817125]}, "properties": {"o": "?", "g": "boutique mobile"}}, {"type": "Feature", "geometry": {"type": "Point", "coordinates": [-72.203817, 18.816688]}, "properties": {"o": "?", "g": "boutique mobile"}}, {"type": "Feature", "geometry": {"type": "Point", "coordinates": [-72.202547, 18.817178]}, "properties": {"o": "?", "g": "boutique mobile"}}, {"type": "Feature", "geometry": {"type": "Point", "coordinates": [-72.203404, 18.816464]}, "properties": {"o": "D", "g": "boutique mobile"}}, {"type": "Feature", "geometry": {"type": "Point", "coordinates": [-72.204096, 18.815759]}, "properties": {"o": "?", "g": "boutique mobile"}}, {"type": "Feature", "geometry": {"type": "Point", "coordinates": [-72.204441, 18.816096]}, "properties": {"o": "?", "g": "boutique mobile"}}, {"type": "Feature", "geometry": {"type": "Point", "coordinates": [-72.199991, 18.81676]}, "properties": {"o": "D", "g": "boutique mobile"}}, {"type": "Feature", "geometry": {"type": "Point", "coordinates": [-72.197344, 18.815023]}, "properties": {"o": "D", "g": "boutique mobile"}}, {"type": "Feature", "geometry": {"type": "Point", "coordinates": [-72.312559, 18.91215]}, "properties": {"o": "?", "g": "boutique mobile"}}, {"type": "Feature", "geometry": {"type": "Point", "coordinates": [-72.313554, 18.911798]}, "properties": {"o": "?", "g": "boutique mobile"}}, {"type": "Feature", "geometry": {"type": "Point", "coordinates": [-72.319111, 18.913407]}, "properties": {"o": "?", "g": "boutique mobile"}}, {"type": "Feature", "geometry": {"type": "Point", "coordinates": [-72.683825, 19.097681]}, "properties": {"o": "D", "g": "site de communication"}}, {"type": "Feature", "geometry": {"type": "Point", "coordinates": [-72.631281, 19.08103]}, "properties": {"o": "N", "g": "site de communication"}}, {"type": "Feature", "geometry": {"type": "Point", "coordinates": [-72.696783, 19.106661]}, "properties": {"o": "?", "g": "boutique mobile"}}, {"type": "Feature", "geometry": {"type": "Point", "coordinates": [-72.103182, 18.831983]}, "properties": {"o": "?", "g": "boutique mobile"}}, {"type": "Feature", "geometry": {"type": "Point", "coordinates": [-72.696792, 19.124123]}, "properties": {"o": "?", "g": "site de communication"}}, {"type": "Feature", "geometry": {"type": "Point", "coordinates": [-72.144009, 18.921798]}, "properties": {"o": "?", "g": "site de communication"}}, {"type": "Feature", "geometry": {"type": "Point", "coordinates": [-72.146713, 18.92434]}, "properties": {"o": "D", "g": "boutique mobile"}}, {"type": "Feature", "geometry": {"type": "Point", "coordinates": [-73.39317, 18.281962]}, "properties": {"o": "N", "g": "boutique mobile"}}, {"type": "Feature", "geometry": {"type": "Point", "coordinates": [-72.144279, 18.920998]}, "properties": {"o": "?", "g": "site de communication"}}, {"type": "Feature", "geometry": {"type": "Point", "coordinates": [-72.514219, 18.769047]}, "properties": {"o": "?", "g": "boutique mobile"}}, {"type": "Feature", "geometry": {"type": "Point", "coordinates": [-72.513581, 18.770509]}, "properties": {"o": "?", "g": "boutique mobile"}}, {"type": "Feature", "geometry": {"type": "Point", "coordinates": [-72.513181, 18.769768]}, "properties": {"o": "D", "g": "boutique mobile"}}, {"type": "Feature", "geometry": {"type": "Point", "coordinates": [-72.510834, 18.771154]}, "properties": {"o": "?", "g": "boutique mobile"}}, {"type": "Feature", "geometry": {"type": "Point", "coordinates": [-72.510131, 18.767916]}, "properties": {"o": "?", "g": "site de communication"}}, {"type": "Feature", "geometry": {"type": "Point", "coordinates": [-72.517111, 18.77814]}, "properties": {"o": "?", "g": "boutique mobile"}}, {"type": "Feature", "geometry": {"type": "Point", "coordinates": [-72.700523, 19.113119]}, "properties": {"o": "?", "g": "boutique mobile"}}, {"type": "Feature", "geometry": {"type": "Point", "coordinates": [-72.699016, 19.112285]}, "properties": {"o": "?", "g": "bureau d'opérateur"}}, {"type": "Feature", "geometry": {"type": "Point", "coordinates": [-72.509517, 18.806513]}, "properties": {"o": "D", "g": "boutique mobile"}}, {"type": "Feature", "geometry": {"type": "Point", "coordinates": [-72.497667, 18.816314]}, "properties": {"o": "?", "g": "site de communication"}}, {"type": "Feature", "geometry": {"type": "Point", "coordinates": [-72.699227, 19.112028]}, "properties": {"o": "D", "g": "site de communication"}}, {"type": "Feature", "geometry": {"type": "Point", "coordinates": [-72.699962, 19.112178]}, "properties": {"o": "?", "g": "boutique mobile"}}, {"type": "Feature", "geometry": {"type": "Point", "coordinates": [-73.545708, 18.263683]}, "properties": {"o": "D", "g": "boutique mobile"}}, {"type": "Feature", "geometry": {"type": "Point", "coordinates": [-73.547341, 18.261046]}, "properties": {"o": "?", "g": "bureau d'opérateur"}}, {"type": "Feature", "geometry": {"type": "Point", "coordinates": [-73.75132, 18.197649]}, "properties": {"o": "N", "g": "boutique mobile"}}, {"type": "Feature", "geometry": {"type": "Point", "coordinates": [-73.752789, 18.198069]}, "properties": {"o": "N", "g": "boutique mobile"}}, {"type": "Feature", "geometry": {"type": "Point", "coordinates": [-73.751988, 18.198887]}, "properties": {"o": "D", "g": "boutique mobile"}}, {"type": "Feature", "geometry": {"type": "Point", "coordinates": [-72.701438, 19.110928]}, "properties": {"o": "?", "g": "boutique mobile"}}, {"type": "Feature", "geometry": {"type": "Point", "coordinates": [-72.698987, 19.109737]}, "properties": {"o": "N", "g": "bureau d'opérateur"}}, {"type": "Feature", "geometry": {"type": "Point", "coordinates": [-72.737816, 19.036368]}, "properties": {"o": "D", "g": "site de communication"}}, {"type": "Feature", "geometry": {"type": "Point", "coordinates": [-72.70082, 19.110037]}, "properties": {"o": "?", "g": "bureau d'opérateur"}}, {"type": "Feature", "geometry": {"type": "Point", "coordinates": [-72.700354, 19.109479]}, "properties": {"o": "N", "g": "bureau d'opérateur"}}, {"type": "Feature", "geometry": {"type": "Point", "coordinates": [-73.206576, 18.356777]}, "properties": {"o": "?", "g": "site de communication"}}, {"type": "Feature", "geometry": {"type": "Point", "coordinates": [-73.653549, 18.078944]}, "properties": {"o": "?", "g": "site de communication"}}, {"type": "Feature", "geometry": {"type": "Point", "coordinates": [-73.65932, 18.080574]}, "properties": {"o": "?", "g": "site de communication"}}, {"type": "Feature", "geometry": {"type": "Point", "coordinates": [-73.628727, 18.067423]}, "properties": {"o": "D", "g": "boutique mobile"}}, {"type": "Feature", "geometry": {"type": "Point", "coordinates": [-72.702257, 19.108457]}, "properties": {"o": "N", "g": "bureau d'opérateur"}}, {"type": "Feature", "geometry": {"type": "Point", "coordinates": [-72.613495, 19.14782]}, "properties": {"o": "D", "g": "site de communication"}}, {"type": "Feature", "geometry": {"type": "Point", "coordinates": [-72.617648, 19.148204]}, "properties": {"o": "N", "g": "site de communication"}}, {"type": "Feature", "geometry": {"type": "Point", "coordinates": [-73.545143, 18.262819]}, "properties": {"o": "N", "g": "boutique mobile"}}, {"type": "Feature", "geometry": {"type": "Point", "coordinates": [-72.700586, 19.108817]}, "properties": {"o": "N", "g": "bureau d'opérateur"}}, {"type": "Feature", "geometry": {"type": "Point", "coordinates": [-72.702633, 19.106986]}, "properties": {"o": "?", "g": "bureau d'opérateur"}}, {"type": "Feature", "geometry": {"type": "Point", "coordinates": [-73.308752, 18.25457]}, "properties": {"o": "?", "g": "site de communication"}}, {"type": "Feature", "geometry": {"type": "Point", "coordinates": [-73.327242, 18.261592]}, "properties": {"o": "?", "g": "site de communication"}}, {"type": "Feature", "geometry": {"type": "Point", "coordinates": [-73.367669, 18.295275]}, "properties": {"o": "?", "g": "site de communication"}}, {"type": "Feature", "geometry": {"type": "Point", "coordinates": [-73.394606, 18.278306]}, "properties": {"o": "V", "g": "boutique mobile"}}, {"type": "Feature", "geometry": {"type": "Point", "coordinates": [-72.680213, 19.131058]}, "properties": {"o": "?", "g": "site de communication"}}, {"type": "Feature", "geometry": {"type": "Point", "coordinates": [-73.700916, 18.099479]}, "properties": {"o": "D", "g": "site de communication"}}, {"type": "Feature", "geometry": {"type": "Point", "coordinates": [-73.701209, 18.099605]}, "properties": {"o": "N", "g": "site de communication"}}, {"type": "Feature", "geometry": {"type": "Point", "coordinates": [-73.098081, 18.296276]}, "properties": {"o": "D", "g": "site de communication"}}, {"type": "Feature", "geometry": {"type": "Point", "coordinates": [-72.727135, 18.973952]}, "properties": {"o": "N", "g": "site de communication"}}, {"type": "Feature", "geometry": {"type": "Point", "coordinates": [-73.12492, 18.275503]}, "properties": {"o": "?", "g": "boutique mobile"}}, {"type": "Feature", "geometry": {"type": "Point", "coordinates": [-73.127721, 18.276188]}, "properties": {"o": "?", "g": "site de communication"}}, {"type": "Feature", "geometry": {"type": "Point", "coordinates": [-73.118336, 18.352531]}, "properties": {"o": "D", "g": "site de communication"}}, {"type": "Feature", "geometry": {"type": "Point", "coordinates": [-73.118039, 18.352079]}, "properties": {"o": "N", "g": "site de communication"}}, {"type": "Feature", "geometry": {"type": "Point", "coordinates": [-72.304726, 18.519799]}, "properties": {"o": "?", "g": "site de communication"}}, {"type": "Feature", "geometry": {"type": "Point", "coordinates": [-72.28987, 18.512071]}, "properties": {"o": "D", "g": "boutique mobile"}}, {"type": "Feature", "geometry": {"type": "Point", "coordinates": [-72.26165, 18.532367]}, "properties": {"o": "?", "g": "site de communication"}}, {"type": "Feature", "geometry": {"type": "Point", "coordinates": [-72.260824, 18.536681]}, "properties": {"o": "?", "g": "site de communication"}}, {"type": "Feature", "geometry": {"type": "Point", "coordinates": [-72.267645, 18.54268]}, "properties": {"o": "?", "g": "site de communication"}}, {"type": "Feature", "geometry": {"type": "Point", "coordinates": [-72.322847, 18.53617]}, "properties": {"o": "N", "g": "boutique mobile"}}, {"type": "Feature", "geometry": {"type": "Point", "coordinates": [-73.868979, 18.147772]}, "properties": {"o": "?", "g": "site de communication"}}, {"type": "Feature", "geometry": {"type": "Point", "coordinates": [-74.097319, 18.251813]}, "properties": {"o": "?", "g": "site de communication"}}, {"type": "Feature", "geometry": {"type": "Point", "coordinates": [-72.288667, 18.515655]}, "properties": {"o": "V", "g": "boutique mobile"}}, {"type": "Feature", "geometry": {"type": "Point", "coordinates": [-72.288666, 18.515773]}, "properties": {"o": "V", "g": "boutique mobile"}}, {"type": "Feature", "geometry": {"type": "Point", "coordinates": [-72.289776, 18.516302]}, "properties": {"o": "?", "g": "boutique mobile"}}, {"type": "Feature", "geometry": {"type": "Point", "coordinates": [-72.283748, 18.515068]}, "properties": {"o": "N", "g": "boutique mobile"}}, {"type": "Feature", "geometry": {"type": "Point", "coordinates": [-71.760074, 18.869078]}, "properties": {"o": "D", "g": "boutique mobile"}}, {"type": "Feature", "geometry": {"type": "Point", "coordinates": [-72.274539, 18.587816]}, "properties": {"o": "?", "g": "site de communication"}}, {"type": "Feature", "geometry": {"type": "Point", "coordinates": [-72.26759, 18.594351]}, "properties": {"o": "N", "g": "site de communication"}}, {"type": "Feature", "geometry": {"type": "Point", "coordinates": [-72.31875, 18.608701]}, "properties": {"o": "?", "g": "site de communication"}}, {"type": "Feature", "geometry": {"type": "Point", "coordinates": [-72.633764, 18.45747]}, "properties": {"o": "?", "g": "site de communication"}}, {"type": "Feature", "geometry": {"type": "Point", "coordinates": [-72.340707, 18.55055]}, "properties": {"o": "?", "g": "bureau d'opérateur"}}, {"type": "Feature", "geometry": {"type": "Point", "coordinates": [-72.277164, 18.562459]}, "properties": {"o": "?", "g": "site de communication"}}, {"type": "Feature", "geometry": {"type": "Point", "coordinates": [-72.181342, 19.724743]}, "properties": {"o": "?", "g": "site de communication"}}, {"type": "Feature", "geometry": {"type": "Point", "coordinates": [-72.123966, 19.668674]}, "properties": {"o": "?", "g": "site de communication"}}, {"type": "Feature", "geometry": {"type": "Point", "coordinates": [-72.125614, 19.666691]}, "properties": {"o": "?", "g": "site de communication"}}, {"type": "Feature", "geometry": {"type": "Point", "coordinates": [-72.23324, 19.723963]}, "properties": {"o": "?", "g": "site de communication"}}, {"type": "Feature", "geometry": {"type": "Point", "coordinates": [-72.216415, 19.741747]}, "properties": {"o": "D", "g": "boutique mobile"}}, {"type": "Feature", "geometry": {"type": "Point", "coordinates": [-72.262538, 18.576217]}, "properties": {"o": "D", "g": "boutique mobile"}}, {"type": "Feature", "geometry": {"type": "Point", "coordinates": [-72.018283, 19.689162]}, "properties": {"o": "D", "g": "site de communication"}}, {"type": "Feature", "geometry": {"type": "Point", "coordinates": [-72.021404, 19.658997]}, "properties": {"o": "N", "g": "site de communication"}}, {"type": "Feature", "geometry": {"type": "Point", "coordinates": [-71.834244, 19.660202]}, "properties": {"o": "N", "g": "site de communication"}}, {"type": "Feature", "geometry": {"type": "Point", "coordinates": [-72.0216, 19.659083]}, "properties": {"o": "N", "g": "site de communication"}}, {"type": "Feature", "geometry": {"type": "Point", "coordinates": [-71.953781, 19.637508]}, "properties": {"o": "N", "g": "boutique mobile"}}, {"type": "Feature", "geometry": {"type": "Point", "coordinates": [-71.992602, 19.683523]}, "properties": {"o": "N", "g": "site de communication"}}, {"type": "Feature", "geometry": {"type": "Point", "coordinates": [-72.024502, 19.616675]}, "properties": {"o": "?", "g": "boutique mobile"}}, {"type": "Feature", "geometry": {"type": "Point", "coordinates": [-71.991395, 19.683739]}, "properties": {"o": "D", "g": "bureau d'opérateur"}}, {"type": "Feature", "geometry": {"type": "Point", "coordinates": [-71.995247, 19.651389]}, "properties": {"o": "D", "g": "site de communication"}}, {"type": "Feature", "geometry": {"type": "Point", "coordinates": [-71.955488, 19.634691]}, "properties": {"o": "D", "g": "site de communication"}}, {"type": "Feature", "geometry": {"type": "Point", "coordinates": [-71.83723, 19.664336]}, "properties": {"o": "D", "g": "site de communication"}}, {"type": "Feature", "geometry": {"type": "Point", "coordinates": [-71.95446, 19.637694]}, "properties": {"o": "?", "g": "site de communication"}}, {"type": "Feature", "geometry": {"type": "Point", "coordinates": [-72.187345, 19.73699]}, "properties": {"o": "?", "g": "site de communication"}}, {"type": "Feature", "geometry": {"type": "Point", "coordinates": [-72.188334, 19.73551]}, "properties": {"o": "D", "g": "site de communication"}}, {"type": "Feature", "geometry": {"type": "Point", "coordinates": [-72.029132, 19.612662]}, "properties": {"o": "N", "g": "site de communication"}}, {"type": "Feature", "geometry": {"type": "Point", "coordinates": [-71.957694, 19.636609]}, "properties": {"o": "N", "g": "site de communication"}}, {"type": "Feature", "geometry": {"type": "Point", "coordinates": [-72.024736, 19.615168]}, "properties": {"o": "D", "g": "site de communication"}}, {"type": "Feature", "geometry": {"type": "Point", "coordinates": [-71.814768, 19.65471]}, "properties": {"o": "D", "g": "site de communication"}}, {"type": "Feature", "geometry": {"type": "Point", "coordinates": [-72.018773, 19.692012]}, "properties": {"o": "D", "g": "boutique mobile"}}, {"type": "Feature", "geometry": {"type": "Point", "coordinates": [-72.197961, 19.734638]}, "properties": {"o": "?", "g": "boutique mobile"}}, {"type": "Feature", "geometry": {"type": "Point", "coordinates": [-72.263732, 19.71174]}, "properties": {"o": "D", "g": "site de communication"}}, {"type": "Feature", "geometry": {"type": "Point", "coordinates": [-72.215057, 19.749703]}, "properties": {"o": "D", "g": "site de communication"}}, {"type": "Feature", "geometry": {"type": "Point", "coordinates": [-72.216469, 19.738302]}, "properties": {"o": "?", "g": "boutique mobile"}}, {"type": "Feature", "geometry": {"type": "Point", "coordinates": [-72.21117, 19.739523]}, "properties": {"o": "D", "g": "site de communication"}}, {"type": "Feature", "geometry": {"type": "Point", "coordinates": [-72.211158, 19.73952]}, "properties": {"o": "D", "g": "site de communication"}}, {"type": "Feature", "geometry": {"type": "Point", "coordinates": [-72.194773, 19.736993]}, "properties": {"o": "D", "g": "boutique mobile"}}, {"type": "Feature", "geometry": {"type": "Point", "coordinates": [-72.181442, 19.727078]}, "properties": {"o": "D", "g": "site de communication"}}, {"type": "Feature", "geometry": {"type": "Point", "coordinates": [-72.181607, 19.727771]}, "properties": {"o": "?", "g": "bureau d'opérateur"}}, {"type": "Feature", "geometry": {"type": "Point", "coordinates": [-71.958052, 19.636251]}, "properties": {"o": "N", "g": "site de communication"}}, {"type": "Feature", "geometry": {"type": "Point", "coordinates": [-72.178998, 19.733683]}, "properties": {"o": "?", "g": "site de communication"}}, {"type": "Feature", "geometry": {"type": "Point", "coordinates": [-72.200969, 19.757648]}, "properties": {"o": "D", "g": "boutique mobile"}}, {"type": "Feature", "geometry": {"type": "Point", "coordinates": [-72.15942, 19.696645]}, "properties": {"o": "D", "g": "site de communication"}}, {"type": "Feature", "geometry": {"type": "Point", "coordinates": [-72.200062, 19.775105]}, "properties": {"o": "?", "g": "site de communication"}}, {"type": "Feature", "geometry": {"type": "Point", "coordinates": [-72.200462, 19.775395]}, "properties": {"o": "?", "g": "site de communication"}}, {"type": "Feature", "geometry": {"type": "Point", "coordinates": [-72.024025, 19.616509]}, "properties": {"o": "?", "g": "boutique mobile"}}, {"type": "Feature", "geometry": {"type": "Point", "coordinates": [-72.022618, 19.61763]}, "properties": {"o": "?", "g": "boutique mobile"}}, {"type": "Feature", "geometry": {"type": "Point", "coordinates": [-72.024313, 19.616464]}, "properties": {"o": "?", "g": "boutique mobile"}}, {"type": "Feature", "geometry": {"type": "Point", "coordinates": [-71.837239, 19.664424]}, "properties": {"o": "D", "g": "site de communication"}}, {"type": "Feature", "geometry": {"type": "Point", "coordinates": [-71.723657, 19.550011]}, "properties": {"o": "D", "g": "boutique mobile"}}, {"type": "Feature", "geometry": {"type": "Point", "coordinates": [-71.724051, 19.550014]}, "properties": {"o": "?", "g": "site de communication"}}, {"type": "Feature", "geometry": {"type": "Point", "coordinates": [-71.721621, 19.548516]}, "properties": {"o": "D", "g": "boutique mobile"}}, {"type": "Feature", "geometry": {"type": "Point", "coordinates": [-71.720901, 19.548745]}, "properties": {"o": "?", "g": "site de communication"}}, {"type": "Feature", "geometry": {"type": "Point", "coordinates": [-72.176139, 19.615914]}, "properties": {"o": "?", "g": "site de communication"}}, {"type": "Feature", "geometry": {"type": "Point", "coordinates": [-71.729223, 19.543618]}, "properties": {"o": "D", "g": "site de communication"}}, {"type": "Feature", "geometry": {"type": "Point", "coordinates": [-71.729817, 19.541985]}, "properties": {"o": "N", "g": "site de communication"}}, {"type": "Feature", "geometry": {"type": "Point", "coordinates": [-72.183258, 19.738726]}, "properties": {"o": "D", "g": "site de communication"}}, {"type": "Feature", "geometry": {"type": "Point", "coordinates": [-71.839006, 19.667978]}, "properties": {"o": "N", "g": "site de communication"}}, {"type": "Feature", "geometry": {"type": "Point", "coordinates": [-71.83899, 19.666803]}, "properties": {"o": "N", "g": "boutique mobile"}}, {"type": "Feature", "geometry": {"type": "Point", "coordinates": [-72.178574, 19.734381]}, "properties": {"o": "?", "g": "site de communication"}}, {"type": "Feature", "geometry": {"type": "Point", "coordinates": [-71.734396, 19.548374]}, "properties": {"o": "N", "g": "boutique mobile"}}, {"type": "Feature", "geometry": {"type": "Point", "coordinates": [-72.223638, 19.733401]}, "properties": {"o": "?", "g": "boutique mobile"}}, {"type": "Feature", "geometry": {"type": "Point", "coordinates": [-72.209013, 19.745806]}, "properties": {"o": "N", "g": "boutique mobile"}}, {"type": "Feature", "geometry": {"type": "Point", "coordinates": [-72.207669, 19.749274]}, "properties": {"o": "D", "g": "boutique mobile"}}, {"type": "Feature", "geometry": {"type": "Point", "coordinates": [-72.145774, 19.635359]}, "properties": {"o": "D", "g": "site de communication"}}, {"type": "Feature", "geometry": {"type": "Point", "coordinates": [-72.128223, 19.677944]}, "properties": {"o": "?", "g": "boutique mobile"}}, {"type": "Feature", "geometry": {"type": "Point", "coordinates": [-72.268282, 19.676487]}, "properties": {"o": "D", "g": "site de communication"}}, {"type": "Feature", "geometry": {"type": "Point", "coordinates": [-72.20189, 19.438464]}, "properties": {"o": "N", "g": "site de communication"}}, {"type": "Feature", "geometry": {"type": "Point", "coordinates": [-72.199736, 19.437979]}, "properties": {"o": "D", "g": "site de communication"}}, {"type": "Feature", "geometry": {"type": "Point", "coordinates": [-72.198955, 19.438389]}, "properties": {"o": "D", "g": "site de communication"}}, {"type": "Feature", "geometry": {"type": "Point", "coordinates": [-72.272183, 19.709221]}, "properties": {"o": "D", "g": "boutique mobile"}}, {"type": "Feature", "geometry": {"type": "Point", "coordinates": [-72.037387, 19.603618]}, "properties": {"o": "D", "g": "site de communication"}}, {"type": "Feature", "geometry": {"type": "Point", "coordinates": [-72.032732, 19.609025]}, "properties": {"o": "D", "g": "bureau d'opérateur"}}, {"type": "Feature", "geometry": {"type": "Point", "coordinates": [-71.837292, 19.662691]}, "properties": {"o": "N", "g": "boutique mobile"}}, {"type": "Feature", "geometry": {"type": "Point", "coordinates": [-72.189257, 19.669494]}, "properties": {"o": "D", "g": "site de communication"}}, {"type": "Feature", "geometry": {"type": "Point", "coordinates": [-72.205567, 19.7547]}, "properties": {"o": "?", "g": "boutique mobile"}}, {"type": "Feature", "geometry": {"type": "Point", "coordinates": [-72.203203, 19.754946]}, "properties": {"o": "?", "g": "boutique mobile"}}, {"type": "Feature", "geometry": {"type": "Point", "coordinates": [-72.147007, 19.633632]}, "properties": {"o": "N", "g": "site de communication"}}, {"type": "Feature", "geometry": {"type": "Point", "coordinates": [-72.158807, 19.692468]}, "properties": {"o": "N", "g": "site de communication"}}, {"type": "Feature", "geometry": {"type": "Point", "coordinates": [-72.121212, 19.728404]}, "properties": {"o": "?", "g": "site de communication"}}, {"type": "Feature", "geometry": {"type": "Point", "coordinates": [-71.814569, 19.655629]}, "properties": {"o": "D", "g": "bureau d'opérateur"}}, {"type": "Feature", "geometry": {"type": "Point", "coordinates": [-72.610517, 19.299232]}, "properties": {"o": "D", "g": "boutique mobile"}}, {"type": "Feature", "geometry": {"type": "Point", "coordinates": [-72.158446, 19.696453]}, "properties": {"o": "D", "g": "boutique mobile"}}, {"type": "Feature", "geometry": {"type": "Point", "coordinates": [-72.017417, 19.691041]}, "properties": {"o": "N", "g": "site de communication"}}, {"type": "Feature", "geometry": {"type": "Point", "coordinates": [-72.12675, 19.710915]}, "properties": {"o": "N", "g": "site de communication"}}, {"type": "Feature", "geometry": {"type": "Point", "coordinates": [-72.023918, 19.618574]}, "properties": {"o": "?", "g": "boutique mobile"}}, {"type": "Feature", "geometry": {"type": "Point", "coordinates": [-72.155998, 19.721988]}, "properties": {"o": "N", "g": "site de communication"}}, {"type": "Feature", "geometry": {"type": "Point", "coordinates": [-72.171732, 19.724565]}, "properties": {"o": "D", "g": "site de communication"}}, {"type": "Feature", "geometry": {"type": "Point", "coordinates": [-72.110695, 19.698816]}, "properties": {"o": "D", "g": "site de communication"}}, {"type": "Feature", "geometry": {"type": "Point", "coordinates": [-72.034647, 19.605751]}, "properties": {"o": "?", "g": "site de communication"}}, {"type": "Feature", "geometry": {"type": "Point", "coordinates": [-71.882835, 19.516665]}, "properties": {"o": "D", "g": "site de communication"}}, {"type": "Feature", "geometry": {"type": "Point", "coordinates": [-72.310744, 18.530639]}, "properties": {"o": "?", "g": "site de communication"}}, {"type": "Feature", "geometry": {"type": "Point", "coordinates": [-72.415882, 19.681053]}, "properties": {"o": "?", "g": "boutique mobile"}}, {"type": "Feature", "geometry": {"type": "Point", "coordinates": [-72.183512, 19.730011]}, "properties": {"o": "N", "g": "site de communication"}}, {"type": "Feature", "geometry": {"type": "Point", "coordinates": [-72.204129, 19.759036]}, "properties": {"o": "D", "g": "boutique mobile"}}, {"type": "Feature", "geometry": {"type": "Point", "coordinates": [-72.318871, 19.680393]}, "properties": {"o": "D", "g": "site de communication"}}, {"type": "Feature", "geometry": {"type": "Point", "coordinates": [-72.319607, 19.680882]}, "properties": {"o": "D", "g": "boutique mobile"}}, {"type": "Feature", "geometry": {"type": "Point", "coordinates": [-72.346769, 18.533213]}, "properties": {"o": "D", "g": "boutique mobile"}}, {"type": "Feature", "geometry": {"type": "Point", "coordinates": [-72.25795, 18.563563]}, "properties": {"o": "?", "g": "site de communication"}}, {"type": "Feature", "geometry": {"type": "Point", "coordinates": [-72.290908, 18.518343]}, "properties": {"o": "?", "g": "boutique mobile"}}, {"type": "Feature", "geometry": {"type": "Point", "coordinates": [-72.335036, 18.540967]}, "properties": {"o": "D", "g": "boutique mobile"}}, {"type": "Feature", "geometry": {"type": "Point", "coordinates": [-72.464125, 19.522656]}, "properties": {"o": "D", "g": "site de communication"}}, {"type": "Feature", "geometry": {"type": "Point", "coordinates": [-72.312456, 18.565858]}, "properties": {"o": "D", "g": "boutique mobile"}}, {"type": "Feature", "geometry": {"type": "Point", "coordinates": [-72.294304, 18.654807]}, "properties": {"o": "D", "g": "site de communication"}}, {"type": "Feature", "geometry": {"type": "Point", "coordinates": [-72.292147, 18.659102]}, "properties": {"o": "?", "g": "site de communication"}}, {"type": "Feature", "geometry": {"type": "Point", "coordinates": [-72.588519, 19.530486]}, "properties": {"o": "D", "g": "site de communication"}}, {"type": "Feature", "geometry": {"type": "Point", "coordinates": [-72.592984, 19.398832]}, "properties": {"o": "D", "g": "site de communication"}}, {"type": "Feature", "geometry": {"type": "Point", "coordinates": [-72.285001, 18.518728]}, "properties": {"o": "?", "g": "site de communication"}}, {"type": "Feature", "geometry": {"type": "Point", "coordinates": [-73.254892, 19.803487]}, "properties": {"o": "D", "g": "site de communication"}}, {"type": "Feature", "geometry": {"type": "Point", "coordinates": [-72.313306, 18.494698]}, "properties": {"o": "D", "g": "site de communication"}}, {"type": "Feature", "geometry": {"type": "Point", "coordinates": [-72.281241, 18.557525]}, "properties": {"o": "?", "g": "site de communication"}}, {"type": "Feature", "geometry": {"type": "Point", "coordinates": [-72.274405, 18.568272]}, "properties": {"o": "?", "g": "site de communication"}}, {"type": "Feature", "geometry": {"type": "Point", "coordinates": [-72.323346, 18.536634]}, "properties": {"o": "N", "g": "boutique mobile"}}, {"type": "Feature", "geometry": {"type": "Point", "coordinates": [-72.332718, 18.540175]}, "properties": {"o": "N", "g": "boutique mobile"}}, {"type": "Feature", "geometry": {"type": "Point", "coordinates": [-72.323455, 18.536068]}, "properties": {"o": "?", "g": "site de communication"}}, {"type": "Feature", "geometry": {"type": "Point", "coordinates": [-72.180075, 19.701962]}, "properties": {"o": "?", "g": "site de communication"}}, {"type": "Feature", "geometry": {"type": "Point", "coordinates": [-72.005552, 19.105323]}, "properties": {"o": "?", "g": "site de communication"}}, {"type": "Feature", "geometry": {"type": "Point", "coordinates": [-72.021387, 19.186512]}, "properties": {"o": "?", "g": "site de communication"}}, {"type": "Feature", "geometry": {"type": "Point", "coordinates": [-72.02184, 19.186539]}, "properties": {"o": "?", "g": "site de communication"}}, {"type": "Feature", "geometry": {"type": "Point", "coordinates": [-72.319877, 18.537784]}, "properties": {"o": "D", "g": "boutique mobile"}}, {"type": "Feature", "geometry": {"type": "Point", "coordinates": [-72.334574, 18.556918]}, "properties": {"o": "?", "g": "site de communication"}}, {"type": "Feature", "geometry": {"type": "Point", "coordinates": [-72.267848, 18.630799]}, "properties": {"o": "N", "g": "boutique mobile"}}, {"type": "Feature", "geometry": {"type": "Point", "coordinates": [-72.210238, 18.568964]}, "properties": {"o": "?", "g": "site de communication"}}, {"type": "Feature", "geometry": {"type": "Point", "coordinates": [-72.152191, 18.563477]}, "properties": {"o": "D", "g": "site de communication"}}, {"type": "Feature", "geometry": {"type": "Point", "coordinates": [-72.092151, 18.54116]}, "properties": {"o": "?", "g": "site de communication"}}, {"type": "Feature", "geometry": {"type": "Point", "coordinates": [-72.28209, 18.603093]}, "properties": {"o": "D", "g": "boutique mobile"}}, {"type": "Feature", "geometry": {"type": "Point", "coordinates": [-72.276577, 18.563044]}, "properties": {"o": "?", "g": "site de communication"}}, {"type": "Feature", "geometry": {"type": "Point", "coordinates": [-71.784184, 18.284942]}, "properties": {"o": "D", "g": "site de communication"}}, {"type": "Feature", "geometry": {"type": "Point", "coordinates": [-72.05433, 19.383562]}, "properties": {"o": "N", "g": "site de communication"}}, {"type": "Feature", "geometry": {"type": "Point", "coordinates": [-72.022011, 19.339049]}, "properties": {"o": "D", "g": "site de communication"}}, {"type": "Feature", "geometry": {"type": "Point", "coordinates": [-72.022159, 19.338113]}, "properties": {"o": "D", "g": "site de communication"}}, {"type": "Feature", "geometry": {"type": "Point", "coordinates": [-72.08149, 19.413698]}, "properties": {"o": "N", "g": "site de communication"}}, {"type": "Feature", "geometry": {"type": "Point", "coordinates": [-72.336965, 18.53492]}, "properties": {"o": "D", "g": "boutique mobile"}}, {"type": "Feature", "geometry": {"type": "Point", "coordinates": [-72.831606, 19.938804]}, "properties": {"o": "N", "g": "boutique mobile"}}, {"type": "Feature", "geometry": {"type": "Point", "coordinates": [-72.334036, 18.569204]}, "properties": {"o": "D", "g": "site de communication"}}, {"type": "Feature", "geometry": {"type": "Point", "coordinates": [-72.601602, 19.22243]}, "properties": {"o": "?", "g": "site de communication"}}, {"type": "Feature", "geometry": {"type": "Point", "coordinates": [-72.604656, 19.276046]}, "properties": {"o": "?", "g": "site de communication"}}, {"type": "Feature", "geometry": {"type": "Point", "coordinates": [-72.60446, 19.312671]}, "properties": {"o": "?", "g": "site de communication"}}, {"type": "Feature", "geometry": {"type": "Point", "coordinates": [-72.581298, 19.342423]}, "properties": {"o": "D", "g": "site de communication"}}, {"type": "Feature", "geometry": {"type": "Point", "coordinates": [-72.691784, 19.693204]}, "properties": {"o": "?", "g": "site de communication"}}, {"type": "Feature", "geometry": {"type": "Point", "coordinates": [-72.582113, 19.342361]}, "properties": {"o": "D", "g": "site de communication"}}, {"type": "Feature", "geometry": {"type": "Point", "coordinates": [-72.348099, 18.544723]}, "properties": {"o": "?", "g": "bureau d'opérateur"}}, {"type": "Feature", "geometry": {"type": "Point", "coordinates": [-72.699469, 19.10745]}, "properties": {"o": "?", "g": "site de communication"}}, {"type": "Feature", "geometry": {"type": "Point", "coordinates": [-72.29968, 18.555928]}, "properties": {"o": "?", "g": "site de communication"}}, {"type": "Feature", "geometry": {"type": "Point", "coordinates": [-72.294161, 18.575539]}, "properties": {"o": "D", "g": "boutique mobile"}}, {"type": "Feature", "geometry": {"type": "Point", "coordinates": [-72.294187, 18.57554]}, "properties": {"o": "N", "g": "boutique mobile"}}, {"type": "Feature", "geometry": {"type": "Point", "coordinates": [-72.822007, 19.946841]}, "properties": {"o": "N", "g": "boutique mobile"}}, {"type": "Feature", "geometry": {"type": "Point", "coordinates": [-72.064573, 19.654537]}, "properties": {"o": "D", "g": "site de communication"}}, {"type": "Feature", "geometry": {"type": "Point", "coordinates": [-72.255082, 19.714391]}, "properties": {"o": "N", "g": "site de communication"}}, {"type": "Feature", "geometry": {"type": "Point", "coordinates": [-72.859036, 18.435798]}, "properties": {"o": "D", "g": "site de communication"}}, {"type": "Feature", "geometry": {"type": "Point", "coordinates": [-73.263161, 19.667098]}, "properties": {"o": "D", "g": "site de communication"}}, {"type": "Feature", "geometry": {"type": "Point", "coordinates": [-73.263635, 19.666847]}, "properties": {"o": "N", "g": "site de communication"}}, {"type": "Feature", "geometry": {"type": "Point", "coordinates": [-72.114637, 19.469454]}, "properties": {"o": "?", "g": "boutique mobile"}}, {"type": "Feature", "geometry": {"type": "Point", "coordinates": [-72.117133, 19.471327]}, "properties": {"o": "D", "g": "site de communication"}}, {"type": "Feature", "geometry": {"type": "Point", "coordinates": [-71.992548, 19.680068]}, "properties": {"o": "D", "g": "site de communication"}}, {"type": "Feature", "geometry": {"type": "Point", "coordinates": [-72.115543, 19.468273]}, "properties": {"o": "N", "g": "site de communication"}}, {"type": "Feature", "geometry": {"type": "Point", "coordinates": [-71.756718, 19.66582]}, "properties": {"o": "N", "g": "site de communication"}}, {"type": "Feature", "geometry": {"type": "Point", "coordinates": [-71.773622, 19.658528]}, "properties": {"o": "D", "g": "site de communication"}}, {"type": "Feature", "geometry": {"type": "Point", "coordinates": [-71.724664, 19.554231]}, "properties": {"o": "D", "g": "site de communication"}}, {"type": "Feature", "geometry": {"type": "Point", "coordinates": [-73.101378, 18.382503]}, "properties": {"o": "?", "g": "site de communication"}}, {"type": "Feature", "geometry": {"type": "Point", "coordinates": [-73.84575, 18.334523]}, "properties": {"o": "?", "g": "site de communication"}}, {"type": "Feature", "geometry": {"type": "Point", "coordinates": [-71.729801, 19.557465]}, "properties": {"o": "N", "g": "site de communication"}}, {"type": "Feature", "geometry": {"type": "Point", "coordinates": [-71.727701, 19.100055]}, "properties": {"o": "D", "g": "site de communication"}}, {"type": "Feature", "geometry": {"type": "Point", "coordinates": [-71.681379, 19.124133]}, "properties": {"o": "D", "g": "site de communication"}}, {"type": "Feature", "geometry": {"type": "Point", "coordinates": [-71.732406, 19.136841]}, "properties": {"o": "D", "g": "site de communication"}}, {"type": "Feature", "geometry": {"type": "Point", "coordinates": [-71.683775, 19.235825]}, "properties": {"o": "D", "g": "site de communication"}}, {"type": "Feature", "geometry": {"type": "Point", "coordinates": [-71.732345, 19.241294]}, "properties": {"o": "D", "g": "site de communication"}}, {"type": "Feature", "geometry": {"type": "Point", "coordinates": [-71.940151, 19.269082]}, "properties": {"o": "D", "g": "site de communication"}}, {"type": "Feature", "geometry": {"type": "Point", "coordinates": [-71.970821, 19.297456]}, "properties": {"o": "D", "g": "site de communication"}}, {"type": "Feature", "geometry": {"type": "Point", "coordinates": [-71.679954, 19.126264]}, "properties": {"o": "N", "g": "site de communication"}}, {"type": "Feature", "geometry": {"type": "Point", "coordinates": [-71.732981, 19.1357]}, "properties": {"o": "N", "g": "site de communication"}}, {"type": "Feature", "geometry": {"type": "Point", "coordinates": [-71.681036, 19.236653]}, "properties": {"o": "N", "g": "site de communication"}}, {"type": "Feature", "geometry": {"type": "Point", "coordinates": [-71.729736, 19.243347]}, "properties": {"o": "N", "g": "site de communication"}}, {"type": "Feature", "geometry": {"type": "Point", "coordinates": [-71.936975, 19.268391]}, "properties": {"o": "N", "g": "site de communication"}}, {"type": "Feature", "geometry": {"type": "Point", "coordinates": [-71.975946, 19.269843]}, "properties": {"o": "N", "g": "site de communication"}}, {"type": "Feature", "geometry": {"type": "Point", "coordinates": [-71.785505, 19.101419]}, "properties": {"o": "?", "g": "site de communication"}}, {"type": "Feature", "geometry": {"type": "Point", "coordinates": [-71.776173, 19.140652]}, "properties": {"o": "?", "g": "site de communication"}}, {"type": "Feature", "geometry": {"type": "Point", "coordinates": [-71.776695, 19.140691]}, "properties": {"o": "?", "g": "site de communication"}}, {"type": "Feature", "geometry": {"type": "Point", "coordinates": [-71.982401, 19.172967]}, "properties": {"o": "?", "g": "site de communication"}}, {"type": "Feature", "geometry": {"type": "Point", "coordinates": [-71.981841, 19.163519]}, "properties": {"o": "?", "g": "site de communication"}}, {"type": "Feature", "geometry": {"type": "Point", "coordinates": [-72.953312, 19.728124]}, "properties": {"o": "D", "g": "site de communication"}}, {"type": "Feature", "geometry": {"type": "Point", "coordinates": [-72.954544, 19.728714]}, "properties": {"o": "N", "g": "site de communication"}}, {"type": "Feature", "geometry": {"type": "Point", "coordinates": [-72.701007, 19.716757]}, "properties": {"o": "D", "g": "site de communication"}}, {"type": "Feature", "geometry": {"type": "Point", "coordinates": [-72.683184, 19.671913]}, "properties": {"o": "D", "g": "boutique mobile"}}, {"type": "Feature", "geometry": {"type": "Point", "coordinates": [-72.329664, 18.531783]}, "properties": {"o": "D", "g": "site de communication"}}, {"type": "Feature", "geometry": {"type": "Point", "coordinates": [-72.286715, 18.657018]}, "properties": {"o": "N", "g": "site de communication"}}, {"type": "Feature", "geometry": {"type": "Point", "coordinates": [-72.236825, 18.66745]}, "properties": {"o": "D", "g": "site de communication"}}, {"type": "Feature", "geometry": {"type": "Point", "coordinates": [-72.238622, 18.661783]}, "properties": {"o": "N", "g": "site de communication"}}, {"type": "Feature", "geometry": {"type": "Point", "coordinates": [-72.239884, 18.649317]}, "properties": {"o": "D", "g": "site de communication"}}, {"type": "Feature", "geometry": {"type": "Point", "coordinates": [-72.256288, 18.662697]}, "properties": {"o": "D", "g": "site de communication"}}, {"type": "Feature", "geometry": {"type": "Point", "coordinates": [-72.165274, 19.416353]}, "properties": {"o": "?", "g": "site de communication"}}, {"type": "Feature", "geometry": {"type": "Point", "coordinates": [-72.007459, 19.145076]}, "properties": {"o": "D", "g": "site de communication"}}, {"type": "Feature", "geometry": {"type": "Point", "coordinates": [-73.900367, 18.435641]}, "properties": {"o": "?", "g": "site de communication"}}, {"type": "Feature", "geometry": {"type": "Point", "coordinates": [-72.307662, 18.509929]}, "properties": {"o": "?", "g": "site de communication"}}, {"type": "Feature", "geometry": {"type": "Point", "coordinates": [-72.291088, 18.516113]}, "properties": {"o": "N", "g": "boutique mobile"}}, {"type": "Feature", "geometry": {"type": "Point", "coordinates": [-72.769588, 18.423875]}, "properties": {"o": "D", "g": "site de communication"}}, {"type": "Feature", "geometry": {"type": "Point", "coordinates": [-72.266134, 18.655628]}, "properties": {"o": "D", "g": "site de communication"}}, {"type": "Feature", "geometry": {"type": "Point", "coordinates": [-72.269704, 18.657479]}, "properties": {"o": "?", "g": "site de communication"}}, {"type": "Feature", "geometry": {"type": "Point", "coordinates": [-72.253696, 18.650735]}, "properties": {"o": "N", "g": "site de communication"}}, {"type": "Feature", "geometry": {"type": "Point", "coordinates": [-72.25928, 18.64814]}, "properties": {"o": "?", "g": "boutique mobile"}}, {"type": "Feature", "geometry": {"type": "Point", "coordinates": [-72.318475, 18.548008]}, "properties": {"o": "?", "g": "site de communication"}}, {"type": "Feature", "geometry": {"type": "Point", "coordinates": [-72.315377, 18.552204]}, "properties": {"o": "D", "g": "boutique mobile"}}, {"type": "Feature", "geometry": {"type": "Point", "coordinates": [-72.691427, 19.125165]}, "properties": {"o": "?", "g": "site de communication"}}, {"type": "Feature", "geometry": {"type": "Point", "coordinates": [-74.032673, 18.200349]}, "properties": {"o": "?", "g": "site de communication"}}, {"type": "Feature", "geometry": {"type": "Point", "coordinates": [-74.034225, 18.200918]}, "properties": {"o": "?", "g": "site de communication"}}, {"type": "Feature", "geometry": {"type": "Point", "coordinates": [-74.031532, 18.202478]}, "properties": {"o": "?", "g": "site de communication"}}, {"type": "Feature", "geometry": {"type": "Point", "coordinates": [-73.2957, 18.481574]}, "properties": {"o": "?", "g": "site de communication"}}, {"type": "Feature", "geometry": {"type": "Point", "coordinates": [-72.599115, 18.536775]}, "properties": {"o": "?", "g": "site de communication"}}, {"type": "Feature", "geometry": {"type": "Point", "coordinates": [-73.251329, 18.354469]}, "properties": {"o": "?", "g": "site de communication"}}, {"type": "Feature", "geometry": {"type": "Point", "coordinates": [-73.877239, 18.40534]}, "properties": {"o": "?", "g": "site de communication"}}, {"type": "Feature", "geometry": {"type": "Point", "coordinates": [-72.790272, 20.034545]}, "properties": {"o": "?", "g": "site de communication"}}, {"type": "Feature", "geometry": {"type": "Point", "coordinates": [-73.902959, 18.427805]}, "properties": {"o": "?", "g": "site de communication"}}, {"type": "Feature", "geometry": {"type": "Point", "coordinates": [-74.157207, 18.538151]}, "properties": {"o": "D", "g": "site de communication"}}, {"type": "Feature", "geometry": {"type": "Point", "coordinates": [-72.36612, 18.517693]}, "properties": {"o": "?", "g": "site de communication"}}, {"type": "Feature", "geometry": {"type": "Point", "coordinates": [-74.455179, 18.49483]}, "properties": {"o": "?", "g": "site de communication"}}, {"type": "Feature", "geometry": {"type": "Point", "coordinates": [-74.451064, 18.482796]}, "properties": {"o": "?", "g": "site de communication"}}, {"type": "Feature", "geometry": {"type": "Point", "coordinates": [-74.1194, 18.545051]}, "properties": {"o": "?", "g": "site de communication"}}, {"type": "Feature", "geometry": {"type": "Point", "coordinates": [-72.290849, 18.341193]}, "properties": {"o": "?", "g": "site de communication"}}, {"type": "Feature", "geometry": {"type": "Point", "coordinates": [-72.290329, 18.341786]}, "properties": {"o": "?", "g": "site de communication"}}, {"type": "Feature", "geometry": {"type": "Point", "coordinates": [-74.11658, 18.482208]}, "properties": {"o": "?", "g": "site de communication"}}, {"type": "Feature", "geometry": {"type": "Point", "coordinates": [-74.115584, 18.483048]}, "properties": {"o": "?", "g": "site de communication"}}, {"type": "Feature", "geometry": {"type": "Point", "coordinates": [-72.343694, 18.523071]}, "properties": {"o": "?", "g": "accès internet public"}}, {"type": "Feature", "geometry": {"type": "Point", "coordinates": [-72.343574, 18.523405]}, "properties": {"o": "?", "g": "accès internet public"}}, {"type": "Feature", "geometry": {"type": "Point", "coordinates": [-72.644336, 19.291936]}, "properties": {"o": "D", "g": "site de communication"}}, {"type": "Feature", "geometry": {"type": "Point", "coordinates": [-72.319387, 18.606966]}, "properties": {"o": "D", "g": "site de communication"}}, {"type": "Feature", "geometry": {"type": "Point", "coordinates": [-72.341366, 18.545595]}, "properties": {"o": "D", "g": "boutique mobile"}}, {"type": "Feature", "geometry": {"type": "Point", "coordinates": [-72.20096, 19.76297]}, "properties": {"o": "?", "g": "accès internet public"}}, {"type": "Feature", "geometry": {"type": "Point", "coordinates": [-72.198499, 19.762083]}, "properties": {"o": "D", "g": "bureau d'opérateur"}}, {"type": "Feature", "geometry": {"type": "Point", "coordinates": [-72.390008, 18.992026]}, "properties": {"o": "D", "g": "boutique mobile"}}, {"type": "Feature", "geometry": {"type": "Point", "coordinates": [-73.208945, 18.309963]}, "properties": {"o": "N", "g": "site de communication"}}, {"type": "Feature", "geometry": {"type": "Point", "coordinates": [-72.333815, 18.535693]}, "properties": {"o": "D", "g": "site de communication"}}, {"type": "Feature", "geometry": {"type": "Point", "coordinates": [-72.628688, 18.507783]}, "properties": {"o": "N", "g": "boutique mobile"}}, {"type": "Feature", "geometry": {"type": "Point", "coordinates": [-72.315514, 18.583952]}, "properties": {"o": "D", "g": "site de communication"}}, {"type": "Feature", "geometry": {"type": "Point", "coordinates": [-72.326429, 18.540649]}, "properties": {"o": "?", "g": "accès internet public"}}, {"type": "Feature", "geometry": {"type": "Point", "coordinates": [-72.274132, 18.512328]}, "properties": {"o": "?", "g": "boutique mobile"}}, {"type": "Feature", "geometry": {"type": "Point", "coordinates": [-73.861968, 18.340681]}, "properties": {"o": "?", "g": "site de communication"}}, {"type": "Feature", "geometry": {"type": "Point", "coordinates": [-72.055759, 19.383205]}, "properties": {"o": "?", "g": "site de communication"}}, {"type": "Feature", "geometry": {"type": "Point", "coordinates": [-72.056821, 19.340443]}, "properties": {"o": "?", "g": "site de communication"}}, {"type": "Feature", "geometry": {"type": "Point", "coordinates": [-72.116095, 18.796427]}, "properties": {"o": "?", "g": "site de communication"}}, {"type": "Feature", "geometry": {"type": "Point", "coordinates": [-72.320603, 18.5355]}, "properties": {"o": "?", "g": "site de communication"}}, {"type": "Feature", "geometry": {"type": "Point", "coordinates": [-72.528778, 18.810499]}, "properties": {"o": "?", "g": "accès internet public"}}, {"type": "Feature", "geometry": {"type": "Point", "coordinates": [-74.260956, 18.31189]}, "properties": {"o": "?", "g": "site de communication"}}, {"type": "Feature", "geometry": {"type": "Point", "coordinates": [-72.464757, 19.288844]}, "properties": {"o": "?", "g": "site de communication"}}, {"type": "Feature", "geometry": {"type": "Point", "coordinates": [-73.35399, 18.392061]}, "properties": {"o": "?", "g": "site de communication"}}, {"type": "Feature", "geometry": {"type": "Point", "coordinates": [-73.355158, 18.391933]}, "properties": {"o": "?", "g": "site de communication"}}, {"type": "Feature", "geometry": {"type": "Point", "coordinates": [-73.416132, 18.385374]}, "properties": {"o": "?", "g": "boutique mobile"}}, {"type": "Feature", "geometry": {"type": "Point", "coordinates": [-73.415025, 18.38305]}, "properties": {"o": "?", "g": "site de communication"}}, {"type": "Feature", "geometry": {"type": "Point", "coordinates": [-73.238271, 18.358906]}, "properties": {"o": "?", "g": "site de communication"}}, {"type": "Feature", "geometry": {"type": "Point", "coordinates": [-73.884382, 18.422147]}, "properties": {"o": "?", "g": "site de communication"}}, {"type": "Feature", "geometry": {"type": "Point", "coordinates": [-74.116922, 18.647874]}, "properties": {"o": "D", "g": "bureau d'opérateur"}}, {"type": "Feature", "geometry": {"type": "Point", "coordinates": [-72.528562, 18.233]}, "properties": {"o": "?", "g": "site de communication"}}, {"type": "Feature", "geometry": {"type": "Point", "coordinates": [-72.16123, 19.701554]}, "properties": {"o": "?", "g": "boutique mobile"}}, {"type": "Feature", "geometry": {"type": "Point", "coordinates": [-72.160911, 19.699607]}, "properties": {"o": "?", "g": "boutique mobile"}}, {"type": "Feature", "geometry": {"type": "Point", "coordinates": [-72.277563, 18.596126]}, "properties": {"o": "?", "g": "site de communication"}}, {"type": "Feature", "geometry": {"type": "Point", "coordinates": [-72.267989, 18.59995]}, "properties": {"o": "?", "g": "site de communication"}}, {"type": "Feature", "geometry": {"type": "Point", "coordinates": [-72.184662, 18.86549]}, "properties": {"o": "?", "g": "site de communication"}}, {"type": "Feature", "geometry": {"type": "Point", "coordinates": [-72.308491, 18.571786]}, "properties": {"o": "?", "g": "site de communication"}}, {"type": "Feature", "geometry": {"type": "Point", "coordinates": [-72.293297, 18.588945]}, "properties": {"o": "?", "g": "site de communication"}}, {"type": "Feature", "geometry": {"type": "Point", "coordinates": [-72.298751, 18.565869]}, "properties": {"o": "?", "g": "site de communication"}}, {"type": "Feature", "geometry": {"type": "Point", "coordinates": [-72.312743, 18.573998]}, "properties": {"o": "?", "g": "site de communication"}}, {"type": "Feature", "geometry": {"type": "Point", "coordinates": [-72.406301, 18.548367]}, "properties": {"o": "?", "g": "site de communication"}}, {"type": "Feature", "geometry": {"type": "Point", "coordinates": [-72.323198, 18.536086]}, "properties": {"o": "N", "g": "bureau d'opérateur"}}, {"type": "Feature", "geometry": {"type": "Point", "coordinates": [-72.323466, 18.532342]}, "properties": {"o": "D", "g": "boutique mobile"}}, {"type": "Feature", "geometry": {"type": "Point", "coordinates": [-72.316514, 18.549723]}, "properties": {"o": "D", "g": "bureau d'opérateur"}}, {"type": "Feature", "geometry": {"type": "Point", "coordinates": [-72.329554, 18.541978]}, "properties": {"o": "D", "g": "boutique mobile"}}, {"type": "Feature", "geometry": {"type": "Point", "coordinates": [-72.282158, 18.513476]}, "properties": {"o": "D", "g": "boutique mobile"}}, {"type": "Feature", "geometry": {"type": "Point", "coordinates": [-72.289341, 18.516538]}, "properties": {"o": "?", "g": "boutique mobile"}}, {"type": "Feature", "geometry": {"type": "Point", "coordinates": [-72.302779, 18.547104]}, "properties": {"o": "N", "g": "boutique mobile"}}, {"type": "Feature", "geometry": {"type": "Point", "coordinates": [-72.537291, 18.236249]}, "properties": {"o": "?", "g": "boutique mobile"}}, {"type": "Feature", "geometry": {"type": "Point", "coordinates": [-72.701141, 19.110797]}, "properties": {"o": "?", "g": "bureau d'opérateur"}}, {"type": "Feature", "geometry": {"type": "Point", "coordinates": [-72.304057, 18.550117]}, "properties": {"o": "?", "g": "accès internet public"}}, {"type": "Feature", "geometry": {"type": "Point", "coordinates": [-72.197944, 19.734644]}, "properties": {"o": "N", "g": "site de communication"}}, {"type": "Feature", "geometry": {"type": "Point", "coordinates": [-72.334148, 19.371002]}, "properties": {"o": "N", "g": "boutique mobile"}}, {"type": "Feature", "geometry": {"type": "Point", "coordinates": [-72.635849, 18.239639]}, "properties": {"o": "?", "g": "site de communication"}}, {"type": "Feature", "geometry": {"type": "Point", "coordinates": [-74.12723, 18.642888]}, "properties": {"o": "?", "g": "site de communication"}}, {"type": "Feature", "geometry": {"type": "Point", "coordinates": [-72.948375, 18.860938]}, "properties": {"o": "?", "g": "accès internet public"}}, {"type": "Feature", "geometry": {"type": "Point", "coordinates": [-72.948184, 18.861021]}, "properties": {"o": "D", "g": "accès internet public"}}, {"type": "Feature", "geometry": {"type": "Point", "coordinates": [-72.673625, 19.300854]}, "properties": {"o": "?", "g": "site de communication"}}, {"type": "Feature", "geometry": {"type": "Point", "coordinates": [-72.757326, 19.052569]}, "properties": {"o": "?", "g": "site de communication"}}, {"type": "Feature", "geometry": {"type": "Point", "coordinates": [-72.758341, 19.051665]}, "properties": {"o": "?", "g": "site de communication"}}, {"type": "Feature", "geometry": {"type": "Point", "coordinates": [-72.669984, 19.147532]}, "properties": {"o": "?", "g": "site de communication"}}, {"type": "Feature", "geometry": {"type": "Point", "coordinates": [-72.670205, 19.147292]}, "properties": {"o": "?", "g": "site de communication"}}]}